{"type":"FeatureCollection","attribution":"Derived from USFS MVUM roads + USFS Basic Ownership (public domain); terrain from Mapzen tiles (USGS 3DEP). Heuristic beta \u2014 not a statement of legality. Generated 2026-07-23.","features":[{"type":"Feature","geometry":{"type":"Polygon","coordinates":[[[-86.6203609845,37.9100006265],[-86.6181906084,37.9113682481],[-86.6159790493,37.9107509281],[-86.6147717519,37.9083906084],[-86.6153890719,37.9061790493],[-86.6173893916,37.9050517519],[-86.6196009507,37.9056690719],[-86.6207585612,37.9077392086],[-86.6203609845,37.9100006265]]]},"properties":{"flat_pct":14}},{"type":"Feature","geometry":{"type":"Polygon","coordinates":[[[-86.6154552214,37.9190376416],[-86.6128874357,37.9206886305],[-86.6100715764,37.9194293468],[-86.6097528019,37.9146550453],[-86.610976002,37.9127118883],[-86.6132149547,37.9122028019],[-86.6153181117,37.913506002],[-86.6154552214,37.9190376416]]]},"properties":{"flat_pct":41}},{"type":"Feature","geometry":{"type":"Polygon","coordinates":[[[-86.6127464326,37.9913824579],[-86.6151841494,37.9905834227],[-86.61619893001824,37.99090466793219],[-86.61622,37.99207],[-86.61739643888258,37.99204636995071],[-86.6178165773,37.9943541494],[-86.6166801944,37.9963493216],[-86.6144658506,37.9969565773],[-86.6124706784,37.9958201944],[-86.6118110827,37.9934794078],[-86.6127464326,37.9913824579]]]},"properties":{"flat_pct":52}},{"type":"Feature","geometry":{"type":"Polygon","coordinates":[[[-86.6660397714,38.06109706],[-86.6638911213,38.0625658877],[-86.6596112612,38.0622108251],[-86.6554727903,38.0639692495],[-86.6526437749,38.0635715011],[-86.6512173578,38.065597977],[-86.6489429579,38.0659129101],[-86.6466223305,38.0630382262],[-86.64672298908422,38.06214416686811],[-86.64882,38.06215],[-86.64749867239652,38.06080355209987],[-86.6487537798,38.0600514414],[-86.6446215769,38.0575195541],[-86.64361062109998,38.05482877465395],[-86.64617,38.05484],[-86.64614,38.05045],[-86.65041903125483,38.05046493553667],[-86.6501671335,38.0534761563],[-86.6549086833,38.0573968349],[-86.6628831756,38.0554850434],[-86.6648582732,38.0559149287],[-86.666192716,38.0577834416],[-86.6660397714,38.06109706]],[[-86.64904,38.05156],[-86.64843,38.05131],[-86.64984,38.05245],[-86.64904,38.05156]]]},"properties":{"flat_pct":34}},{"type":"Feature","geometry":{"type":"Polygon","coordinates":[[[-86.6255224026,38.1087904442],[-86.62529810745626,38.11325433497591],[-86.62132,38.1127],[-86.62131,38.11007],[-86.62384,38.11007],[-86.62380713700347,38.10697266257652],[-86.6255224026,38.1087904442]]]},"properties":{"flat_pct":20}},{"type":"Feature","geometry":{"type":"Polygon","coordinates":[[[-86.6227995985,38.1154574033],[-86.6207872802,38.1152666495],[-86.61935161983783,38.11383989293509],[-86.62499411215877,38.11382078743061],[-86.6227995985,38.1154574033]]]},"properties":{}},{"type":"Feature","geometry":{"type":"Polygon","coordinates":[[[-86.6560404362,38.1299009489],[-86.6532668619,38.1317499984],[-86.6500727584,38.1300514219],[-86.650506004,38.123867134],[-86.6521496977,38.1218975676],[-86.65314831547506,38.121635052994925],[-86.65311,38.12453],[-86.65662,38.12456],[-86.6560404362,38.1299009489]]]},"properties":{"flat_pct":62}},{"type":"Feature","geometry":{"type":"Polygon","coordinates":[[[-86.6459688703,38.1373786238],[-86.6438155885,38.1388467239],[-86.6393260325,38.1385720084],[-86.6373983095,38.1406466065],[-86.6351170683,38.1413813943],[-86.6320344396,38.1401020523],[-86.6309560387,38.1379217342],[-86.628048721,38.1397552598],[-86.62814365961063,38.14364855053927],[-86.626177376355,38.14734135744092],[-86.62308,38.14744],[-86.62295827767771,38.151410852646954],[-86.6222012507,38.1519256183],[-86.6159028802,38.1538062624],[-86.60889,38.15740538342149],[-86.60889,38.15527],[-86.60275,38.15563],[-86.60377,38.15175],[-86.60893,38.15159],[-86.6099316720644,38.149966860517566],[-86.61544928835976,38.14769548684542],[-86.61838,38.1476],[-86.6194730547,38.1465268666],[-86.6221247578,38.1426326512],[-86.6221342246,38.1379200607],[-86.6243876415,38.1339495155],[-86.6269305963,38.1334718013],[-86.6318369215,38.1294046722],[-86.6398706775,38.1276153814],[-86.6382069016,38.1262612676],[-86.6379013127,38.1240454734],[-86.6363172995,38.1219535354],[-86.6366150708,38.1199542495],[-86.6381135847,38.1185976847],[-86.6404096849,38.118599039],[-86.6446433486,38.1211835514],[-86.6449899694,38.1254556269],[-86.642682165,38.127418174],[-86.6463160419,38.1326935442],[-86.6459688703,38.1373786238]],[[-86.63231,38.13274],[-86.63253,38.13259],[-86.63239,38.13266],[-86.63231,38.13274]],[[-86.63492,38.13233],[-86.63608,38.1323],[-86.63591,38.13229],[-86.63492,38.13233]],[[-86.63246,38.13982],[-86.63474,38.13971],[-86.63474,38.13963],[-86.63246,38.13982]],[[-86.63915,38.12515],[-86.6406,38.12513],[-86.63916,38.12492],[-86.63915,38.12515]]]},"properties":{"flat_pct":48}},{"type":"Feature","geometry":{"type":"Polygon","coordinates":[[[-86.6509833358,38.2002480872],[-86.6486693228,38.2002868255],[-86.6468835695,38.1982676145],[-86.6453861677,38.1979542048],[-86.6429290846,38.19929649],[-86.6376427598,38.1996538009],[-86.6331076384,38.1985825264],[-86.6309234716,38.2016264618],[-86.6213886809,38.2057661813],[-86.6151763336,38.2041426074],[-86.609991823,38.2012048121],[-86.6074188233,38.2023708051],[-86.59468321796051,38.20231696294241],[-86.59470873992834,38.196106617440506],[-86.59827033184023,38.19593798200623],[-86.59743,38.19936],[-86.5991,38.1993],[-86.59901946166725,38.1960337231714],[-86.6013563841,38.1959131347],[-86.6036170778,38.1935817777],[-86.6037664444,38.1914721268],[-86.6061050955,38.1882242295],[-86.6132522878,38.1854782466],[-86.6158425132,38.1869333675],[-86.6164574629,38.1893789833],[-86.6150467988,38.1921635064],[-86.6119304431,38.1946274164],[-86.6138463158,38.1951664651],[-86.617004175,38.1983763959],[-86.6222598245,38.1991736632],[-86.6275004415,38.1962958056],[-86.6289698817,38.1939676874],[-86.6312997409,38.1926246979],[-86.6364770324,38.1924205483],[-86.6384493621,38.1935894428],[-86.6454451904,38.1918905077],[-86.6518834524,38.1931992704],[-86.6535091463,38.1944464886],[-86.6537095372,38.19730484],[-86.6509833358,38.2002480872]],[[-86.6127,38.19022],[-86.61222,38.18959],[-86.6122,38.19026],[-86.6127,38.19022]]]},"properties":{"flat_pct":35}},{"type":"Feature","geometry":{"type":"Polygon","coordinates":[[[-86.62231154260881,38.231099108485324],[-86.62352505665636,38.22714254299433],[-86.63042,38.22699],[-86.63033,38.22958],[-86.62847,38.23075],[-86.62231154260881,38.231099108485324]],[[-86.62678,38.23079],[-86.62679,38.23011],[-86.62526,38.23016],[-86.62525,38.23083],[-86.62678,38.23079]]]},"properties":{"flat_pct":24}},{"type":"Feature","geometry":{"type":"Polygon","coordinates":[[[-86.6269907765058,38.27196278905125],[-86.62896451018715,38.270324101698456],[-86.63148335603282,38.27081024621482],[-86.63251,38.272158522799515],[-86.63251,38.27566],[-86.62699063690626,38.274529823040446],[-86.6269907765058,38.27196278905125]],[[-86.62992,38.27493],[-86.63041,38.27493],[-86.63041,38.27461],[-86.62992,38.27493]]]},"properties":{"flat_pct":72}},{"type":"Feature","geometry":{"type":"Polygon","coordinates":[[[-86.62711843143016,38.292895769092496],[-86.62440743121377,38.29175912339439],[-86.62318309710226,38.28981668062252],[-86.62389838729241,38.28700369411516],[-86.6256377646139,38.28560959838503],[-86.62940698289378,38.28541972851018],[-86.63205759996272,38.28857882649452],[-86.63471107527872,38.28810623080878],[-86.63671783954851,38.29009937730894],[-86.63650056306861,38.292385174515594],[-86.63388410737932,38.294878885678],[-86.63381,38.29301],[-86.62711843143016,38.292895769092496]],[[-86.62609,38.28875],[-86.62687,38.28931],[-86.62687,38.28871],[-86.62609,38.28875]]]},"properties":{"flat_pct":38}},{"type":"Feature","geometry":{"type":"Polygon","coordinates":[[[-86.68491766688348,38.31286752394848],[-86.68505559926287,38.31515947783051],[-86.68326173852712,38.316993322029404],[-86.6802973012921,38.3167459394614],[-86.6787366779706,38.31506173852711],[-86.6788240605386,38.3127673012921],[-86.68050826147288,38.311206677970596],[-86.68319947783051,38.31134440073714],[-86.68491766688348,38.31286752394848]]]},"properties":{"flat_pct":48}},{"type":"Feature","geometry":{"type":"Polygon","coordinates":[[[-86.6947792729948,38.572579353076065],[-86.69352699964882,38.57450390221954],[-86.69122237151414,38.57516891745676],[-86.68918434534855,38.5741113129527],[-86.68849108254325,38.57192237151415],[-86.68921129449348,38.57022228790133],[-86.69415265135926,38.57013417526107],[-86.6947792729948,38.572579353076065]]]},"properties":{"flat_pct":67}},{"type":"Feature","geometry":{"type":"Polygon","coordinates":[[[-86.66329118589042,38.592284052309495],[-86.66271070327139,38.59218968662847],[-86.66190209433316,38.59184151204319],[-86.66104578386377,38.59104345139712],[-86.65992706027227,38.58746806890223],[-86.66418,38.58669],[-86.66546529825811,38.59153897758526],[-86.66329118589042,38.592284052309495]],[[-86.66312,38.59217],[-86.66312,38.59225],[-86.66321,38.59219],[-86.66312,38.59217]]]},"properties":{"flat_pct":33}},{"type":"Feature","geometry":{"type":"Polygon","coordinates":[[[-86.82531153417068,38.601565057416906],[-86.82325651597324,38.60255403863609],[-86.82327,38.59921],[-86.82605681481695,38.59921602554555],[-86.82531153417068,38.601565057416906]]]},"properties":{"flat_pct":50}},{"type":"Feature","geometry":{"type":"Polygon","coordinates":[[[-86.81247,38.61387],[-86.81245,38.61568],[-86.80942650635042,38.61563947059451],[-86.80931970110078,38.61379398742602],[-86.81247,38.61387]]]},"properties":{"flat_pct":67}},{"type":"Feature","geometry":{"type":"Polygon","coordinates":[[[-86.77435493689381,38.64006612370224],[-86.77342102804748,38.63796853170059],[-86.77424387629776,38.63582493689381],[-86.77581597693346,38.634953799191145],[-86.7787250631062,38.63568387629776],[-86.77965897195253,38.637781468299416],[-86.77883612370225,38.63992506310619],[-86.7764985317006,38.64088897195252],[-86.77435493689381,38.64006612370224]]]},"properties":{"flat_pct":55}},{"type":"Feature","geometry":{"type":"Polygon","coordinates":[[[-86.66998682014751,38.64656096863991],[-86.67247527096605,38.64593764415879],[-86.67453576379305,38.64746580978952],[-86.67483235584122,38.65094527096605],[-86.67330419021049,38.65300576379305],[-86.67101914596824,38.6532308210072],[-86.66924423620696,38.651774190210475],[-86.66890444581999,38.64858594857901],[-86.66998682014751,38.64656096863991]]]},"properties":{"flat_pct":81}},{"type":"Feature","geometry":{"type":"Polygon","coordinates":[[[-86.63198802539304,38.67893572520646],[-86.63283975922977,38.6810680074134],[-86.63171364698161,38.68337295688998],[-86.62915814778131,38.68404158919118],[-86.62714704311001,38.6829336469816],[-86.62650841080882,38.68072814778131],[-86.6276163530184,38.67871704311002],[-86.6298780074134,38.67803024077024],[-86.63198802539304,38.67893572520646]]]},"properties":{"flat_pct":76}},{"type":"Feature","geometry":{"type":"Polygon","coordinates":[[[-86.64245592038438,38.69118217147763],[-86.64699939033638,38.69101798228623],[-86.64704,38.69395],[-86.64231,38.69402],[-86.64245592038438,38.69118217147763]]]},"properties":{"flat_pct":38}},{"type":"Feature","geometry":{"type":"Polygon","coordinates":[[[-86.65391378323582,38.69195298446698],[-86.65449599533089,38.69481721910919],[-86.65155,38.69483],[-86.6514631770754,38.69091332140138],[-86.65391378323582,38.69195298446698]]]},"properties":{"flat_pct":67}},{"type":"Feature","geometry":{"type":"Polygon","coordinates":[[[-86.62987599143631,38.70779404703153],[-86.6304684250492,38.705575691705405],[-86.63274935422737,38.70440168873723],[-86.63401821179534,38.70464062475248],[-86.63321,38.70686],[-86.63603327846218,38.706799349549684],[-86.63613831126277,38.70747935422736],[-86.63533129353434,38.70962895891768],[-86.63324064577263,38.71057831126277],[-86.6310256917054,38.709781574950796],[-86.62987599143631,38.70779404703153]]]},"properties":{"flat_pct":33}},{"type":"Feature","geometry":{"type":"Polygon","coordinates":[[[-86.61784372239282,38.71679772165361],[-86.61943590551932,38.715552424608276],[-86.62145668780214,38.7155998672573],[-86.62361688726209,38.718753833624305],[-86.61748446269195,38.7191715014599],[-86.61784372239282,38.71679772165361]]]},"properties":{"flat_pct":67}},{"type":"Feature","geometry":{"type":"Polygon","coordinates":[[[-86.61173440279775,38.746543221645794],[-86.60899667952044,38.74796439369519],[-86.60576293315171,38.74607062926315],[-86.61336,38.74114],[-86.6099306845113,38.74118082518439],[-86.61116068462766,38.737959039821284],[-86.61389317819142,38.737228824284855],[-86.6148088599829,38.73761564094406],[-86.61407,38.73762],[-86.61414,38.74069],[-86.61605,38.74029],[-86.61614218159573,38.73953288325988],[-86.61613117571514,38.74083317819142],[-86.61496931537233,38.74358096017872],[-86.61209722307382,38.744271210402665],[-86.61173440279775,38.746543221645794]]]},"properties":{"flat_pct":41}},{"type":"Feature","geometry":{"type":"Polygon","coordinates":[[[-86.6139187995167,38.754094689869675],[-86.61449581397106,38.751872274008925],[-86.61647531013033,38.750708799516694],[-86.61887772599107,38.75139581397106],[-86.6200412004833,38.75337531013033],[-86.61946418602894,38.75559772599108],[-86.61748468986967,38.75676120048331],[-86.61508227400893,38.75607418602895],[-86.6139187995167,38.754094689869675]]]},"properties":{"flat_pct":24}},{"type":"Feature","geometry":{"type":"Polygon","coordinates":[[[-86.63300975383447,38.76259871047146],[-86.6307514127338,38.763013407242234],[-86.6287136739976,38.76145502932658],[-86.6286123302417,38.758746915364],[-86.63009497067341,38.7569936739976],[-86.63238308463599,38.7568023302417],[-86.63413632600239,38.75828497067342],[-86.63431340724223,38.76070858726619],[-86.63300975383447,38.76259871047146]]]},"properties":{"flat_pct":19}},{"type":"Feature","geometry":{"type":"Polygon","coordinates":[[[-86.61388498027797,37.94352755188673],[-86.6084618118,37.9428585874],[-86.6070733038,37.9447685615],[-86.6048008912,37.9450975278],[-86.6027814385,37.9435233038],[-86.6024524722,37.9412508912],[-86.60456,37.94078],[-86.6046412366,37.9390773759],[-86.6076193146,37.9400158082],[-86.6096913751,37.9372729885],[-86.6132258451,37.937596778],[-86.61388498027797,37.94352755188673]]]},"properties":{"flat_pct":65}},{"type":"Feature","geometry":{"type":"Polygon","coordinates":[[[-86.59018328157302,37.95723164078647],[-86.5876010917596,37.9597402999394],[-86.58562116999849,37.95933321068708],[-86.58411757636185,37.95778505706178],[-86.58140569474189,37.958130647754444],[-86.58139,37.95693],[-86.58368,37.95691],[-86.58367,37.956],[-86.57831890586831,37.95606240343011],[-86.57936901150917,37.95274404943078],[-86.57729621831537,37.95131449080225],[-86.57708838537242,37.94869835305605],[-86.58403451599042,37.94866811962572],[-86.58434286505722,37.94973542955036],[-86.58844499042465,37.947302828478925],[-86.59093549722915,37.94770148457206],[-86.59273849643901,37.95076496897],[-86.59029049726743,37.95479844452695],[-86.59018328157302,37.95723164078647]]]},"properties":{"flat_pct":55}},{"type":"Feature","geometry":{"type":"Polygon","coordinates":[[[-86.5853660979201,37.960084227645496],[-86.58764331779217,37.96037807725487],[-86.58904577235451,37.9621960979201],[-86.58866192274513,37.96467331779216],[-86.5868439020799,37.96607577235451],[-86.58456668220784,37.96578192274513],[-86.5831642276455,37.963963902079904],[-86.58354807725487,37.96148668220784],[-86.5853660979201,37.960084227645496]],[[-86.58784,37.96464],[-86.58758,37.9638],[-86.58731,37.96446],[-86.58784,37.96464]]]},"properties":{"flat_pct":90}},{"type":"Feature","geometry":{"type":"Polygon","coordinates":[[[-86.59790353093358,37.968053121672945],[-86.591600863036,37.969388295347166],[-86.5898301652,37.9679265474],[-86.58961170465284,37.965640863036015],[-86.5908240771849,37.964018658325685],[-86.59282,37.96695],[-86.59543,37.96688],[-86.59546,37.96328],[-86.59256935526169,37.96307613157019],[-86.5968451877,37.960763928],[-86.6013651327,37.9606088614],[-86.60305943737059,37.96145191367107],[-86.6059440514,37.9603544458],[-86.6081444088369,37.96167328930095],[-86.60852082100719,37.96421085403176],[-86.6067056207,37.9664516694],[-86.6024625315603,37.967799998931866],[-86.5993850871,37.966813437],[-86.59790353093358,37.968053121672945]]]},"properties":{"flat_pct":64}},{"type":"Feature","geometry":{"type":"Polygon","coordinates":[[[-86.6023140773,37.9684506157],[-86.6035328255,37.9700632113],[-86.60341638024471,37.97215984589597],[-86.59995,37.97222],[-86.59996,37.97406],[-86.5967082803,37.9734040806],[-86.5960219079,37.9712129688],[-86.5970859194,37.9691782803],[-86.6003489524,37.9679772281],[-86.6023140773,37.9684506157]]]},"properties":{"flat_pct":61}},{"type":"Feature","geometry":{"type":"Polygon","coordinates":[[[-86.60001643843285,37.98754509701917],[-86.596884654,37.9885398987],[-86.59475618428287,37.98767868170338],[-86.5938601013,37.985564654],[-86.5944298666168,37.981571181951594],[-86.5954,37.98155],[-86.59543,37.98531],[-86.59887,37.98517],[-86.59884,37.98148],[-86.60371344319067,37.9813779383625],[-86.60520095314907,37.982258495868784],[-86.60605987031178,37.98438789466803],[-86.60516150413122,37.98650095314906],[-86.60303210533198,37.987359870311785],[-86.6006520462,37.986596132],[-86.60002284512746,37.98753919370626],[-86.60001,37.98515],[-86.60001643843285,37.98754509701917]]]},"properties":{"flat_pct":44}},{"type":"Feature","geometry":{"type":"Polygon","coordinates":[[[-86.59798940663264,37.98995487245627],[-86.5997548566,37.9914229543],[-86.5998641541,37.9939859555],[-86.59823009704769,37.99559900713616],[-86.59550869770989,37.99578601623485],[-86.59545281795305,37.990192960573346],[-86.59798940663264,37.98995487245627]]]},"properties":{"flat_pct":39}},{"type":"Feature","geometry":{"type":"Polygon","coordinates":[[[-86.54944884190726,38.00204426431271],[-86.55377810067245,38.00172482097797],[-86.55503226289936,38.00331003041147],[-86.55492360194634,38.0054975733822],[-86.55491,38.00382],[-86.54782552007728,38.0038677605388],[-86.54944884190726,38.00204426431271]]]},"properties":{"flat_pct":20}},{"type":"Feature","geometry":{"type":"Polygon","coordinates":[[[-86.5519684661271,38.01029243511397],[-86.54651431237471,38.01071673847369],[-86.54648,38.00756],[-86.55357,38.00753],[-86.5519684661271,38.01029243511397]]]},"properties":{"flat_pct":23}},{"type":"Feature","geometry":{"type":"Polygon","coordinates":[[[-86.6065570989,38.0103598454],[-86.6101251592,38.0105691823],[-86.6111477915,38.0123127519],[-86.61095264436887,38.01432740077502],[-86.60541075552855,38.014433568811455],[-86.6053375951,38.0119718697],[-86.6065570989,38.0103598454]]]},"properties":{"flat_pct":38}},{"type":"Feature","geometry":{"type":"Polygon","coordinates":[[[-86.5649271147344,38.02594554859494],[-86.56543964112645,38.02225324545358],[-86.5684,38.02224],[-86.56841,38.02593],[-86.5649271147344,38.02594554859494]]]},"properties":{"flat_pct":56}},{"type":"Feature","geometry":{"type":"Polygon","coordinates":[[[-86.5847560738847,38.040386728991706],[-86.58562291013853,38.04334704209106],[-86.58361638524639,38.04563424230065],[-86.58210018604821,38.04589576712838],[-86.58211,38.04409],[-86.57756,38.04413],[-86.57756840028145,38.039887857867434],[-86.57911898062699,38.03881649550846],[-86.58140806712751,38.03863716081652],[-86.5847560738847,38.040386728991706]],[[-86.58299,38.04363],[-86.58245,38.04322],[-86.58211,38.04409],[-86.58299,38.04363]]]},"properties":{"flat_pct":84}},{"type":"Feature","geometry":{"type":"Polygon","coordinates":[[[-86.57494976167983,38.04724851412745],[-86.57330122334513,38.04607884186632],[-86.57276790210412,38.04416508124375],[-86.57756,38.04413],[-86.57755,38.04685],[-86.57899481894607,38.04682311964751],[-86.57494976167983,38.04724851412745]]]},"properties":{"flat_pct":90}},{"type":"Feature","geometry":{"type":"Polygon","coordinates":[[[-86.56011214079342,38.05575481224503],[-86.5589537922038,38.054869574544384],[-86.55834951811447,38.05354282284693],[-86.55920945938925,38.050848340186086],[-86.55971293153247,38.050456590880025],[-86.55974,38.05177],[-86.56203,38.05175],[-86.56085,38.0542],[-86.55975,38.05419],[-86.55975,38.05541],[-86.56198,38.05541],[-86.56439041741035,38.0517155905861],[-86.56370054061075,38.054991659813915],[-86.56184282284694,38.05595048188553],[-86.56011214079342,38.05575481224503]]]},"properties":{"flat_pct":56}},{"type":"Feature","geometry":{"type":"Polygon","coordinates":[[[-86.6104262083,38.0690754849],[-86.61052749721667,38.07327],[-86.60511326868128,38.07327],[-86.6047459505,38.071823105],[-86.59720201175257,38.074992499125614],[-86.5883453018255,38.07306862553904],[-86.58131434576265,38.06975518709192],[-86.575907326863,38.064299305434034],[-86.57552827435191,38.06176213376485],[-86.5769830574,38.0599857092],[-86.57926786623516,38.05975827435191],[-86.5847847651,38.0647632584],[-86.5969123009,38.0688371688],[-86.6055437053,38.0654388357],[-86.6104262083,38.0690754849]]]},"properties":{"flat_pct":22}},{"type":"Feature","geometry":{"type":"Polygon","coordinates":[[[-86.5418001276,38.2786874062],[-86.53849879369162,38.28043679142428],[-86.53652514516382,38.27970583859066],[-86.53547916449092,38.277972862976206],[-86.5376904166,38.2702235616],[-86.53995208552057,38.26852515357404],[-86.54218266857937,38.26906974255343],[-86.54337484642596,38.27103208552058],[-86.54346283758115,38.27236601021927],[-86.54214,38.27184],[-86.5421,38.27454],[-86.5429284285,38.2751970906],[-86.5418001276,38.2786874062]]]},"properties":{"flat_pct":42}},{"type":"Feature","geometry":{"type":"Polygon","coordinates":[[[-86.5667590622,38.4808539473],[-86.5683234436,38.4795738995],[-86.57034553094483,38.47957715418366],[-86.5719054284,38.4808614395],[-86.57258631852953,38.48317878435674],[-86.56645109311994,38.483231560489294],[-86.5667590622,38.4808539473]]]},"properties":{"flat_pct":77}},{"type":"Feature","geometry":{"type":"Polygon","coordinates":[[[-86.5632304174,38.4897165371],[-86.5607317537,38.4919229773],[-86.5576016611,38.4901974641],[-86.5572625683,38.4860694281],[-86.5601068982,38.4826435295],[-86.5624006158,38.4825389464],[-86.5640964705,38.4840868982],[-86.5632304174,38.4897165371]]]},"properties":{"flat_pct":45}},{"type":"Feature","geometry":{"type":"Polygon","coordinates":[[[-86.537960529,38.4975574407],[-86.53754,38.50023],[-86.53535,38.50168],[-86.5331,38.50169],[-86.53309,38.49956],[-86.53138,38.49933],[-86.53140546135717,38.50183794368091],[-86.5286679069,38.4990053993],[-86.5305143069,38.4939552592],[-86.5326541724,38.4925403753],[-86.5351054088,38.4932969209],[-86.5359786894,38.4963995235],[-86.537960529,38.4975574407]]]},"properties":{"flat_pct":51}},{"type":"Feature","geometry":{"type":"Polygon","coordinates":[[[-86.59829,38.65268],[-86.593631458,38.6515945855],[-86.5928923883,38.6497396838],[-86.5936655925,38.6476070392],[-86.602152971,38.6455201391],[-86.6045294114,38.6462905907],[-86.60579560063414,38.6487369957188],[-86.6050615342,38.6511950574],[-86.59829,38.65268]]]},"properties":{"flat_pct":28}},{"type":"Feature","geometry":{"type":"Polygon","coordinates":[[[-86.59770539188979,38.65652827047762],[-86.59809291586926,38.65399237890849],[-86.60000762319584,38.65272510869571],[-86.60256762109151,38.65331291586927],[-86.60383489130429,38.65522762319585],[-86.60337708413074,38.65747762109151],[-86.60146237680416,38.65874489130429],[-86.59915423398684,38.6583095437628],[-86.59770539188979,38.65652827047762]]]},"properties":{"flat_pct":38}},{"type":"Feature","geometry":{"type":"Polygon","coordinates":[[[-86.5882422768,38.6985642306],[-86.5861712531,38.6995556631],[-86.5842342217,38.6989779768],[-86.5825601384,38.6965439047],[-86.58253488851096,38.69457546855953],[-86.58617,38.69456],[-86.58617,38.69639],[-86.58900351017101,38.69637789098218],[-86.5882422768,38.6985642306]]]},"properties":{"flat_pct":71}},{"type":"Feature","geometry":{"type":"Polygon","coordinates":[[[-86.52164,38.03954],[-86.52109,38.04255],[-86.51977,38.04375],[-86.51451,38.04439],[-86.51454987560173,38.04353267456294],[-86.52164,38.03954]]]},"properties":{"flat_pct":92}},{"type":"Feature","geometry":{"type":"Polygon","coordinates":[[[-86.5038521084852,38.07680364862818],[-86.50717545571906,38.077062610750296],[-86.50811449122463,38.08051124644122],[-86.50465224203545,38.084873108053294],[-86.50086,38.08489],[-86.50092379536225,38.07955245469221],[-86.5038521084852,38.07680364862818]],[[-86.50541,38.07952],[-86.50617,38.07894],[-86.50542,38.07893],[-86.50541,38.07952]]]},"properties":{"flat_pct":12}},{"type":"Feature","geometry":{"type":"Polygon","coordinates":[[[-86.5178518827864,38.10889331388312],[-86.51841554794262,38.110511888921984],[-86.51425,38.11053],[-86.51428188209559,38.10762075877799],[-86.5178518827864,38.10889331388312]]]},"properties":{"flat_pct":25}},{"type":"Feature","geometry":{"type":"Polygon","coordinates":[[[-86.4686959615147,38.117210209154635],[-86.46547064744551,38.11571241908929],[-86.46661926567342,38.11166380242205],[-86.4696350990962,38.11051553431267],[-86.4720535960883,38.11137098342527],[-86.47293998018398,38.11348909606948],[-86.47206901657472,38.11561359608831],[-86.4686959615147,38.117210209154635]]]},"properties":{"flat_pct":35}},{"type":"Feature","geometry":{"type":"Polygon","coordinates":[[[-86.47467616685445,38.11929755584204],[-86.47573452323383,38.12245850190163],[-86.47350907221306,38.12459443881347],[-86.46514889525356,38.125552779154425],[-86.46203818477026,38.12259203328722],[-86.46270752380244,38.11962480692681],[-86.46490644919274,38.1168968568794],[-86.4671846359625,38.11718311372345],[-86.46818676212929,38.118117379586955],[-86.46581,38.11793],[-86.46818869889258,38.11812014292743],[-86.46863428863018,38.11918165064253],[-86.47467616685445,38.11929755584204]]]},"properties":{"flat_pct":29}},{"type":"Feature","geometry":{"type":"Polygon","coordinates":[[[-86.44926020154769,38.14049344507933],[-86.44983062600342,38.136564823730694],[-86.4491622510713,38.13638840417971],[-86.44922,38.13375],[-86.44713445816618,38.13369080339773],[-86.44770892022012,38.131778454714244],[-86.45025790621446,38.13055272790686],[-86.45584154528575,38.13208892022012],[-86.45701092354061,38.13393539671937],[-86.45379,38.13388],[-86.45374,38.13752],[-86.45714693503291,38.13796811142751],[-86.45418,38.13966],[-86.45369,38.14115],[-86.44926020154769,38.14049344507933]]]},"properties":{"flat_pct":48}},{"type":"Feature","geometry":{"type":"Polygon","coordinates":[[[-86.49547935826767,38.18911433846051],[-86.4951071971385,38.19165253013551],[-86.49320019869785,38.192931371363336],[-86.48610070727916,38.190922216002136],[-86.48863,38.19085],[-86.4888,38.18344],[-86.48690775150057,38.1834134062373],[-86.48732119661928,38.182641798033494],[-86.48987857614027,38.181433681403696],[-86.4934137384724,38.1832415734034],[-86.49333,38.18717],[-86.49426664885765,38.18717810951392],[-86.49547935826767,38.18911433846051]],[[-86.48933,38.18345],[-86.48956,38.18327],[-86.48933,38.18327],[-86.48933,38.18345]]]},"properties":{"flat_pct":57}},{"type":"Feature","geometry":{"type":"Polygon","coordinates":[[[-86.52985336939558,38.19250984503695],[-86.52781146612685,38.19145974552749],[-86.52714872591068,38.1889815009288],[-86.5280888053097,38.18728445850421],[-86.53046,38.18727],[-86.53094849907121,38.18624872591067],[-86.53287764226661,38.187493910423214],[-86.53336127408933,38.189738499071204],[-86.53203974552748,38.191808533873164],[-86.52985336939558,38.19250984503695]]]},"properties":{"flat_pct":42}},{"type":"Feature","geometry":{"type":"Polygon","coordinates":[[[-86.52033587307318,38.242978998059385],[-86.51908915502351,38.241050845564565],[-86.51957100194062,38.23880587307317],[-86.52440529608236,38.236851630368655],[-86.52431569583625,38.242978047196154],[-86.52033587307318,38.242978998059385]]]},"properties":{"flat_pct":59}},{"type":"Feature","geometry":{"type":"Polygon","coordinates":[[[-86.4531864326,38.2763624579],[-86.4550362589,38.2755476239],[-86.4569831192,38.276091266],[-86.45825309050912,38.27974766458667],[-86.45336,38.27973],[-86.45273975597493,38.280800122012536],[-86.4522734227,38.2781658506],[-86.4531864326,38.2763624579]]]},"properties":{"flat_pct":54}},{"type":"Feature","geometry":{"type":"Polygon","coordinates":[[[-86.4548892052,38.4671416407],[-86.4571595896,38.4683001508],[-86.4576425728,38.4710688856],[-86.4561646393,38.4728065271],[-86.45306567081246,38.47325748399293],[-86.45297,38.47055],[-86.44944,38.46945],[-86.453,38.47028],[-86.4533,38.46778],[-86.45252991569834,38.467279574847744],[-86.4548892052,38.4671416407]]]},"properties":{"flat_pct":63}},{"type":"Feature","geometry":{"type":"Polygon","coordinates":[[[-86.4218223101,38.4894449316],[-86.4209615763,38.4870667064],[-86.42229695990679,38.48483],[-86.42438,38.48483],[-86.42713,38.48924],[-86.42442947399884,38.49068983261625],[-86.4218223101,38.4894449316]]]},"properties":{"flat_pct":75}},{"type":"Feature","geometry":{"type":"Polygon","coordinates":[[[-86.4619288403757,38.505684441068475],[-86.4631468101,38.4998956944],[-86.46605783352172,38.49899260655574],[-86.46625,38.50568],[-86.4619288403757,38.505684441068475]]]},"properties":{"flat_pct":61}},{"type":"Feature","geometry":{"type":"Polygon","coordinates":[[[-86.44782432009652,38.544574825525466],[-86.45114952622659,38.5450172708557],[-86.44913,38.54507],[-86.44903,38.5481],[-86.44788,38.54758],[-86.44782432009652,38.544574825525466]]]},"properties":{}},{"type":"Feature","geometry":{"type":"Polygon","coordinates":[[[-86.5274614666,38.6241388943],[-86.52796182664305,38.62597719190959],[-86.52481,38.62526],[-86.52487412514064,38.62880520420442],[-86.52266568271162,38.62838801083173],[-86.52263,38.62614],[-86.52067052556386,38.626173211431116],[-86.5209778806,38.6240824369],[-86.5227987007,38.6226489934],[-86.5258357915,38.6229376482],[-86.5274614666,38.6241388943]]]},"properties":{"flat_pct":94}},{"type":"Feature","geometry":{"type":"Polygon","coordinates":[[[-86.3210799645,38.9679143282],[-86.3229978586,38.9662106254],[-86.3255315378,38.96661236],[-86.3273193746,38.9693978586],[-86.32691764,38.9719315378],[-86.3249958582,38.9731880539],[-86.3227484622,38.97271764],[-86.3210570347,38.9702103143],[-86.3210799645,38.9679143282]],[[-86.32517,38.97152],[-86.32633,38.97154],[-86.32631,38.96864],[-86.32514,38.96862],[-86.32517,38.97152]]]},"properties":{"flat_pct":24}},{"type":"Feature","geometry":{"type":"Polygon","coordinates":[[[-86.3452932517,38.9811465586],[-86.3443052621,38.983227258],[-86.3421773755,38.9840899147],[-86.340062742,38.9831952621],[-86.3392000853,38.9810673755],[-86.3411024566,38.9760151662],[-86.3457112161,38.9735284639],[-86.3477315603,38.9734650523],[-86.3494803945,38.9749528886],[-86.3496649477,38.9772415603],[-86.3452932517,38.9811465586]]]},"properties":{"flat_pct":35}},{"type":"Feature","geometry":{"type":"Polygon","coordinates":[[[-86.3239465966,38.9905632727],[-86.321564035,38.9915142306],[-86.3195012621,38.9905057437],[-86.3185956906,38.9876453079],[-86.3196033006,38.9855821064],[-86.3217746921,38.9848356906],[-86.3238378936,38.9858433006],[-86.3247480403,38.9884115836],[-86.3239465966,38.9905632727]]]},"properties":{"flat_pct":38}},{"type":"Feature","geometry":{"type":"Polygon","coordinates":[[[-86.3929985773,38.9937821213],[-86.391863658,38.9965337764],[-86.3891197259,38.9972197594],[-86.3856506396,38.9946881355],[-86.3850541071,38.9921931265],[-86.386604339,38.9901491837],[-86.3895368735,38.9898841071],[-86.3929985773,38.9937821213]],[[-86.38908,38.99291],[-86.38796,38.99294],[-86.38908,38.99294],[-86.38908,38.99291]],[[-86.3899,38.99697],[-86.38785,38.99586],[-86.38974,38.99693],[-86.3899,38.99697]],[[-86.38948,38.99512],[-86.38947,38.99544],[-86.39021,38.99515],[-86.38948,38.99512]]]},"properties":{"flat_pct":65}},{"type":"Feature","geometry":{"type":"Polygon","coordinates":[[[-86.38344126,38.9985554809],[-86.3856897847,38.999790413],[-86.3862223331,39.0020239014],[-86.384509587,39.0045297847],[-86.3822760986,39.0050623331],[-86.3803202153,39.003859587],[-86.3797876669,39.0016260986],[-86.3812707254,38.9993043851],[-86.38344126,38.9985554809]]]},"properties":{"flat_pct":36}},{"type":"Feature","geometry":{"type":"Polygon","coordinates":[[[-86.3803100457,39.0124467883],[-86.3805602279,39.0147292184],[-86.3788584726,39.0166488407],[-86.375762511,39.016524101],[-86.3741211593,39.0149184726],[-86.374095899,39.012622511],[-86.3757015274,39.0109811593],[-86.3785192184,39.0110097721],[-86.3803100457,39.0124467883]]]},"properties":{"flat_pct":100}},{"type":"Feature","geometry":{"type":"Polygon","coordinates":[[[-86.3939680017,39.0189230823],[-86.3880998703,39.0208672453],[-86.3856567849,39.019278001],[-86.3851873742,39.0169960881],[-86.3867508314,39.0149158127],[-86.3922718565,39.0139022866],[-86.3945044275,39.0115741524],[-86.3973318069914,39.01219033435807],[-86.39739,39.01346],[-86.39836192581468,39.012696950172796],[-86.3990884106,39.0131981939],[-86.400038286,39.015288604],[-86.3992318061,39.0174384106],[-86.397141396,39.018388286],[-86.394682688,39.0176517742],[-86.3939680017,39.0189230823]],[[-86.39518,39.01614],[-86.3967,39.01614],[-86.3967,39.01563],[-86.39518,39.01614]]]},"properties":{"flat_pct":68}},{"type":"Feature","geometry":{"type":"Polygon","coordinates":[[[-86.4555087679,39.0271549737],[-86.4567755535,39.0311267233],[-86.45606,39.03335],[-86.45183,39.03202],[-86.45116,39.03119],[-86.45184,39.02983],[-86.4505,39.03068],[-86.44958941264234,39.02987702751189],[-86.45028,39.02754],[-86.44962,39.02679],[-86.44890857531333,39.02747841246527],[-86.4489289315,39.0241967345],[-86.4472017361,39.024115423],[-86.4452964671,39.0254669255],[-86.44473410153883,39.028506636805034],[-86.43867304163125,39.02686],[-86.4375712933,39.0210899069],[-86.43413911029234,39.021480137341086],[-86.43535,39.0199],[-86.430804637,39.0196518446],[-86.4288653987,39.01839598],[-86.4285805593,39.0178770672],[-86.4284778942,39.0175990832],[-86.4283570721,39.0170195955],[-86.4281878786,39.0136103488],[-86.4256267394,39.0108953986],[-86.4259814142,39.0083547045],[-86.42891714174795,39.00703418644121],[-86.42894,39.00908],[-86.4312,39.00908],[-86.43118,39.01087],[-86.43517156109077,39.01087],[-86.4383550351,39.0125262263],[-86.4453374899,39.0115265857],[-86.4476752065,39.0102655233],[-86.4516952612,39.0109570799],[-86.453598461,39.013653919],[-86.452061741,39.0163666617],[-86.4549624677,39.0185210236],[-86.4568136654,39.0154107634],[-86.4597278437,39.0147707672],[-86.4613723872,39.0153067237],[-86.46019,39.01512],[-86.46114,39.01588],[-86.45886,39.01714],[-86.46111,39.01702],[-86.46081,39.01794],[-86.4595,39.01809],[-86.46017,39.01882],[-86.45907,39.01894],[-86.46043,39.01905],[-86.4597,39.0198],[-86.46062,39.01971],[-86.461,39.02139],[-86.46163,39.01968],[-86.46291,39.0204],[-86.46172,39.0204],[-86.46141,39.02317],[-86.45792,39.02411],[-86.45791,39.02583],[-86.45908,39.02582],[-86.45907113805485,39.026626437008716],[-86.4555087679,39.0271549737]],[[-86.45844,39.02026],[-86.45833,39.02034],[-86.45846,39.02026],[-86.45844,39.02026]],[[-86.43152,39.01267],[-86.43156,39.01269],[-86.43157,39.01267],[-86.43152,39.01267]],[[-86.42959,39.01627],[-86.42841,39.01627],[-86.42841,39.01725],[-86.42968,39.01726],[-86.42959,39.01627]]]},"properties":{"flat_pct":22}},{"type":"Feature","geometry":{"type":"Polygon","coordinates":[[[-86.3233634486,39.0369789592],[-86.3201471031,39.0378546419],[-86.3148690155,39.0343906265],[-86.3150362,39.0309385883],[-86.3135276365,39.0295234753],[-86.3117135572,39.0247452178],[-86.312956002,39.0219218883],[-86.3151949547,39.0214128019],[-86.3177981117,39.022966002],[-86.3197468521,39.0271230233],[-86.3186605495,39.0299905765],[-86.323531221,39.0327655734],[-86.3240987639,39.0350961095],[-86.3233634486,39.0369789592]]]},"properties":{"flat_pct":32}},{"type":"Feature","geometry":{"type":"Polygon","coordinates":[[[-86.3449155542,39.0333140514],[-86.3438331799,39.0353390314],[-86.341344729,39.0359623558],[-86.3390917351,39.0345078171],[-86.3385699931,39.0322717797],[-86.3397821829,39.0303217351],[-86.3420182203,39.0297999931],[-86.3442490314,39.0311168201],[-86.3449155542,39.0333140514]]]},"properties":{"flat_pct":35}},{"type":"Feature","geometry":{"type":"Polygon","coordinates":[[[-86.3988268523,39.0466586515],[-86.398059884,39.0439362453],[-86.4000413686,39.0415277471],[-86.4023776069,39.0411495725],[-86.4053024788,39.0427865127],[-86.40557156425754,39.04528499374235],[-86.40099,39.04433],[-86.4009817774644,39.04757790156523],[-86.3988268523,39.0466586515]]]},"properties":{"flat_pct":11}},{"type":"Feature","geometry":{"type":"Polygon","coordinates":[[[-86.4205419921,39.0617494448],[-86.4190677305,39.0635097376],[-86.416504362,39.0636100499],[-86.4145119264,39.0606054927],[-86.4124483597,39.0611861651],[-86.4105820335,39.0604098674],[-86.4103,39.05746],[-86.41251,39.05822],[-86.41429,39.05749],[-86.41354,39.05538],[-86.41553470686306,39.055378670195424],[-86.4166363578,39.0577215415],[-86.4198478987,39.0587100453],[-86.4205419921,39.0617494448]]]},"properties":{"flat_pct":30}},{"type":"Feature","geometry":{"type":"Polygon","coordinates":[[[-86.3481452308,39.0694429071],[-86.3489312519,39.072425696],[-86.346955882,39.0744499612],[-86.34592687557685,39.07459172940273],[-86.34586,39.07171],[-86.342,39.07165],[-86.34586,39.07162],[-86.34583,39.07035],[-86.34136,39.07043],[-86.34133042704822,39.07457021324991],[-86.34045,39.07243],[-86.3391000388,39.072545882],[-86.3392971468,39.0702582573],[-86.341054118,39.0687800388],[-86.346307534,39.0686010744],[-86.3481452308,39.0694429071]]]},"properties":{"flat_pct":75}},{"type":"Feature","geometry":{"type":"Polygon","coordinates":[[[-86.3527270926,39.0957902293],[-86.3550323854,39.0969156386],[-86.3556248945,39.0994116061],[-86.3537143614,39.1021423854],[-86.3512183939,39.1027348945],[-86.3493251743,39.1014357419],[-86.3489051055,39.0991783939],[-86.3505950702,39.0966426134],[-86.3527270926,39.0957902293]]]},"properties":{"flat_pct":25}},{"type":"Feature","geometry":{"type":"Polygon","coordinates":[[[-86.3084342163,38.9475109241],[-86.3108383195,38.9484060269],[-86.3116715426,38.9508322709],[-86.31142716281852,38.951723445098494],[-86.30847,38.95004],[-86.30783,38.95141],[-86.30974,38.95263],[-86.30975450989034,38.95392621687024],[-86.3076777291,38.9544715426],[-86.30566678,38.9533633179],[-86.3050284574,38.9511577291],[-86.3065960269,38.9483516805],[-86.3084342163,38.9475109241]]]},"properties":{"flat_pct":26}},{"type":"Feature","geometry":{"type":"Polygon","coordinates":[[[-86.2882207713,38.9673957118],[-86.28892437385018,38.96832161583497],[-86.28821,38.96831],[-86.28817,38.96949],[-86.2841,38.96975],[-86.28405747387487,38.96700706492899],[-86.2882207713,38.9673957118]]]},"properties":{"flat_pct":71}},{"type":"Feature","geometry":{"type":"Polygon","coordinates":[[[-86.2733421083,38.9784064232],[-86.272124197,38.9761486338],[-86.2728894764,38.9739838184],[-86.2755113662,38.972854197],[-86.2776761816,38.9736194764],[-86.278665803,38.9756913662],[-86.2779005236,38.9778561816],[-86.27557151,38.9789558285],[-86.2733421083,38.9784064232]]]},"properties":{"flat_pct":23}},{"type":"Feature","geometry":{"type":"Polygon","coordinates":[[[-86.3036799744,38.9766718012],[-86.3053806843,38.9785923497],[-86.3051292596,38.9808746432],[-86.2991753628,38.9841398],[-86.296696514,38.9827777998],[-86.296476755,38.9799088037],[-86.2925880263,38.9798527583],[-86.2903513633,38.9764295683],[-86.2915175896,38.9741446532],[-86.2951018358,38.9726407745],[-86.2977829484,38.9741660594],[-86.2980173942,38.9783788408],[-86.3016623497,38.9765493157],[-86.3036799744,38.9766718012]]]},"properties":{"flat_pct":56}},{"type":"Feature","geometry":{"type":"Polygon","coordinates":[[[-86.3142564115,38.9838156988],[-86.3151930613,38.9862039216],[-86.3141722196,38.9882606083],[-86.3116860784,38.9890330613],[-86.3096293917,38.9880122196],[-86.3088969387,38.9858360784],[-86.3099177804,38.9837793917],[-86.3121095683,38.9830013633],[-86.3142564115,38.9838156988]]]},"properties":{"flat_pct":76}},{"type":"Feature","geometry":{"type":"Polygon","coordinates":[[[-86.2078955978,38.9887856292],[-86.207091845,38.9866348016],[-86.2082693101,38.9843556577],[-86.2101951984,38.983741845],[-86.21321238401089,38.98446645031462],[-86.21336050408686,38.99084131050784],[-86.2078955978,38.9887856292]]]},"properties":{"flat_pct":48}},{"type":"Feature","geometry":{"type":"Polygon","coordinates":[[[-86.2814100102,38.9901778187],[-86.2825007827,38.9878559366],[-86.2846962694,38.9871836896],[-86.2872140634,38.9886607827],[-86.2878863104,38.9908562694],[-86.2868092173,38.9928840634],[-86.2846137306,38.9935563104],[-86.2822942155,38.9922968418],[-86.2814100102,38.9901778187]]]},"properties":{"flat_pct":25}},{"type":"Feature","geometry":{"type":"Polygon","coordinates":[[[-86.3077272999,39.0135321122],[-86.3047671602,39.0140291784],[-86.3029572803,39.0131290968],[-86.30185923,39.0105951488],[-86.3027709032,39.0081972803],[-86.3071265674,39.0073709773],[-86.3092247707,39.008303512],[-86.3098976595,39.0113138408],[-86.3077272999,39.0135321122]]]},"properties":{"flat_pct":18}},{"type":"Feature","geometry":{"type":"Polygon","coordinates":[[[-86.285216858,39.0139889929],[-86.2831977506,39.0138940343],[-86.2815707692,39.0122738462],[-86.2814673634,39.0102551537],[-86.28266442265148,39.0081682336921],[-86.28653629846339,39.008133214760264],[-86.2873892308,39.0092861538],[-86.2871140343,39.0122622494],[-86.285216858,39.0139889929]]]},"properties":{"flat_pct":27}},{"type":"Feature","geometry":{"type":"Polygon","coordinates":[[[-86.2601417445,39.0141304852],[-86.2602723746,39.011305123],[-86.2624012478,39.009873753],[-86.2670348347,39.0108443424],[-86.268726247,39.0131112478],[-86.2683376254,39.015094877],[-86.26660167887104,39.016435996689395],[-86.2618474849,39.0156675367],[-86.2601417445,39.0141304852]]]},"properties":{"flat_pct":61}},{"type":"Feature","geometry":{"type":"Polygon","coordinates":[[[-86.3063436965,39.0224145641],[-86.3051908847,39.0201228517],[-86.3060177913,39.0179808192],[-86.3087671483,39.0169708847],[-86.3109091808,39.0177977913],[-86.3118391153,39.0198971483],[-86.3110122087,39.0220391808],[-86.3085564656,39.023027533],[-86.3063436965,39.0224145641]]]},"properties":{"flat_pct":36}},{"type":"Feature","geometry":{"type":"Polygon","coordinates":[[[-86.1249997802,39.0264999216],[-86.1271218338,39.0246299953],[-86.1298935667,39.0252458097],[-86.1312857634,39.0273480623],[-86.1306829165,39.0299789017],[-86.12918868011793,39.03125918073514],[-86.1265810983,39.0310629165],[-86.1252786745,39.0295171144],[-86.1249997802,39.0264999216]]]},"properties":{"flat_pct":76}},{"type":"Feature","geometry":{"type":"Polygon","coordinates":[[[-86.2799933482,39.0319720688],[-86.2788312065,39.0296850735],[-86.2796493767,39.0275396888],[-86.2824449265,39.0264412065],[-86.2845903112,39.0272593767],[-86.2855287935,39.0293549265],[-86.2847106233,39.0315003112],[-86.282208597,39.0325760148],[-86.2799933482,39.0319720688]]]},"properties":{"flat_pct":52}},{"type":"Feature","geometry":{"type":"Polygon","coordinates":[[[-86.10685740972919,39.035184507728985],[-86.1079368201,39.0321009686],[-86.110425271,39.0314776442],[-86.1123344088,39.0327532893],[-86.11285735829932,39.03510967344748],[-86.10685740972919,39.035184507728985]]]},"properties":{"flat_pct":25}},{"type":"Feature","geometry":{"type":"Polygon","coordinates":[[[-86.1348930456,39.0342953524],[-86.1347640261,39.0368574365],[-86.1327016592,39.038383072],[-86.1294225635,39.0376940261],[-86.127896928,39.0356316592],[-86.12784666691735,39.034913971005224],[-86.13066,39.03481],[-86.13063695450153,39.032059903848754],[-86.1335374365,39.0327959739],[-86.1348930456,39.0342953524]]]},"properties":{"flat_pct":67}},{"type":"Feature","geometry":{"type":"Polygon","coordinates":[[[-86.1698998782,39.0442631199],[-86.1690785567,39.0466934186],[-86.1669731307,39.0476095295],[-86.1645565814,39.0465885567],[-86.1636404705,39.0444831307],[-86.1642876266,39.0425681892],[-86.16583155847673,39.04154457862489],[-86.1685422728,39.0420864646],[-86.1698998782,39.0442631199]]]},"properties":{"flat_pct":81}},{"type":"Feature","geometry":{"type":"Polygon","coordinates":[[[-86.1289599654,39.0477071402],[-86.1270252567,39.0489436597],[-86.1245500095,39.0482698108],[-86.1233290789,39.0455832182],[-86.1240401892,39.0434000095],[-86.1260867818,39.0423590789],[-86.1282699905,39.0430701892],[-86.1294536597,39.0454647433],[-86.1289599654,39.0477071402]]]},"properties":{"flat_pct":48}},{"type":"Feature","geometry":{"type":"Polygon","coordinates":[[[-86.1008420198,39.0519666043],[-86.09902187863882,39.05267486511241],[-86.09899,39.04975],[-86.09590863671947,39.04985489747338],[-86.0959449003,39.0447076864],[-86.0979108532,39.0426742743],[-86.09881017604273,39.04253141853238],[-86.09884,39.04616],[-86.10183985365147,39.04608888277981],[-86.101851808,39.0502155647],[-86.1008420198,39.0519666043]]]},"properties":{"flat_pct":70}},{"type":"Feature","geometry":{"type":"Polygon","coordinates":[[[-86.1643665205524,39.05464538140087],[-86.1646,39.05585],[-86.16229595670688,39.05590068115535],[-86.1632713212,39.0550097301],[-86.1643665205524,39.05464538140087]]]},"properties":{}},{"type":"Feature","geometry":{"type":"Polygon","coordinates":[[[-86.1684227649,39.0559825902],[-86.16842751697337,39.059424386658755],[-86.16511,39.05951],[-86.1646,39.05585],[-86.16626,39.0558],[-86.16624227180736,39.054724489646574],[-86.1684227649,39.0559825902]]]},"properties":{"flat_pct":80}},{"type":"Feature","geometry":{"type":"Polygon","coordinates":[[[-86.219497106,39.0622417419],[-86.2154201056,39.0676764526],[-86.2111441439,39.0673854932],[-86.2093464542,39.0655554024],[-86.2096206912,39.0630047721],[-86.2122087502,39.0612642307],[-86.2104876239,39.0583362589],[-86.2109817168,39.0563909008],[-86.2125723383,39.0551436098],[-86.2155835674,39.0558124579],[-86.219497106,39.0622417419]]]},"properties":{"flat_pct":16}},{"type":"Feature","geometry":{"type":"Polygon","coordinates":[[[-86.1111272031,39.0577307729],[-86.11278,39.06024],[-86.11790450188512,39.060302080969976],[-86.1185229411,39.062335679],[-86.1177130933,39.0641876937],[-86.1102519427,39.0663907285],[-86.1084622271,39.0654511915],[-86.107672663,39.0633036528],[-86.1057961435,39.0633499085],[-86.1041738491,39.0621441006],[-86.1037598843,39.0596523223],[-86.105266836,39.057472276],[-86.1111272031,39.0577307729]]]},"properties":{"flat_pct":75}},{"type":"Feature","geometry":{"type":"Polygon","coordinates":[[[-86.2003220982,39.0608838581],[-86.2025825391,39.0620968413],[-86.2032761419,39.0647820982],[-86.2022910425,39.0668561419],[-86.2001279018,39.0676261419],[-86.1978674609,39.0664131587],[-86.1971738581,39.0637279018],[-86.1973722576962,39.06280407496214],[-86.20008,39.06281],[-86.2003220982,39.0608838581]]]},"properties":{"flat_pct":21}},{"type":"Feature","geometry":{"type":"Polygon","coordinates":[[[-86.1823551535,39.0682953326],[-86.1798506562,39.0677399819],[-86.1787135572,39.0657452178],[-86.1794500181,39.0632706562],[-86.1814447822,39.0621335572],[-86.1836593438,39.0627400181],[-86.1847964428,39.0647347822],[-86.18194,39.0653],[-86.18127,39.0661],[-86.18185,39.06674],[-86.18029,39.06685],[-86.18031,39.06776],[-86.18196,39.06776],[-86.18195,39.0666],[-86.18442482030397,39.06660856339205],[-86.1823551535,39.0682953326]],[[-86.18194,39.06508],[-86.18186,39.06478],[-86.18168,39.06482],[-86.18194,39.06508]]]},"properties":{"flat_pct":21}}]}