{"type":"FeatureCollection","attribution":"Derived from USFS MVUM roads + USFS Basic Ownership (public domain); terrain from Mapzen tiles (USGS 3DEP). Heuristic beta \u2014 not a statement of legality. Generated 2026-07-23.","features":[{"type":"Feature","geometry":{"type":"Polygon","coordinates":[[[-78.8856911680535,41.99771352689342],[-78.87627974257154,41.99790660692469],[-78.87596881849764,41.99762845832296],[-78.8856911680535,41.99771352689342]]]},"properties":{}},{"type":"Feature","geometry":{"type":"Polygon","coordinates":[[[-76.81870575774174,42.43574592469805],[-76.81672053435057,42.4366811292037],[-76.81453796465924,42.43596806014592],[-76.81349887079631,42.43392053435056],[-76.81415751114987,42.43180818362883],[-76.81947191697489,42.432630347777405],[-76.81870575774174,42.43574592469805]]]},"properties":{"flat_pct":41}},{"type":"Feature","geometry":{"type":"Polygon","coordinates":[[[-76.80455229294064,42.4517929974085],[-76.80672334962911,42.45104560808952],[-76.80897101202162,42.452282109061755],[-76.80951200168865,42.45478596848262],[-76.80830789093824,42.45674101202162],[-76.80607403151738,42.45727200168865],[-76.80411898797838,42.45606789093824],[-76.80354560808952,42.453856650370895],[-76.80455229294064,42.4517929974085]]]},"properties":{"flat_pct":100}},{"type":"Feature","geometry":{"type":"Polygon","coordinates":[[[-76.79808621329306,42.479853133931165],[-76.80124246493988,42.479927901428994],[-76.80298162728906,42.48180939505967],[-76.80278173574689,42.484093894076054],[-76.8004260913711,42.487064874196676],[-76.79567049374688,42.48754520744359],[-76.79362155727655,42.48656771051272],[-76.7921707840279,42.48834222874598],[-76.78877748163744,42.48889999067084],[-76.78627975549507,42.48757292627024],[-76.78913,42.48708],[-76.789,42.48459],[-76.7860412556391,42.484661510437725],[-76.78709707372977,42.48340975549507],[-76.79103660489525,42.48271372177552],[-76.7929701946137,42.483687756662015],[-76.79808621329306,42.479853133931165]]]},"properties":{"flat_pct":86}},{"type":"Feature","geometry":{"type":"Polygon","coordinates":[[[-76.80989918158348,42.48392690533544],[-76.81028804886485,42.48644666093068],[-76.80858133712148,42.488361877866204],[-76.80556501088746,42.48838854015079],[-76.80365187817408,42.48669015422442],[-76.8033985325332,42.48350504776318],[-76.80509744319765,42.48158290743551],[-76.80739336491463,42.481554247217204],[-76.80951979883665,42.48346785204402],[-76.80764,42.48351],[-76.80767,42.48432],[-76.80989918158348,42.48392690533544]]]},"properties":{"flat_pct":100}},{"type":"Feature","geometry":{"type":"Polygon","coordinates":[[[-76.78682931611893,42.49140103077638],[-76.78916972304569,42.49035059453261],[-76.79146645967926,42.49149336385363],[-76.79233940546739,42.49469972304569],[-76.79119663614637,42.49699645967926],[-76.7889865713905,42.49761910862809],[-76.78698354032073,42.49649663614637],[-76.7861191836076,42.4935845576837],[-76.78682931611893,42.49140103077638]]]},"properties":{"flat_pct":100}},{"type":"Feature","geometry":{"type":"Polygon","coordinates":[[[-76.77839857777762,42.52521368148489],[-76.78066044227808,42.52642400783204],[-76.78120191128522,42.52925412358035],[-76.77636,42.52941],[-76.77610191049332,42.52612053192399],[-76.77839857777762,42.52521368148489]]]},"properties":{"flat_pct":100}},{"type":"Feature","geometry":{"type":"Polygon","coordinates":[[[-76.78553226991583,42.52701448617645],[-76.78759044296837,42.52599664452644],[-76.78976551382355,42.52673226991583],[-76.79078335547356,42.528790442968365],[-76.79005773008417,42.53111551382355],[-76.78799955703164,42.53213335547356],[-76.78582448617645,42.531397730084166],[-76.78480664452644,42.52933955703163],[-76.78553226991583,42.52701448617645]]]},"properties":{"flat_pct":100}},{"type":"Feature","geometry":{"type":"Polygon","coordinates":[[[-76.7990691736855,42.54089480776202],[-76.8013189302455,42.54135379943876],[-76.80258519223798,42.5432691736855],[-76.80209620056124,42.545808930245514],[-76.8001808263145,42.54707519223798],[-76.7979310697545,42.546616200561246],[-76.79666480776201,42.544700826314504],[-76.79715379943876,42.54216106975449],[-76.7990691736855,42.54089480776202]]]},"properties":{"flat_pct":95}},{"type":"Feature","geometry":{"type":"Polygon","coordinates":[[[-76.87937094246305,42.553269686591236],[-76.87789646602945,42.55665081066785],[-76.87239,42.55643],[-76.87256,42.55459],[-76.86695,42.55475],[-76.86809,42.55261],[-76.87422,42.55239],[-76.87421,42.55165],[-76.8782938254171,42.55147088485013],[-76.87937094246305,42.553269686591236]]]},"properties":{"flat_pct":93}}]}