{"type":"FeatureCollection","attribution":"Derived from USFS MVUM roads + USFS Basic Ownership (public domain); terrain from Mapzen tiles (USGS 3DEP). Heuristic beta \u2014 not a statement of legality. Generated 2026-07-23.","features":[{"type":"Feature","geometry":{"type":"Polygon","coordinates":[[[-71.00408090949539,44.25159424245795],[-71.00622,44.25147],[-71.00407406818111,44.251494029684714],[-71.0052736545,44.2489672635],[-71.00845683747296,44.24829406484831],[-71.00857975946062,44.251590520595],[-71.00421445724011,44.252278314114264],[-71.00408090949539,44.25159424245795]]]},"properties":{"flat_pct":100}},{"type":"Feature","geometry":{"type":"Polygon","coordinates":[[[-71.00946469103583,44.269027027209574],[-71.0077646541,44.2669492822],[-71.0067973209,44.2696973442],[-71.0046261358,44.2704443604],[-71.001853545,44.2697675702],[-71.0006756396,44.2671961358],[-71.00919,44.26582],[-71.00909,44.26377],[-71.00790381488777,44.263826074205305],[-71.00915999480624,44.262764864467364],[-71.00946469103583,44.269027027209574]]]},"properties":{"flat_pct":71}},{"type":"Feature","geometry":{"type":"Polygon","coordinates":[[[-71.0114518039,44.3474649874],[-71.0085781376,44.3512797733],[-71.0059034932,44.3524646741],[-70.9985462246,44.353259181],[-70.9942564339,44.3551321931],[-70.9915288898,44.3581888921],[-70.9895125865,44.358046298],[-70.9879826422,44.3565186967],[-70.9820007937,44.3553837943],[-70.9817559246,44.358542837],[-70.9781555526,44.3611781682],[-70.9708266572,44.3620309114],[-70.9682074617,44.3599689916],[-70.9693429623,44.3565799631],[-70.975820974,44.3548122188],[-70.9764342047,44.348843684],[-70.9777188393,44.3471459854],[-70.9802960552,44.3460937058],[-70.9825690119,44.3464188912],[-70.984036403,44.3489954947],[-70.9894882006,44.351370679],[-70.9908909016,44.3499055185],[-70.9965167608,44.3475055948],[-71.0044924371,44.3465922163],[-71.0079018591,44.3424865474],[-71.01285995634375,44.34047025666258],[-71.01323530667146,44.3467667420117],[-71.0114518039,44.3474649874]]]},"properties":{"flat_pct":53}},{"type":"Feature","geometry":{"type":"Polygon","coordinates":[[[-70.9940672832,44.2286775785],[-70.9904652413,44.2267294803],[-70.9878931233,44.2240518865],[-70.9834891324,44.2320842036],[-70.9773220236,44.2377909351],[-70.9706259629,44.2411691133],[-70.96798,44.24148],[-70.9626854705,44.2449399935],[-70.9586019634,44.2453455525],[-70.9542181654,44.2420345825],[-70.9499809518,44.2415573455],[-70.9443653712,44.2388590476],[-70.9420052358,44.2396482959],[-70.93657971361087,44.24549002344919],[-70.93505,44.24253],[-70.93252,44.24572],[-70.93098424470959,44.24314739297399],[-70.93631926786546,44.2372079754982],[-70.939,44.23665],[-70.93824,44.23523],[-70.94689,44.23103],[-70.94603422311373,44.22950822626132],[-70.947812658,44.2280403772],[-70.9486526025,44.2238547403],[-70.9504930973,44.2224819122],[-70.9532385854,44.2231616408],[-70.954226778,44.2255290014],[-70.953339718,44.2308944435],[-70.9502535646,44.2344717665],[-70.9519893911,44.2357811639],[-70.9568356556,44.23649502],[-70.960315424,44.2392765203],[-70.9737942079,44.2329034768],[-70.9787154289,44.2283982583],[-70.9807394072,44.2235001173],[-70.9852886651,44.2183150429],[-70.9905263793,44.2184760247],[-70.9957694826536,44.22303942850632],[-70.99451,44.2232],[-70.9940672832,44.2286775785]]]},"properties":{"flat_pct":36}},{"type":"Feature","geometry":{"type":"Polygon","coordinates":[[[-70.9116157957,44.2799834907],[-70.9116861027,44.2825478576],[-70.9097484225,44.2842290228],[-70.9077321424,44.2840861027],[-70.9047702728,44.2820117828],[-70.9018365468,44.2743194761],[-70.8986058689815,44.27203111997048],[-70.90131,44.27027],[-70.89918213860905,44.267785031817304],[-70.9017947744,44.2673056028],[-70.9063334455,44.2701511664],[-70.9095466136,44.2781026628],[-70.9116157957,44.2799834907]]]},"properties":{"flat_pct":37}},{"type":"Feature","geometry":{"type":"Polygon","coordinates":[[[-70.83422,44.33133],[-70.83195,44.33028],[-70.83163,44.33328],[-70.82881342629929,44.334354848459604],[-70.8287681066,44.3301198527],[-70.8263431816,44.3290768742],[-70.81849922314582,44.33446130041203],[-70.81662,44.33213],[-70.81001,44.33402],[-70.81197012255537,44.33666551062038],[-70.8088619479,44.3372688805],[-70.8040341829,44.3365764689],[-70.79794,44.33946],[-70.79735,44.33592],[-70.7943411130676,44.33716105425402],[-70.795275301,44.3333964782],[-70.7948664207,44.3309553848],[-70.7926616555,44.33010405],[-70.7917714513,44.3276981287],[-70.793066514,44.3254836912],[-70.7993948836,44.3220175897],[-70.8007197573,44.3200987714],[-70.80269106,44.3196518066],[-70.8061949981,44.3216371377],[-70.8075539815,44.32610652],[-70.8070338263,44.3283100324],[-70.8044526757,44.330570411],[-70.8086967113,44.3312220543],[-70.8144581725,44.3300121474],[-70.8164492461,44.3284069842],[-70.81685398,44.3261415986],[-70.8193184343,44.3235501673],[-70.8241401013,44.3234863921],[-70.8245852463,44.3207358629],[-70.8216463118,44.3199159433],[-70.8195336522,44.3175255255],[-70.8169122929,44.3167470026],[-70.8157058049,44.3135734633],[-70.8169,44.31184],[-70.81857,44.31363],[-70.81961,44.31085],[-70.81872484286285,44.3099739567232],[-70.8228262155,44.3073182073],[-70.82372,44.30761],[-70.82297,44.30936],[-70.82494,44.30931],[-70.82489012291201,44.30706061456006],[-70.8267233408,44.3083419775],[-70.8271919892,44.310308238],[-70.8241069809,44.3136280318],[-70.8293113499,44.3165443326],[-70.8307939468,44.3204100621],[-70.8303674709,44.3242763097],[-70.8339210624,44.3259215364],[-70.8370429916,44.3243434897],[-70.8405581051,44.3249061464],[-70.844205694,44.3279321224],[-70.8487600487,44.3298541701],[-70.8504077508,44.3332508233],[-70.8493411579,44.3352841598],[-70.8471491767,44.3359677508],[-70.838062846,44.3308737622],[-70.83422,44.33133]],[[-70.84606,44.33268],[-70.84551,44.33303],[-70.8459,44.33335],[-70.84606,44.33268]],[[-70.79803,44.32834],[-70.80406,44.32639],[-70.8026,44.32448],[-70.79676,44.32675],[-70.79803,44.32834]]]},"properties":{"flat_pct":50}},{"type":"Feature","geometry":{"type":"Polygon","coordinates":[[[-70.9761225095,44.327811684],[-70.9743682473,44.3300303097],[-70.9715489116,44.3298042964],[-70.9692408068,44.3264678306],[-70.9695038454,44.3239160211],[-70.9716432907,44.3225005019],[-70.9745476396,44.3231340216],[-70.9758174224,44.3246524655],[-70.9761225095,44.327811684]]]},"properties":{"flat_pct":72}},{"type":"Feature","geometry":{"type":"Polygon","coordinates":[[[-70.83857,44.34201],[-70.8386,44.3409],[-70.83667,44.34164],[-70.83572,44.33948],[-70.83884330009788,44.338972628465115],[-70.83970833081456,44.34151949973031],[-70.83857,44.34201]]]},"properties":{"flat_pct":60}},{"type":"Feature","geometry":{"type":"Polygon","coordinates":[[[-70.9181551395,44.3690837639],[-70.9178713324,44.3721086453],[-70.9141568923,44.3767977247],[-70.9125394647485,44.380791175114375],[-70.91089,44.37877],[-70.91003,44.37905],[-70.90949,44.37699],[-70.90777061013823,44.37712755118894],[-70.9083355321303,44.37498929662728],[-70.91003,44.37425],[-70.90915414319103,44.37322764756817],[-70.911767304,44.3704571292],[-70.9113294888,44.3678786018],[-70.9124438652,44.3658710553],[-70.9157660031,44.3655970141],[-70.9181551395,44.3690837639]]]},"properties":{"flat_pct":52}},{"type":"Feature","geometry":{"type":"Polygon","coordinates":[[[-70.92844016254075,44.39993995033477],[-70.9283607563,44.395811856],[-70.9295858952,44.3942041102],[-70.93569005369326,44.393578191038586],[-70.93307,44.39407],[-70.93384,44.39829],[-70.92844016254075,44.39993995033477]]]},"properties":{"flat_pct":78}}]}