{"type":"FeatureCollection","attribution":"Derived from USFS MVUM roads + USFS Basic Ownership (public domain); terrain from Mapzen tiles (USGS 3DEP). Heuristic beta \u2014 not a statement of legality. Generated 2026-07-23.","features":[{"type":"Feature","geometry":{"type":"Polygon","coordinates":[[[-101.79103,45.94446],[-101.81184,45.94451],[-101.81183604509069,45.94736544452732],[-101.79103,45.94721739211702],[-101.79103,45.94446]]]},"properties":{"flat_pct":94}},{"type":"Feature","geometry":{"type":"Polygon","coordinates":[[[-101.86377,45.959],[-101.83261,45.95897],[-101.83262,45.95175],[-101.8355,45.95175184911717],[-101.8355,45.955932872],[-101.850322425,45.95594702],[-101.85033972114685,45.95176137702803],[-101.85633975568572,45.95176522937765],[-101.856322452,45.955952747],[-101.86377,45.955959855103245],[-101.86377,45.959]]]},"properties":{"flat_pct":96}},{"type":"Feature","geometry":{"type":"Polygon","coordinates":[[[-101.811257496,45.966054148],[-101.802111503,45.961542338],[-101.80142,45.95894],[-101.79998283226514,45.958937236215895],[-101.798837835,45.957332363],[-101.79820921,45.951545103],[-101.79951089,45.949300704],[-101.807648773,45.948920666],[-101.820616494,45.956686785],[-101.82107997237385,45.95896890381959],[-101.81246466344678,45.9589606198687],[-101.805895698,45.954771483],[-101.804383242,45.954774228],[-101.80573438,45.956668037],[-101.81181889959745,45.95975559103924],[-101.811257496,45.966054148]]]},"properties":{"flat_pct":89}},{"type":"Feature","geometry":{"type":"Polygon","coordinates":[[[-101.82221500554182,45.96258099326795],[-101.82949206588154,45.95897],[-101.83261,45.95897],[-101.8326,45.9662],[-101.82221,45.9662],[-101.82221500554182,45.96258099326795]]]},"properties":{"flat_pct":93}},{"type":"Feature","geometry":{"type":"Polygon","coordinates":[[[-101.7286731834546,45.96000241056971],[-101.731614237,45.963774269],[-101.73167,45.97031],[-101.73908163548467,45.970312045448615],[-101.73909,45.97334],[-101.7287,45.97332],[-101.7286731834546,45.96000241056971]]]},"properties":{"flat_pct":90}},{"type":"Feature","geometry":{"type":"Polygon","coordinates":[[[-101.819994573,45.968025797],[-101.81918031867696,45.96619708684488],[-101.82221,45.9662],[-101.82220618761451,45.968956354700744],[-101.819994573,45.968025797]]]},"properties":{"flat_pct":100}},{"type":"Feature","geometry":{"type":"Polygon","coordinates":[[[-101.580930894,45.970107348],[-101.582863238,45.971347558],[-101.58321,45.97311],[-101.57281,45.9731],[-101.5728094576301,45.96889152866079],[-101.580930894,45.970107348]]]},"properties":{"flat_pct":90}},{"type":"Feature","geometry":{"type":"Polygon","coordinates":[[[-101.71149248660038,45.966063448014054],[-101.714050482,45.97015094],[-101.71830575963486,45.97023805575794],[-101.71831406714257,45.976249922181296],[-101.710898398,45.97633557],[-101.71092840905047,45.9877657524717],[-101.70794,45.98776],[-101.70791,45.96606],[-101.71149248660038,45.966063448014054]]]},"properties":{"flat_pct":90}},{"type":"Feature","geometry":{"type":"Polygon","coordinates":[[[-101.820354488,45.978551372],[-101.822218067,45.976788421],[-101.824763088,45.977110583],[-101.827408849,45.980699982],[-101.827729756,45.984915398],[-101.829502095,45.984917107],[-101.82950997899681,45.97343],[-101.8326,45.97343],[-101.83259,45.9879],[-101.82219,45.98789],[-101.82219,45.98066],[-101.82033138580665,45.98065821115092],[-101.820354488,45.978551372]]]},"properties":{"flat_pct":91}},{"type":"Feature","geometry":{"type":"Polygon","coordinates":[[[-101.804536484,45.984899563],[-101.802788868,45.982961338],[-101.80272092414462,45.980641261717174],[-101.81154711065133,45.98064975660313],[-101.810520248,45.983000355],[-101.810744418,45.984908542],[-101.81179607540159,45.98491211387276],[-101.81179055445992,45.99090785653372],[-101.79100792127053,45.990880000269435],[-101.79101,45.98787],[-101.8014,45.98788],[-101.801404122884,45.98489503198932],[-101.804536484,45.984899563]]]},"properties":{"flat_pct":94}},{"type":"Feature","geometry":{"type":"Polygon","coordinates":[[[-101.743951962,45.984830001],[-101.7443,45.98783],[-101.72872,45.9878],[-101.72872,45.98418],[-101.743951962,45.984830001]]]},"properties":{"flat_pct":89}},{"type":"Feature","geometry":{"type":"Polygon","coordinates":[[[-101.72872,45.9878],[-101.72874,45.99504],[-101.7257050964577,45.995034163647034],[-101.72565810697742,45.987794106076954],[-101.72872,45.9878]]]},"properties":{"flat_pct":94}},{"type":"Feature","geometry":{"type":"Polygon","coordinates":[[[-101.23341541534937,46.006920325576594],[-101.23433782180787,46.00512172107177],[-101.23619187426127,46.00431654945061],[-101.24103086013193,46.00611654409228],[-101.24775065614472,46.00572424491857],[-101.24781902346594,46.00192722907842],[-101.25068,46.00193],[-101.25067,46.00917],[-101.23402146754923,46.00915],[-101.23341541534937,46.006920325576594]]]},"properties":{"flat_pct":98}},{"type":"Feature","geometry":{"type":"Polygon","coordinates":[[[-101.82952157951127,46.00237],[-101.83258,46.00237],[-101.83258,46.02407],[-101.8295398065626,46.02407],[-101.829536202,46.020126099],[-101.82218,46.02002414740931],[-101.82218,46.01684],[-101.81178,46.01684],[-101.81178,46.013882458191354],[-101.829530717,46.014125447],[-101.82952157951127,46.00237]]]},"properties":{"flat_pct":95}},{"type":"Feature","geometry":{"type":"Polygon","coordinates":[[[-101.41709,46.04545],[-101.40668,46.04545],[-101.4066758636956,46.04245945191224],[-101.41708168180358,46.04243881289859],[-101.41709,46.04545]]]},"properties":{"flat_pct":74}},{"type":"Feature","geometry":{"type":"Polygon","coordinates":[[[-101.33389,46.05992],[-101.33389,46.06331624410512],[-101.3235,46.062940860028846],[-101.3235,46.0599],[-101.33389,46.05992]]]},"properties":{"flat_pct":93}},{"type":"Feature","geometry":{"type":"Polygon","coordinates":[[[-101.58332,46.05997],[-101.58624790697046,46.05997187446029],[-101.58622000409227,46.074441382623185],[-101.58334,46.07444],[-101.58332,46.05997]]]},"properties":{"flat_pct":100}},{"type":"Feature","geometry":{"type":"Polygon","coordinates":[[[-97.457069605,46.3960130912],[-97.4559935443,46.3939847492],[-97.45659196488957,46.39189],[-97.46856,46.39189],[-97.468598479296,46.39729908961055],[-97.457069605,46.3960130912]]]},"properties":{"flat_pct":100}},{"type":"Feature","geometry":{"type":"Polygon","coordinates":[[[-97.4565064948,46.4154898937],[-97.4558842074,46.4129699252],[-97.45308640691731,46.41123605894973],[-97.45308,46.41007],[-97.44914433328572,46.41007],[-97.4481302608,46.4092024662],[-97.447511521,46.4069913039],[-97.4486375338,46.4049902608],[-97.4508486961,46.404371521],[-97.4561782069,46.4056696727],[-97.46247717641737,46.4103273480024],[-97.46248,46.41371],[-97.45836,46.41371],[-97.45836519113776,46.41654176564926],[-97.4565064948,46.4154898937]]]},"properties":{"flat_pct":100}},{"type":"Feature","geometry":{"type":"Polygon","coordinates":[[[-97.4569299263,46.4621210306],[-97.4558168762,46.464432316],[-97.4533241169,46.4650381807],[-97.4458967428,46.4592875199],[-97.4450870426,46.4574354407],[-97.44529180090439,46.45004206923393],[-97.44756,46.45005],[-97.44739,46.45734],[-97.45289495101805,46.457334859989714],[-97.456262316,46.4602131238],[-97.4569299263,46.4621210306]]]},"properties":{"flat_pct":100}},{"type":"Feature","geometry":{"type":"Polygon","coordinates":[[[-97.43666202948661,46.47429372438932],[-97.4319454923,46.4699622407],[-97.4246840923,46.4700463557],[-97.42175841,46.4690278228],[-97.4170833807,46.4651230318],[-97.4170480814,46.4617897973],[-97.42011408,46.4604816114],[-97.4254429784,46.4640376602],[-97.4345335325,46.4643890653],[-97.4391674344,46.4684278329],[-97.447186596981,46.468513391362436],[-97.44713,46.47176],[-97.43671,46.47174],[-97.43666202948661,46.47429372438932]]]},"properties":{"flat_pct":100}},{"type":"Feature","geometry":{"type":"Polygon","coordinates":[[[-100.64526965197425,48.28331536935859],[-100.64773,48.28685],[-100.64246,48.28685],[-100.64244,48.28331],[-100.64526965197425,48.28331536935859]]]},"properties":{"flat_pct":89}},{"type":"Feature","geometry":{"type":"Polygon","coordinates":[[[-100.64347837564787,48.297804008838696],[-100.635707115,48.293536962],[-100.62613489184108,48.29277441188886],[-100.62611262212816,48.286733752265455],[-100.628260697,48.28702883],[-100.62820285274113,48.28331],[-100.64217,48.28331],[-100.64219,48.28703],[-100.64773,48.28703],[-100.64743482,48.289558676],[-100.645098808,48.291249551],[-100.6477656253632,48.29251630593415],[-100.6478,48.29781],[-100.64347837564787,48.297804008838696]]]},"properties":{"flat_pct":100}},{"type":"Feature","geometry":{"type":"Polygon","coordinates":[[[-100.38995,48.3858],[-100.38549,48.38577],[-100.38547,48.37853],[-100.39522,48.37856],[-100.39310606827445,48.381464149087854],[-100.388362702258,48.381431077810845],[-100.3883676984954,48.38262184772333],[-100.3918533319643,48.38318517582134],[-100.38995,48.3858]]]},"properties":{"flat_pct":100}},{"type":"Feature","geometry":{"type":"Polygon","coordinates":[[[-97.3873177195,46.3569546615],[-97.3846022097,46.3577457001],[-97.3825587511,46.35619483],[-97.38229734534463,46.34780331432916],[-97.38829691824334,46.34787511390909],[-97.3882021179,46.3551370666],[-97.3873177195,46.3569546615]]]},"properties":{"flat_pct":100}},{"type":"Feature","geometry":{"type":"Polygon","coordinates":[[[-97.3802180704,46.3690933188],[-97.3829795857,46.3741398588],[-97.3814180587,46.3777009671],[-97.382384515,46.3810728999],[-97.3803485203,46.3830361782],[-97.3778182179,46.3826136968],[-97.375160402,46.3793686661],[-97.374895781,46.3773752129],[-97.3764950445,46.3742015291],[-97.3753225,46.3727730851],[-97.3671247667,46.3725221063],[-97.3670053605,46.3957585562],[-97.3716713043,46.3960310242],[-97.3737054897,46.3980006651],[-97.3763333288,46.3987160428],[-97.3773497544,46.4004632379],[-97.3760339645,46.403525981],[-97.3722134289,46.4039172708],[-97.36909180426468,46.40209981411541],[-97.36907,46.39896],[-97.36384,46.3989],[-97.36405,46.38448],[-97.36106323162637,46.38448141553004],[-97.3611389992333,46.36973703935696],[-97.37486,46.36975],[-97.37480613208511,46.36645208654407],[-97.3780487605,46.3673642946],[-97.3802180704,46.3690933188]]]},"properties":{"flat_pct":100}},{"type":"Feature","geometry":{"type":"Polygon","coordinates":[[[-97.3411364298,46.4007289993],[-97.3404042706,46.3977325345],[-97.34265933122532,46.39568467578156],[-97.34258,46.39874],[-97.36384,46.3989],[-97.36386165906859,46.40173930699194],[-97.3432526258,46.4016199497],[-97.3411364298,46.4007289993]]]},"properties":{"flat_pct":100}},{"type":"Feature","geometry":{"type":"Polygon","coordinates":[[[-97.3375312188,46.4103367659],[-97.3320295436,46.4080709929],[-97.3281334678,46.4016829173],[-97.32700235733216,46.40152441769824],[-97.32696,46.39863],[-97.33217,46.39867],[-97.3324,46.3914],[-97.32958767884188,46.39135398512061],[-97.3293016565,46.3890796811],[-97.3299190121,46.3871549256],[-97.3319069098,46.3860058648],[-97.3347376516,46.3872313278],[-97.3370709849,46.3936677464],[-97.3356570905,46.3995984153],[-97.3343715966,46.4011240663],[-97.3370795977,46.4042534956],[-97.3401104398,46.4047120004],[-97.3434859496,46.4069739368],[-97.3461373462,46.4105776958],[-97.3464174249,46.4125795369],[-97.3451260654,46.4144780807],[-97.3428704631,46.4149074249],[-97.3375312188,46.4103367659]]]},"properties":{"flat_pct":100}},{"type":"Feature","geometry":{"type":"Polygon","coordinates":[[[-97.3250019411,46.4179921163],[-97.324536217,46.4215358399],[-97.3205868274,46.4224190617],[-97.3180675609,46.420683294],[-97.3167712126,46.4172826321],[-97.31145373066842,46.41593559043302],[-97.31143,46.41308],[-97.3211419589326,46.41312408801072],[-97.3250019411,46.4179921163]]]},"properties":{"flat_pct":100}},{"type":"Feature","geometry":{"type":"Polygon","coordinates":[[[-97.43099985438994,46.43003508811264],[-97.4323695581,46.4326014915],[-97.43043621632538,46.44275135854956],[-97.42292244988731,46.4427418293594],[-97.42679,46.44263],[-97.42268203463325,46.44261051249826],[-97.4171843227,46.4395916309],[-97.4144613182,46.4369036057],[-97.4136398028,46.4310254333],[-97.41152145,46.4300938046],[-97.4105396174,46.428373362],[-97.4106825505,46.4260682758],[-97.4123257939,46.4244645835],[-97.4143457565,46.4243899991],[-97.4171773182,46.4260095435],[-97.4194342644,46.4288466663],[-97.4197373454,46.4337226566],[-97.42518439,46.437140627],[-97.4253152922,46.4341118986],[-97.4269045658,46.4308407212],[-97.4284943871265,46.429682991589665],[-97.4250609546,46.4291422763],[-97.4234886805,46.4278719355],[-97.4231344185,46.4256033288],[-97.4244880645,46.4237486805],[-97.4434211532,46.4248542971],[-97.4389253144,46.4187154236],[-97.4381590611,46.4144647708],[-97.4360013857,46.4140580033],[-97.4319724001,46.411126122],[-97.4215124401,46.4145393078],[-97.4166992774,46.4140015902],[-97.41468462,46.4127667367],[-97.4139220913,46.4110628308],[-97.4096662489,46.4085840968],[-97.4091387443,46.4063494118],[-97.4101158003,46.4045798996],[-97.4131490661,46.4040194021],[-97.4206619155,46.4085092044],[-97.4301097503,46.4046427231],[-97.4353647466,46.4059238477],[-97.4385076441,46.4084046347],[-97.4466981902,46.412015799],[-97.4475747761,46.4137717895],[-97.4476958299,46.4206112481],[-97.4489438355,46.4216661099],[-97.4520678514,46.4210070226],[-97.4540060031,46.4230669507],[-97.45400615922023,46.42462],[-97.45314,46.42462],[-97.45156176026173,46.42825694992416],[-97.43744,46.42823],[-97.43740467916278,46.43093111455106],[-97.43099985438994,46.43003508811264]]]},"properties":{"flat_pct":100}},{"type":"Feature","geometry":{"type":"Polygon","coordinates":[[[-97.3706985465,46.4393223637],[-97.3712122577,46.4355683476],[-97.3704745291,46.4320917093],[-97.3689827911,46.4300368472],[-97.3694626673,46.4267333451],[-97.3712026377,46.4252479047],[-97.3790878465,46.422957723],[-97.3816201177,46.4233682395],[-97.3829092399,46.4255861405],[-97.3822132176,46.427774206],[-97.3765106114,46.4299468692],[-97.3779131764,46.4390777747],[-97.3772933904916,46.442480247867536],[-97.37477,46.44246],[-97.3706985465,46.4393223637]]]},"properties":{"flat_pct":100}},{"type":"Feature","geometry":{"type":"Polygon","coordinates":[[[-97.3117848058,46.4370498643],[-97.3104291291,46.4389030288],[-97.3081601357,46.4392548058],[-97.30104777750483,46.437522680470835],[-97.30104,46.43475],[-97.31143220116297,46.434779649646686],[-97.3117848058,46.4370498643]]]},"properties":{"flat_pct":100}},{"type":"Feature","geometry":{"type":"Polygon","coordinates":[[[-97.4108189784,46.4440582843],[-97.4094210521,46.4465170518],[-97.4066000154,46.4467207367],[-97.4038382342,46.4432646681],[-97.4037792633,46.4407000154],[-97.4054446659,46.4391193471],[-97.4077399846,46.4391792633],[-97.41054184418736,46.44272612789371],[-97.40571,46.44272],[-97.41055537306362,46.44275677702515],[-97.4108189784,46.4440582843]]]},"properties":{"flat_pct":100}},{"type":"Feature","geometry":{"type":"Polygon","coordinates":[[[-97.37729080434502,46.44249503503629],[-97.37673661256053,46.44368504649308],[-97.3748,46.44248],[-97.37729080434502,46.44249503503629]]]},"properties":{}},{"type":"Feature","geometry":{"type":"Polygon","coordinates":[[[-97.3745767015,46.4448521632],[-97.3726293043,46.4443104474],[-97.37137780815216,46.442462835580955],[-97.3742,46.44248],[-97.37652912486124,46.44392718050868],[-97.3745767015,46.4448521632]]]},"properties":{"flat_pct":100}},{"type":"Feature","geometry":{"type":"Polygon","coordinates":[[[-97.38806601840398,46.44238222484302],[-97.38472394275284,46.44865511868689],[-97.38072117285219,46.44616441717556],[-97.3803999414529,46.4425138024635],[-97.38474,46.44254],[-97.38040251098941,46.44250519567494],[-97.3841012284,46.4388692922],[-97.386395877,46.438950936],[-97.3879607078,46.4406312284],[-97.38806788764889,46.442375748793104],[-97.38474,46.44234],[-97.38806601840398,46.44238222484302]]]},"properties":{"flat_pct":100}},{"type":"Feature","geometry":{"type":"Polygon","coordinates":[[[-97.3831390956,46.4486870708],[-97.38087889561037,46.446629870926934],[-97.38429235007588,46.44875078975443],[-97.3831390956,46.4486870708]]]},"properties":{}},{"type":"Feature","geometry":{"type":"Polygon","coordinates":[[[-97.3468527682,46.4683519614],[-97.3476456189,46.4707916968],[-97.346262657,46.4729523304],[-97.3426384795,46.4732938776],[-97.3407676696,46.471962657],[-97.3403861224,46.4696984795],[-97.341717343,46.4678276696],[-97.3450516968,46.4674343811],[-97.3468527682,46.4683519614]]]},"properties":{"flat_pct":100}},{"type":"Feature","geometry":{"type":"Polygon","coordinates":[[[-97.4297735638,46.4867000851],[-97.4271604688,46.4889459049],[-97.42624685491701,46.48895925440735],[-97.42618,46.48618],[-97.4158,46.48618],[-97.41583206195011,46.48894675769475],[-97.4062310545,46.4889697191],[-97.40542,46.48893426421931],[-97.40542,46.48618],[-97.38451,46.48613],[-97.3845387315956,46.48298676344161],[-97.388353709,46.482913782],[-97.3899572657,46.481393395],[-97.387168692,46.479052552],[-97.3808230467,46.4704142234],[-97.3807477052,46.4626871817],[-97.3830806796,46.4610881301],[-97.3857063736,46.462139542],[-97.38651673663874,46.464261922932764],[-97.38473,46.46425],[-97.38462,46.47154],[-97.38902165424595,46.471565104491894],[-97.394383271,46.4770833092],[-97.3963360623,46.4805518636],[-97.3963267828,46.4829233489],[-97.4031481342,46.4829315339],[-97.4031575303,46.4741785143],[-97.4043393098,46.4725386334],[-97.406293167,46.4720207013],[-97.408974071,46.4743845181],[-97.4091487947,46.4829387341],[-97.4238911667,46.4829564236],[-97.4244374404,46.4772056906],[-97.4263555519,46.4759435787],[-97.4286043094,46.4764074404],[-97.429907559,46.4786170696],[-97.4297735638,46.4867000851]]]},"properties":{"flat_pct":100}},{"type":"Feature","geometry":{"type":"Polygon","coordinates":[[[-97.3286433348,46.4913502082],[-97.3261430457,46.490776209],[-97.3250071844,46.4882543003],[-97.3212111049,46.4878814924],[-97.3195182252,46.4861881773],[-97.3199141359,46.4827054047],[-97.3232451817,46.4818554929],[-97.3207745313,46.4785198556],[-97.31928,46.4702311948],[-97.3163048946,46.4714046189],[-97.3158936728,46.47467579],[-97.3168586133,46.4787837814],[-97.3132431732,46.4859889818],[-97.3091597433,46.4875804908],[-97.3056244319,46.4868262926],[-97.2992397189,46.4878852469],[-97.2974090513,46.4936824798],[-97.2918787378,46.4991990168],[-97.2893773944,46.4986296297],[-97.288230701,46.4963348497],[-97.2907810457,46.4911501123],[-97.2923105881,46.4899621377],[-97.2919302323,46.4877304512],[-97.2880570886,46.4860210318],[-97.2682417156,46.4883499886],[-97.2392717156,46.4882699886],[-97.2371528298,46.4873854543],[-97.23628572606366,46.48538498472359],[-97.23892,46.48539],[-97.23894582763953,46.48229068325553],[-97.2480852532,46.4796106988],[-97.2536091721,46.4823095582],[-97.25994601623569,46.48232705728201],[-97.25993,46.48523],[-97.27044,46.48521],[-97.27044,46.481837485828],[-97.2738774795,46.479629894],[-97.2820227602,46.475366388],[-97.2896453189,46.4729235378],[-97.2920579667,46.4737953469],[-97.2929146167,46.4762134188],[-97.2916587146,46.4786036877],[-97.2886310259,46.4800285763],[-97.2943621724,46.4822454014],[-97.3057804777,46.4807710542],[-97.3089275585,46.4815397046],[-97.3105980978,46.4775229052],[-97.3097195592,46.4754792992],[-97.3103016197,46.4707998434],[-97.3060802282,46.4696980286],[-97.3042032909,46.4681143795],[-97.3036293817,46.4658911597],[-97.3050392276,46.4637479716],[-97.3070188403,46.4633393817],[-97.3153459196,46.4654534246],[-97.3208754156,46.4639269839],[-97.32783464,46.4642568125],[-97.3319659869,46.4623289168],[-97.3432607149,46.4602619912],[-97.3454126361,46.4610628114],[-97.3463680088,46.4631507149],[-97.3457568219,46.4650774381],[-97.3436256072,46.4667590027],[-97.3390642578,46.4667665113],[-97.3286499533,46.470382962],[-97.32528,46.4698195734],[-97.3257460989,46.4738030146],[-97.3287744545,46.4795160792],[-97.3325916779,46.4798158019],[-97.3326412637,46.4766111438],[-97.3353368373,46.4751115633],[-97.3379300339,46.4767819496],[-97.3392396951,46.4822247131],[-97.3616161573,46.4825563503],[-97.3629689781,46.4808483186],[-97.3680158468,46.4792311805],[-97.3703647326,46.4802625178],[-97.3710619466,46.4826963445],[-97.37407784549579,46.482741042513204],[-97.37406,46.48598],[-97.33208,46.48552],[-97.332077447123,46.48923443604831],[-97.3286433348,46.4913502082]]]},"properties":{"flat_pct":100}},{"type":"Feature","geometry":{"type":"Polygon","coordinates":[[[-97.4059100224,46.4947883947],[-97.4075060554,46.4921487853],[-97.4103344146,46.4921597267],[-97.41592924117597,46.49733275324426],[-97.41597,46.50085],[-97.41072160388265,46.50088482348135],[-97.4065836236,46.4966941946],[-97.4059100224,46.4947883947]]]},"properties":{"flat_pct":100}},{"type":"Feature","geometry":{"type":"Polygon","coordinates":[[[-97.4246005542,46.5343104185],[-97.42345,46.5308571272],[-97.4127195623,46.5299600857],[-97.4141438521,46.5315033289],[-97.4142566149,46.5335215202],[-97.4130634547,46.5351531392],[-97.4108145376,46.5356162268],[-97.405553794,46.5324255018],[-97.4013051222,46.5335099691],[-97.3980950944,46.5331770873],[-97.3947564132,46.5315921324],[-97.39338512440708,46.52919666037234],[-97.39448,46.52921],[-97.39452045586833,46.52508928083916],[-97.395927426,46.524387109],[-97.3984153045,46.5250127139],[-97.3997815857,46.5273810332],[-97.4040774265,46.5266095111],[-97.4031100489,46.5242771318],[-97.40397946641733,46.52214820054327],[-97.40826740815301,46.52217921395834],[-97.4091244738,46.5233619938],[-97.4172112672,46.5239118318],[-97.421041329,46.5251025428],[-97.4247363767,46.5247796896],[-97.42635749565761,46.525504649276925],[-97.42638063611405,46.535367111803744],[-97.4246005542,46.5343104185]]]},"properties":{"flat_pct":97}},{"type":"Feature","geometry":{"type":"Polygon","coordinates":[[[-97.393418606,46.5387745754],[-97.3921241129,46.5357027704],[-97.3944667096,46.5333312859],[-97.4009331679,46.5337984615],[-97.4066989658,46.5334466739],[-97.4090207347,46.5358385534],[-97.4085393451,46.5380836239],[-97.4066114466,46.5393307347],[-97.4009068827,46.5398099713],[-97.393418606,46.5387745754]]]},"properties":{"flat_pct":100}},{"type":"Feature","geometry":{"type":"Polygon","coordinates":[[[-97.4072427968,46.5407687416],[-97.40906430768518,46.54365274747072],[-97.38405,46.5437],[-97.3845626662,46.540351935],[-97.4072427968,46.5407687416]]]},"properties":{"flat_pct":100}},{"type":"Feature","geometry":{"type":"Polygon","coordinates":[[[-97.3174856858,46.5386448028],[-97.3154625923,46.5400828166],[-97.3162844405,46.5433037458],[-97.3138781774,46.5487051986],[-97.3162061662,46.5535275543],[-97.3160436854,46.555545704],[-97.3143654377,46.5571182114],[-97.3087401403,46.557931803],[-97.3069816693,46.5550999347],[-97.3089977138,46.5523683098],[-97.3077400401,46.5491144927],[-97.3084047934,46.5457206018],[-97.3102097408,46.5430245375],[-97.3091191013,46.5402779981],[-97.3093237897,46.5375089314],[-97.3120773911,46.5351248862],[-97.3121028468,46.532444633],[-97.3136578285,46.5300238856],[-97.31593084511852,46.52893967361781],[-97.31995486018056,46.52910418081012],[-97.3208361589,46.5321930591],[-97.3180512524,46.5345571283],[-97.3174856858,46.5386448028]]]},"properties":{"flat_pct":96}},{"type":"Feature","geometry":{"type":"Polygon","coordinates":[[[-97.3122083476,46.5620619352],[-97.314496702,46.5618734886],[-97.3163696628,46.5636264686],[-97.31670639887048,46.57202054227755],[-97.31135,46.572],[-97.31135,46.56476],[-97.31003144167902,46.56475367294472],[-97.3122083476,46.5620619352]]]},"properties":{"flat_pct":100}},{"type":"Feature","geometry":{"type":"Polygon","coordinates":[[[-96.9773395683,46.1170461805],[-96.97120899,46.1178202785],[-96.9726599257,46.119644811],[-96.9723930182,46.1219059449],[-96.9684499329,46.123816482],[-96.96623642328197,46.12761248274813],[-96.94881,46.12757],[-96.94893,46.12395],[-96.94450613384514,46.12395902829827],[-96.9405364629,46.1218150135],[-96.9394370343,46.119799242],[-96.9407322934,46.1169997487],[-96.94382654657794,46.11683011251862],[-96.9487050529,46.1194012551],[-96.9539479176,46.124015836],[-96.9589059493,46.1244576065],[-96.9618215939,46.1234981214],[-96.9628511291,46.1216355655],[-96.9627115787,46.118000546],[-96.9682787549,46.110258472],[-96.9692084259,46.1075836705],[-96.9656942765,46.1056764591],[-96.9564550801,46.1053310687],[-96.9521398803,46.1085849249],[-96.9526345152,46.1119489414],[-96.9550592282,46.1157580453],[-96.9541326593,46.1178588899],[-96.9519919547,46.1186892282],[-96.94899044002156,46.116820172396494],[-96.94923,46.1097],[-96.94613353321927,46.1097],[-96.9458354317,46.107077265],[-96.9462084986367,46.10618421976706],[-96.94922,46.10619],[-96.94922,46.103272058709706],[-96.9501439050504,46.10257539244193],[-96.95436,46.1026],[-96.9544717273,46.0995900419],[-96.9600277428,46.0987951629],[-96.9720657409,46.1012445015],[-96.9706033545518,46.09538755951987],[-96.97710434202865,46.09536896756331],[-96.978586675,46.1020623635],[-96.9863988381,46.1091719625],[-96.9872864897,46.1118751547],[-96.9868329854,46.1139881077],[-96.99034498456471,46.114193354332315],[-96.9902489196448,46.120186969988154],[-96.9848156172,46.1198209858],[-96.9773395683,46.1170461805]],[[-96.9766525984,46.1081895918],[-96.974296948,46.1115592416],[-96.9777912365,46.1109381687],[-96.9808823595,46.111964252],[-96.9766525984,46.1081895918]]]},"properties":{"flat_pct":96}},{"type":"Feature","geometry":{"type":"Polygon","coordinates":[[[-96.9843757558,46.1266370419],[-96.9835509578,46.1244941966],[-96.9844829581,46.1223957558],[-96.9902308507225,46.12131431361859],[-96.99013465340502,46.12731618973053],[-96.986180604,46.1275471709],[-96.9843757558,46.1266370419]]]},"properties":{"flat_pct":100}},{"type":"Feature","geometry":{"type":"Polygon","coordinates":[[[-97.2617798901,46.3505952162],[-97.2590099165,46.3511670398],[-97.2569955478,46.3491815791],[-97.25675180627401,46.3330504258892],[-97.26275005205119,46.33306635446296],[-97.2628476014,46.3485624667],[-97.2617798901,46.3505952162]]]},"properties":{"flat_pct":100}},{"type":"Feature","geometry":{"type":"Polygon","coordinates":[[[-97.1896501775,46.342332426],[-97.1867210021,46.3432233693],[-97.1870992764,46.3465586141],[-97.1838831264,46.3481178622],[-97.1773553504,46.3446979859],[-97.17588013557975,46.3431818024156],[-97.17584,46.34028],[-97.19051812968071,46.340248486839904],[-97.1896501775,46.342332426]]]},"properties":{"flat_pct":100}},{"type":"Feature","geometry":{"type":"Polygon","coordinates":[[[-97.2300361698,46.3584147655],[-97.2321640123,46.3609806932],[-97.2304615481,46.364107633],[-97.2211302651,46.3649324725],[-97.2214127544457,46.38385676743925],[-97.21787,46.38385],[-97.2173259157,46.3864833814],[-97.2154895476,46.3843322217],[-97.2152154832,46.3751745443],[-97.2130007471,46.3723469476],[-97.213639075,46.3704290453],[-97.215221584,46.3693864519],[-97.21499,46.3512304465],[-97.1996647708,46.3505993803],[-97.1940067256,46.3472093645],[-97.1933594206,46.3439393959],[-97.1964268027,46.3421047181],[-97.2013032473,46.3448108081],[-97.2149749123,46.345193184],[-97.21495134672192,46.34019603002851],[-97.21776,46.34019],[-97.21776,46.33555],[-97.22098,46.33800280194073],[-97.2210376138,46.3589314836],[-97.2300361698,46.3584147655]]]},"properties":{"flat_pct":100}},{"type":"Feature","geometry":{"type":"Polygon","coordinates":[[[-97.2683928821,46.3714676045],[-97.2663840547,46.363355264],[-97.2631500632,46.3629754713],[-97.2551805847,46.3596936083],[-97.248227753,46.3544245343],[-97.2475290869,46.3498566788],[-97.2485700881,46.347810122],[-97.2518801336,46.3474160448],[-97.2532677367,46.3488858643],[-97.2535420961,46.3511466417],[-97.2562672428,46.353483455],[-97.2647329266,46.3570543575],[-97.2641615834,46.3540551299],[-97.266036378,46.3519373761],[-97.2683308732,46.3520232224],[-97.271878806,46.3545196499],[-97.2731183508,46.3568505382],[-97.2720630295,46.3611690064],[-97.273395542,46.3677463496],[-97.2746677353,46.3683927861],[-97.2792473044,46.3668557602],[-97.2757105042,46.3597217269],[-97.2759063309,46.3564873379],[-97.278292397,46.3549686463],[-97.2808807702,46.356108848],[-97.2858080314,46.3671232798],[-97.2852619133,46.3698573739],[-97.2802832741,46.3733962532],[-97.2766567266,46.3741484793],[-97.27720195162557,46.37665230006856],[-97.27547,46.37665],[-97.27547,46.37883],[-97.27068382079139,46.37521131869545],[-97.2704051411,46.3731667145],[-97.2683928821,46.3714676045]]]},"properties":{"flat_pct":100}},{"type":"Feature","geometry":{"type":"Polygon","coordinates":[[[-97.1731119362,46.3639201415],[-97.1743317863,46.3619748797],[-97.1762775106,46.3614271854],[-97.1781290293,46.3622381663],[-97.1795837211,46.36451982],[-97.1792146344,46.3706980936],[-97.1778095493,46.372514082],[-97.17612414699886,46.37290301668909],[-97.17613,46.36936],[-97.17337064444497,46.36935868288518],[-97.1738428804,46.366568198],[-97.1731119362,46.3639201415]]]},"properties":{"flat_pct":100}},{"type":"Feature","geometry":{"type":"Polygon","coordinates":[[[-97.238117815,46.378686044],[-97.2435230152,46.3726846585],[-97.2473680574,46.3700618091],[-97.2517699027,46.36922703],[-97.2541346169,46.3712076827],[-97.2535025556,46.3742268477],[-97.2483434085,46.3765666684],[-97.2473148323,46.3795073674],[-97.2445483849,46.3807811408],[-97.24235446325551,46.38389677070345],[-97.23621064916803,46.3838850346689],[-97.238117815,46.378686044]]]},"properties":{"flat_pct":100}},{"type":"Feature","geometry":{"type":"Polygon","coordinates":[[[-97.27797664623002,46.38073255053673],[-97.28004,46.38028],[-97.28003,46.38229],[-97.27797664623002,46.38073255053673]]]},"properties":{}},{"type":"Feature","geometry":{"type":"Polygon","coordinates":[[[-97.2646158462,46.3823180014],[-97.2633575338,46.3800824767],[-97.2640837632,46.3779042506],[-97.2667254072,46.3768935811],[-97.2714806206,46.3788755919],[-97.27070226055086,46.375878223424294],[-97.27547,46.38028],[-97.28003,46.38296],[-97.28000674607905,46.38675969068169],[-97.2722556443,46.3857740439],[-97.2646158462,46.3823180014]]]},"properties":{"flat_pct":100}},{"type":"Feature","geometry":{"type":"Polygon","coordinates":[[[-97.1815936809,46.3798707328],[-97.1853849227,46.3771894673],[-97.187406,46.377222],[-97.1890822606,46.3787911489],[-97.189158,46.381086],[-97.1842053806,46.3855589306],[-97.17610261059221,46.385939721522234],[-97.17611266466884,46.3798536537975],[-97.1815936809,46.3798707328]]]},"properties":{"flat_pct":100}},{"type":"Feature","geometry":{"type":"Polygon","coordinates":[[[-97.2704988698,46.4178034084],[-97.2672382797,46.4184964095],[-97.2653538311,46.41565],[-97.24973258086526,46.415718624279926],[-97.24974,46.41284],[-97.25974,46.41278],[-97.25980074205104,46.40965178437089],[-97.265773431,46.40965],[-97.2746509825,46.4071537931],[-97.2766346465,46.4075422374],[-97.2780079124,46.4093824055],[-97.2776777626,46.4116546465],[-97.2714533087,46.4146267223],[-97.2704988698,46.4178034084]]]},"properties":{"flat_pct":100}},{"type":"Feature","geometry":{"type":"Polygon","coordinates":[[[-97.23853924655863,46.41575811395698],[-97.23852,46.4129],[-97.2492,46.41285],[-97.24943658671158,46.41572058543381],[-97.23853924655863,46.41575811395698]]]},"properties":{"flat_pct":100}},{"type":"Feature","geometry":{"type":"Polygon","coordinates":[[[-97.27842433347764,46.42733309812799],[-97.2736466257,46.4296002695],[-97.25968,46.43007981645024],[-97.25968,46.42413068551036],[-97.2636937212,46.423350126],[-97.2726639288,46.4236222712],[-97.27553588220374,46.422615909468306],[-97.27551,46.42732],[-97.27842433347764,46.42733309812799]]]},"properties":{"flat_pct":100}},{"type":"Feature","geometry":{"type":"Polygon","coordinates":[[[-97.2523521466,46.4345557245],[-97.2551859477,46.4382806673],[-97.25552875621945,46.4416577509991],[-97.25254,46.44167],[-97.2501,46.43455],[-97.2523521466,46.4345557245]]]},"properties":{"flat_pct":100}},{"type":"Feature","geometry":{"type":"Polygon","coordinates":[[[-97.2478676442,46.438005271],[-97.2481642362,46.4360058098],[-97.24984227288599,46.434583840746726],[-97.25227,46.44167],[-97.24951990814742,46.44168216854802],[-97.2478676442,46.438005271]]]},"properties":{"flat_pct":100}},{"type":"Feature","geometry":{"type":"Polygon","coordinates":[[[-97.2386932560908,46.43874539818407],[-97.2415851605,46.4399624648],[-97.24591175573967,46.44169813382416],[-97.23871,46.44173],[-97.2386932560908,46.43874539818407]]]},"properties":{"flat_pct":100}},{"type":"Feature","geometry":{"type":"Polygon","coordinates":[[[-97.2546330595,46.4437994253],[-97.2513582348,46.4444216963],[-97.24952749315035,46.44176659291554],[-97.25552533028784,46.44176470383298],[-97.2546330595,46.4437994253]]]},"properties":{"flat_pct":100}},{"type":"Feature","geometry":{"type":"Polygon","coordinates":[[[-97.2496768188,46.4442757662],[-97.2498641176,46.4476039214],[-97.2465718279,46.4489952174],[-97.23875351269649,46.445291305252965],[-97.23871,46.44177],[-97.2460851100686,46.441767677130684],[-97.2496768188,46.4442757662]]]},"properties":{"flat_pct":100}},{"type":"Feature","geometry":{"type":"Polygon","coordinates":[[[-97.2723607084,46.4749035196],[-97.2694658055,46.4769998051],[-97.2610759333,46.4736603962],[-97.24950592505503,46.47375701837704],[-97.24953,46.47086],[-97.26002,46.47073],[-97.26001155987299,46.467670453958654],[-97.2732013177,46.4666218349],[-97.279438488,46.464933929],[-97.2836984698,46.4661832676],[-97.284330598,46.4683906398],[-97.2832167324,46.4703984698],[-97.2721665608,46.4726266223],[-97.2723607084,46.4749035196]]]},"properties":{"flat_pct":100}},{"type":"Feature","geometry":{"type":"Polygon","coordinates":[[[-97.32147405361547,46.506469147013455],[-97.3183041508,46.5081899666],[-97.31427778,46.5075279827],[-97.3132304376,46.5057991433],[-97.3133903758,46.5028228837],[-97.3110041851611,46.50278325146341],[-97.31105,46.5],[-97.30046,46.49989],[-97.3004,46.51074],[-97.30413222009813,46.51080410301695],[-97.3041894577,46.511447042],[-97.30413262520858,46.5144354838404],[-97.30038,46.51436],[-97.30037,46.51797],[-97.29808193256557,46.51795691286501],[-97.2981780553,46.5119895696],[-97.2957632911,46.5093619848],[-97.2848841575,46.5110175293],[-97.2845855371,46.5133177961],[-97.2856790078,46.5158271502],[-97.2845203392,46.5181741786],[-97.2875897344,46.5194234528],[-97.28987458014402,46.52182855586847],[-97.28987,46.52514],[-97.2847693824073,46.52510593098936],[-97.2819248556,46.524015755],[-97.2791109806,46.5208968321],[-97.26028,46.52151],[-97.26022208913811,46.518699392836105],[-97.2619248977,46.5190855013],[-97.2654141461,46.5178161793],[-97.2606348075,46.5075382744],[-97.2620259879,46.5042459359],[-97.2645806855,46.5040126098],[-97.2670169108,46.5059598089],[-97.2716241303,46.5168043504],[-97.2742798056,46.5169210968],[-97.2755546755,46.5150187682],[-97.2778923255,46.5142911581],[-97.2778283566,46.5123094463],[-97.2788850979,46.5107748827],[-97.27955,46.49973],[-97.2784280927,46.4996562296],[-97.2806877135,46.4992485632],[-97.2838408599,46.5008756627],[-97.2855086852,46.5049260751],[-97.2929587263,46.504051434],[-97.2981164539,46.5022277191],[-97.2983553262,46.4986671983],[-97.3001085029,46.4968256067],[-97.3114906396,46.4967905034],[-97.3126505406,46.4914207419],[-97.3146731596,46.4898427896],[-97.3166792581,46.4900905406],[-97.3180728217,46.4915547102],[-97.3174963796,46.4968749996],[-97.33207220956636,46.49685508095556],[-97.33207,46.50007],[-97.32163,46.50011],[-97.32147405361547,46.506469147013455]]]},"properties":{"flat_pct":98}},{"type":"Feature","geometry":{"type":"Polygon","coordinates":[[[-97.1945214437,46.5336683807],[-97.1865881528,46.5311895625],[-97.1825704504,46.5311020482],[-97.1754078184,46.5337665904],[-97.1752847115,46.5346561035],[-97.17884710347377,46.536107437081306],[-97.17668,46.53612],[-97.17669,46.53974],[-97.17156,46.53979],[-97.17146,46.53251],[-97.16924515899713,46.53251],[-97.169595211,46.52941893],[-97.1798429681,46.525720459],[-97.183776389,46.520536721],[-97.1837520315,46.5199156051],[-97.1794871314,46.5200754541],[-97.1753329733,46.5173708668],[-97.16578692737868,46.51737997563739],[-97.16569,46.51428],[-97.16276468533387,46.514285625605126],[-97.164886407,46.5115100113],[-97.1732462375,46.5113728553],[-97.1732804579056,46.499759682529955],[-97.17925918345352,46.49974643851767],[-97.1792433468,46.5127666799],[-97.181177189,46.514055908],[-97.19726,46.51427],[-97.1972465047371,46.511008644796235],[-97.1999371529,46.5123525218],[-97.2003677678,46.5146078817],[-97.1990413985,46.5178010503],[-97.1955290363,46.5195297995],[-97.1897542775,46.5198552731],[-97.1896550384,46.5225710999],[-97.1876410124,46.5252526675],[-97.193918273,46.5272818301],[-97.19784969479092,46.52568464599367],[-97.20189,46.52872],[-97.19715,46.52874],[-97.19726388249411,46.53233472568392],[-97.1945214437,46.5336683807]]]},"properties":{"flat_pct":96}},{"type":"Feature","geometry":{"type":"Polygon","coordinates":[[[-97.25751,46.52151],[-97.2574,46.52276],[-97.25585,46.52353],[-97.25164,46.52264],[-97.2487,46.52326],[-97.24729,46.52515],[-97.24807,46.52326],[-97.25172,46.52238],[-97.25565,46.52329],[-97.25751,46.52151]]]},"properties":{}},{"type":"Feature","geometry":{"type":"Polygon","coordinates":[[[-97.2016178934,46.5256285835],[-97.2015303493,46.5223431058],[-97.2044658233,46.5207636469],[-97.2066698066,46.522076422],[-97.20837835988915,46.52639691319856],[-97.20715,46.52696],[-97.20602,46.52841],[-97.20176,46.5283],[-97.19844863331608,46.525675735107924],[-97.2016178934,46.5256285835]]]},"properties":{"flat_pct":100}},{"type":"Feature","geometry":{"type":"Polygon","coordinates":[[[-97.20924545013112,46.52868333570244],[-97.20655,46.5287],[-97.20862520845574,46.526726859281716],[-97.20924545013112,46.52868333570244]]]},"properties":{}},{"type":"Feature","geometry":{"type":"Polygon","coordinates":[[[-97.3050429302,46.5619001122],[-97.30478799120469,46.5647285124338],[-97.30093,46.56471],[-97.30092,46.57195],[-97.29791003289375,46.57192431038032],[-97.29796,46.54317175572519],[-97.30035,46.54319],[-97.30035,46.53969],[-97.2951,46.53962],[-97.2951,46.53601],[-97.2987076564385,46.53605130904319],[-97.3037316386,46.5412919497],[-97.3039018623,46.5602775702],[-97.3050429302,46.5619001122]]]},"properties":{"flat_pct":98}},{"type":"Feature","geometry":{"type":"Polygon","coordinates":[[[-97.2861357361,46.562971171],[-97.2884175283,46.561299896],[-97.2910748385,46.5622686263],[-97.29346486558487,46.57188637154127],[-97.28732384281514,46.571833958829146],[-97.2861357361,46.562971171]]]},"properties":{"flat_pct":100}}]}