{"type":"FeatureCollection","attribution":"Derived from USFS MVUM roads + USFS Basic Ownership (public domain); terrain from Mapzen tiles (USGS 3DEP). Heuristic beta \u2014 not a statement of legality. Generated 2026-07-23.","features":[{"type":"Feature","geometry":{"type":"Polygon","coordinates":[[[-103.575587723,42.697849388],[-103.575879627,42.700156259],[-103.574435551,42.70197876],[-103.572412598,42.70229391],[-103.569470949,42.70121951],[-103.56845639139324,42.70017180469342],[-103.56848747402549,42.692691251198085],[-103.570723358,42.693163604],[-103.575587723,42.697849388]]]},"properties":{"flat_pct":54}},{"type":"Feature","geometry":{"type":"Polygon","coordinates":[[[-103.590332056,42.805139514],[-103.589232968,42.80315875],[-103.58691,42.802826562598305],[-103.58691,42.79927],[-103.59184,42.79925],[-103.592009097,42.793283101],[-103.594270031,42.791184759],[-103.59706546514919,42.79205926760491],[-103.59672917531327,42.798338527417044],[-103.594522975,42.800622],[-103.59674516267104,42.80177900680915],[-103.59675,42.80282],[-103.60658,42.80275],[-103.60658663009491,42.801566528057506],[-103.61313434,42.796978209],[-103.615378462,42.797464],[-103.616621791,42.79939434],[-103.615956667,42.801871946],[-103.61113278915293,42.80627412070282],[-103.60656,42.80633],[-103.60653,42.8099],[-103.60153202171436,42.8099475674344],[-103.590332056,42.805139514]]]},"properties":{"flat_pct":47}},{"type":"Feature","geometry":{"type":"Polygon","coordinates":[[[-103.611654701,42.829891196],[-103.609093609,42.829743777],[-103.607582826,42.827670505],[-103.607896223,42.825673609],[-103.609991461,42.822815041],[-103.617394802,42.820233587],[-103.62159507482416,42.82221156567739],[-103.62163,42.82761],[-103.61894415332823,42.82765156049008],[-103.617573413,42.826745592],[-103.613702608,42.827780152],[-103.611654701,42.829891196]]]},"properties":{"flat_pct":51}},{"type":"Feature","geometry":{"type":"Polygon","coordinates":[[[-103.624150404,42.866822454],[-103.622256332,42.868993033],[-103.62451892188454,42.87078722077942],[-103.62178,42.87079],[-103.621650901,42.875124034],[-103.617720342,42.873436594],[-103.615922691,42.870751114],[-103.607582645,42.866162087],[-103.604039314,42.85769466],[-103.59316291,42.851034937],[-103.591501714,42.845928613],[-103.58221957099934,42.834487890253115],[-103.58214,42.82812],[-103.5806249364913,42.82812154126501],[-103.582602416,42.824665827],[-103.586934938,42.822696385],[-103.58847089167985,42.82086430414529],[-103.59187,42.82084],[-103.59203967386672,42.817237352615734],[-103.61145,42.81698],[-103.61143328371574,42.81497404588838],[-103.615124387,42.81634368],[-103.615915318,42.818784039],[-103.614273681,42.821087246],[-103.602626898,42.821866324],[-103.60246563,42.828253846],[-103.600909461,42.83025919],[-103.598646242,42.830453773],[-103.596895446,42.829006452],[-103.596261659,42.822017936],[-103.590226586,42.828022551],[-103.586488346,42.829529029],[-103.596827982,42.842993784],[-103.597869598,42.846932374],[-103.606438917,42.851690573],[-103.608991421,42.854177584],[-103.611507624,42.861428092],[-103.617817777,42.864953864],[-103.620413224,42.860902674],[-103.623479011,42.860562369],[-103.625224336,42.863105733],[-103.624150404,42.866822454]]]},"properties":{"flat_pct":70}},{"type":"Feature","geometry":{"type":"Polygon","coordinates":[[[-103.584551194,42.854266628],[-103.587310606,42.857569431],[-103.586876282,42.859496332],[-103.585338119,42.860735543],[-103.579843848,42.86066365],[-103.574631176,42.864338403],[-103.563143111,42.865418419],[-103.559373076,42.8675358],[-103.557381474,42.867190356],[-103.556061091,42.865659866],[-103.556407134,42.862852734],[-103.55916844017261,42.860833598757345],[-103.56276,42.86083],[-103.56273678797287,42.85943147536539],[-103.572266418,42.858636642],[-103.57384481389762,42.85716821613126],[-103.5825,42.85693],[-103.58246537838328,42.85415930895115],[-103.584551194,42.854266628]]]},"properties":{"flat_pct":98}},{"type":"Feature","geometry":{"type":"Polygon","coordinates":[[[-103.647423327,42.877686035],[-103.647747296,42.883962083],[-103.646103844,42.885565561],[-103.643807917,42.885537296],[-103.642040662,42.883329006],[-103.64149,42.87077],[-103.64038877061415,42.87077111743215],[-103.645337845,42.865319022],[-103.647590869,42.865761698],[-103.648870978,42.867667845],[-103.648579066,42.869667995],[-103.646207328,42.872662921],[-103.645904013,42.87610251],[-103.647423327,42.877686035]]]},"properties":{"flat_pct":96}},{"type":"Feature","geometry":{"type":"Polygon","coordinates":[[[-103.883367325,42.900603787],[-103.881572111,42.895876249],[-103.879115651,42.894188652],[-103.878905654,42.89217825],[-103.880521348,42.890185651],[-103.883617383,42.889914591],[-103.886966525,42.892886633],[-103.887956977,42.896689086],[-103.89113547,42.899894766],[-103.891128445,42.902460087],[-103.889422931,42.903997389],[-103.887129913,42.903878445],[-103.883367325,42.900603787]]]},"properties":{"flat_pct":97}},{"type":"Feature","geometry":{"type":"Polygon","coordinates":[[[-103.849696179,42.92633551],[-103.848639222,42.928058488],[-103.846729137,42.928719841],[-103.843880372,42.926561274],[-103.84379236312675,42.92255889089461],[-103.84586,42.92258],[-103.8461,42.91538],[-103.84325691705092,42.915363521169404],[-103.842954737,42.913871478],[-103.844959457,42.911208247],[-103.8477542,42.911643156],[-103.849682537,42.914983494],[-103.849696179,42.92633551]]]},"properties":{"flat_pct":100}},{"type":"Feature","geometry":{"type":"Polygon","coordinates":[[[-103.725829421,42.928680623],[-103.730666335,42.936541762],[-103.729893549,42.938703909],[-103.728111217,42.939657377],[-103.725447843,42.938705445],[-103.722251311,42.933714133],[-103.718790564,42.932374272],[-103.709844318,42.933116028],[-103.707908629,42.932533859],[-103.706778184,42.929397972],[-103.709386529,42.927102248],[-103.703849447,42.921676652],[-103.70004481148085,42.91942400649013],[-103.70006,42.91467],[-103.69239442847937,42.91460183828333],[-103.685143095,42.909407855],[-103.684713016,42.907148343],[-103.686567975,42.904022981],[-103.686113242,42.902290562],[-103.6869206272307,42.90013667671886],[-103.69775788623838,42.900164182452386],[-103.70009,42.9038],[-103.706975741,42.908191334],[-103.70972422506864,42.911621296217184],[-103.70965,42.92195],[-103.71275325045491,42.92200089070879],[-103.716394451,42.924868585],[-103.725829421,42.928680623]],[[-103.693209291,42.904512807],[-103.691823808,42.906965551],[-103.701707407,42.91214697],[-103.705092731,42.915439964],[-103.702993065,42.912730417],[-103.696221179,42.908202984],[-103.693209291,42.904512807]]]},"properties":{"flat_pct":93}},{"type":"Feature","geometry":{"type":"Polygon","coordinates":[[[-103.73279468,42.925082948],[-103.731277165,42.926418223],[-103.728981312,42.926384455],[-103.727503724,42.925005127],[-103.72696981955252,42.92223403053698],[-103.73291829517122,42.92233158055585],[-103.73279468,42.925082948]]]},"properties":{"flat_pct":93}},{"type":"Feature","geometry":{"type":"Polygon","coordinates":[[[-103.763294118,42.935875813],[-103.76359670484723,42.93716848385568],[-103.75787,42.93727],[-103.7577419596541,42.94002868745247],[-103.750242514,42.935327605],[-103.743623654,42.936480887],[-103.741699935,42.935968645],[-103.740405805,42.933797537],[-103.7402454153291,42.921586834902676],[-103.74607599173504,42.92248769620295],[-103.746986852,42.929809243],[-103.751482255,42.929355758],[-103.755902509,42.931249589],[-103.758953195,42.934089044],[-103.760100766,42.934155855],[-103.759195805,42.932610136],[-103.759434437,42.930602932],[-103.761449864,42.929015805],[-103.76756433,42.931299329],[-103.77251749004542,42.93143549854632],[-103.77227319618666,42.93743104952059],[-103.76588950599584,42.93712783983115],[-103.763294118,42.935875813]]]},"properties":{"flat_pct":94}},{"type":"Feature","geometry":{"type":"Polygon","coordinates":[[[-103.725786434,42.944462244],[-103.726560088,42.948678756],[-103.72346117,42.950459651],[-103.71912115662589,42.94773595182268],[-103.71927,42.94402],[-103.715985223,42.943718163],[-103.717072875,42.941696013],[-103.719271837,42.941035223],[-103.725786434,42.944462244]]]},"properties":{"flat_pct":100}},{"type":"Feature","geometry":{"type":"Polygon","coordinates":[[[-103.639276377,42.929098369],[-103.641102669,42.927090384],[-103.643754609,42.926367699],[-103.64624742246808,42.92636822161706],[-103.64624,42.92907],[-103.66104,42.92914],[-103.6610327657037,42.9273844774297],[-103.663651911,42.930842657],[-103.663916815,42.934441022],[-103.668371506,42.938007688],[-103.670147872,42.942074214],[-103.672871062,42.944287274],[-103.68216715,42.948561257],[-103.683413554,42.950803443],[-103.682246561,42.953379848],[-103.679739111,42.95392171],[-103.6752473247378,42.95195041913288],[-103.67525,42.95099],[-103.669812819,42.94947675],[-103.666564337,42.946893449],[-103.659959582,42.946733014],[-103.651529881,42.942210154],[-103.644487525,42.940502086],[-103.638047926,42.940179233],[-103.63798843,42.943467489],[-103.645139735,42.949395386],[-103.649343088,42.956948421],[-103.649895808,42.967581646],[-103.645712768,42.974543458],[-103.644430075,42.98174837],[-103.64581857012101,42.98718723642606],[-103.63923962492092,42.98710934836134],[-103.638541782,42.984345527],[-103.639935038,42.972833112],[-103.64151,42.97235],[-103.64148204421599,42.96949251950595],[-103.644006489,42.966400607],[-103.642867583,42.957137627],[-103.637785743,42.950455947],[-103.63247692,42.946768698],[-103.631864258,42.940255631],[-103.628946519,42.937736966],[-103.622826138,42.937739907],[-103.617206181,42.93488274],[-103.613093491,42.934025796],[-103.611471521,42.931708696],[-103.61280384701158,42.928845593295385],[-103.619561356,42.929205649],[-103.625333375,42.931536032],[-103.62179927764053,42.92802057281471],[-103.62197,42.91423],[-103.6281668932016,42.914325729555124],[-103.625737132,42.923453491],[-103.632775928,42.930607598],[-103.634635609,42.934791509],[-103.638865276,42.934212675],[-103.639276377,42.929098369]],[[-103.658896746,42.938048321],[-103.65750123,42.932463606],[-103.64475839,42.932355844],[-103.644897057,42.934515081],[-103.653594386,42.936549233],[-103.662705942,42.940832604],[-103.658896746,42.938048321]]]},"properties":{"flat_pct":97}},{"type":"Feature","geometry":{"type":"Polygon","coordinates":[[[-103.84612265,42.969281206],[-103.83998544,42.970330939],[-103.829318214,42.966787803],[-103.824215703,42.966640914],[-103.813064366,42.962745264],[-103.807031736,42.961762755],[-103.805158265,42.959980484],[-103.800674125,42.951967119],[-103.795630179,42.949171366],[-103.792850026,42.946237799],[-103.79239790337685,42.94421768596069],[-103.79628,42.94413],[-103.79633875907238,42.941773108318415],[-103.800184617,42.944663799],[-103.809992903,42.942754116],[-103.826309666,42.943300045],[-103.836128451,42.941392315],[-103.84532961480717,42.941488785482896],[-103.84526,42.9442],[-103.84922265340562,42.94434357439876],[-103.848703878,42.946197035],[-103.847065746,42.947381237],[-103.836672992,42.947383556],[-103.826788779,42.949300482],[-103.810438946,42.948761615],[-103.806316707,42.949608896],[-103.810241916,42.956333086],[-103.814451813,42.956890857],[-103.8254334,42.960727794],[-103.830788191,42.960870862],[-103.841047506,42.964405966],[-103.845173029,42.963228598],[-103.850508472,42.9645903],[-103.85470479525573,42.96397396369275],[-103.85463764732529,42.970034605929584],[-103.849945221,42.97067367],[-103.84612265,42.969281206]]]},"properties":{"flat_pct":100}},{"type":"Feature","geometry":{"type":"Polygon","coordinates":[[[-104.051630543,42.974131066],[-104.048968261,42.978605546],[-104.04206459,42.986052773],[-104.04366846,42.990448851],[-104.041498273,42.992979065],[-104.037732617,42.992105241],[-104.035723252,42.987044802],[-104.028666099,42.988184956],[-104.018844867,42.986139608],[-104.012158345,42.987549707],[-104.006459025,42.987200245],[-104.00165567,42.991120036],[-103.99739,42.99152],[-103.9974104898632,42.98620141693626],[-104.000400465,42.984823253],[-104.001564917,42.979602449],[-104.014698148,42.973185311],[-104.026160799,42.964750958],[-104.036886485,42.963657608],[-104.040824144,42.964571762],[-104.044236753,42.964049352],[-104.036312856,42.953888762],[-104.03493212,42.950008261],[-104.031726132,42.947935987],[-104.025496372,42.947864907],[-104.022802538,42.9489477],[-104.01914709,42.947789228],[-104.013132723,42.948464911],[-104.011050547,42.950491958],[-104.007028536,42.952293418],[-103.994983498,42.953977037],[-103.987577906,42.952070763],[-103.97586396,42.953453458],[-103.964133629,42.957178121],[-103.957245484,42.960752444],[-103.95321088025571,42.96143477314976],[-103.95370276124862,42.941044410557694],[-103.965623699,42.945835711],[-103.973497369,42.947909706],[-103.9876819,42.946060449],[-103.994720504,42.94786643],[-104.007605125,42.945491217],[-104.00605303,42.942895919],[-104.006082293,42.94092018],[-104.01032897,42.936948191],[-104.004722214,42.937057421],[-103.997438266,42.933087441],[-103.992560386,42.933533475],[-103.987371882,42.930798961],[-103.980285583,42.929786294],[-103.978805859,42.928409258],[-103.978535599,42.926406068],[-103.981215254,42.924040835],[-103.989126464,42.925044966],[-103.993749794,42.927493259],[-103.998794024,42.927149451],[-104.006315859,42.931120748],[-104.012924281,42.930884595],[-104.016414094,42.932429998],[-104.01779264462455,42.93345891719342],[-104.01765,42.94439],[-104.03254,42.94449],[-104.03281112,42.939919934],[-104.037611638,42.934229473],[-104.03713303911975,42.930024593368195],[-104.0438363077231,42.93018239468892],[-104.043272684,42.936837917],[-104.03847262,42.942487573],[-104.037828249,42.944750952],[-104.039843459,42.946221711],[-104.041550862,42.950878022],[-104.049698538,42.961315536],[-104.05315306546467,42.967903191586366],[-104.05316592836719,42.97450548857438],[-104.051630543,42.974131066]],[[-104.018613968,42.980068879],[-104.024643077,42.980616059],[-104.028203501,42.982147989],[-104.035855055,42.980894004],[-104.038085458,42.981520858],[-104.044077298,42.975075977],[-104.046198797,42.970470273],[-104.040579276,42.970678649],[-104.036796069,42.969679313],[-104.02894844,42.970239261],[-104.017782277,42.978376278],[-104.01062394,42.981478948],[-104.018613968,42.980068879]],[[-103.956990935,42.94904431],[-103.956592614,42.954375122],[-103.962970832,42.951252135],[-103.956990935,42.94904431]]]},"properties":{"flat_pct":97}},{"type":"Feature","geometry":{"type":"Polygon","coordinates":[[[-103.603857226,42.955139774],[-103.606130927,42.957577392],[-103.6053243048168,42.960142633219164],[-103.60306,42.95799],[-103.60482447650556,42.96055882345313],[-103.584607463,42.970668932],[-103.577243976,42.967644034],[-103.57427074,42.964759428],[-103.570505961,42.958469052],[-103.5735,42.95815],[-103.57348574839988,42.95471536437115],[-103.5796231914326,42.95086719369837],[-103.58690202223812,42.95080472723049],[-103.586409166,42.95279453],[-103.583237184,42.956009621],[-103.5777712,42.959184348],[-103.580964594,42.962909592],[-103.584230619,42.964348967],[-103.586489436,42.962506356],[-103.590103683,42.961701422],[-103.589113307,42.956177749],[-103.590941006,42.95369292],[-103.593994001,42.954133466],[-103.595309186,42.957188893],[-103.603857226,42.955139774]]]},"properties":{"flat_pct":97}},{"type":"Feature","geometry":{"type":"Polygon","coordinates":[[[-103.716937734,42.967169111],[-103.7079680015642,42.9729373609991],[-103.6996,42.97292],[-103.69958074754574,42.97013609511248],[-103.70888589372024,42.965718963475865],[-103.717299435672,42.965745065467445],[-103.716937734,42.967169111]]]},"properties":{"flat_pct":100}},{"type":"Feature","geometry":{"type":"Polygon","coordinates":[[[-103.576153468,42.986094251],[-103.569194586,42.985950418],[-103.556789296,42.981133665],[-103.549232398,42.975753504],[-103.54856254538593,42.97274634042193],[-103.55522173029908,42.97271233028448],[-103.562679036,42.97739879],[-103.57331,42.98117],[-103.5667291214774,42.97877535072932],[-103.574015517,42.980204145],[-103.576129858,42.979047068],[-103.578116239,42.979421367],[-103.579502583,42.981251703],[-103.579188633,42.983526239],[-103.576153468,42.986094251]]]},"properties":{"flat_pct":91}},{"type":"Feature","geometry":{"type":"Polygon","coordinates":[[[-103.91646814183102,42.99533512887701],[-103.90824766678195,42.98454674208747],[-103.904480539,42.985918665],[-103.902290923,42.985227534],[-103.901284395,42.982311756],[-103.903573039,42.979957156],[-103.897036418812,42.976094544137986],[-103.88557281294077,42.9751950833399],[-103.87989501,42.973080854],[-103.87661958585173,42.97360867603988],[-103.87447972452398,42.97277396476199],[-103.87449691568101,42.96659804159893],[-103.87730362389496,42.967477709947474],[-103.88069270574687,42.96701767471521],[-103.886755534,42.969282474],[-103.898687167,42.970263438],[-103.907864034,42.975668108],[-103.90936939125073,42.978004079552875],[-103.912434104,42.979963107],[-103.92242278526697,42.99353756874793],[-103.92268547615568,42.99551885356861],[-103.9209247564421,43.00115903236159],[-103.91221371476558,43.001160293935506],[-103.91319761557172,42.99903507103196],[-103.9156562569542,42.99791576294976],[-103.91646814183102,42.99533512887701]]]},"properties":{"flat_pct":95}},{"type":"Feature","geometry":{"type":"Polygon","coordinates":[[[-103.181030786,42.611184027],[-103.17878555,42.609943127],[-103.178409821,42.607139814],[-103.181143933,42.604335436],[-103.183700186,42.604119821],[-103.18517955656222,42.605323624859686],[-103.18509088780668,42.60866857722418],[-103.181030786,42.611184027]]]},"properties":{"flat_pct":60}},{"type":"Feature","geometry":{"type":"Polygon","coordinates":[[[-103.156057565,42.614472783],[-103.15444236508534,42.61146234555046],[-103.15909,42.6115],[-103.15902076715376,42.6146241321862],[-103.156057565,42.614472783]]]},"properties":{"flat_pct":10}},{"type":"Feature","geometry":{"type":"Polygon","coordinates":[[[-103.190999365,42.617669834],[-103.191383208,42.620472047],[-103.188977133,42.622402245],[-103.184837844,42.62093683],[-103.183379665,42.61882623],[-103.183902911,42.616590544],[-103.18585377,42.615379665],[-103.189019451,42.615951821],[-103.190999365,42.617669834]]]},"properties":{"flat_pct":14}},{"type":"Feature","geometry":{"type":"Polygon","coordinates":[[[-103.193997256,42.631474795],[-103.194453462,42.633964923],[-103.193097734,42.635779926],[-103.190047562,42.636358697],[-103.187970164,42.634853593],[-103.187651303,42.632857562],[-103.188780768,42.631029072],[-103.187346593,42.629760729],[-103.186991831,42.627770765],[-103.189434309,42.623883715],[-103.191712379,42.623596536],[-103.193960565,42.625239644],[-103.194214802,42.627557621],[-103.192203649,42.630285572],[-103.193997256,42.631474795]]]},"properties":{"flat_pct":32}},{"type":"Feature","geometry":{"type":"Polygon","coordinates":[[[-103.246696046,42.629177555],[-103.248316349,42.627550688],[-103.250701561,42.627339393],[-103.252480374,42.628804468],[-103.252695284,42.631098903],[-103.250911489,42.633117773],[-103.248624601,42.633323261],[-103.246862227,42.631851489],[-103.246696046,42.629177555]]]},"properties":{"flat_pct":24}},{"type":"Feature","geometry":{"type":"Polygon","coordinates":[[[-103.188585975,42.641874148],[-103.199521836,42.64170764],[-103.19985,42.64705],[-103.19,42.64708],[-103.19003,42.64349],[-103.18718612331783,42.64349],[-103.188585975,42.641874148]]]},"properties":{"flat_pct":59}},{"type":"Feature","geometry":{"type":"Polygon","coordinates":[[[-103.05713745993665,42.64424609630366],[-103.05167965059151,42.64605544532038],[-103.0570348037924,42.652347005077964],[-103.05696,42.65825],[-103.05204934580996,42.6582699620089],[-103.05211,42.65464],[-103.03996429510734,42.64214751672004],[-103.03746079217282,42.641257898091986],[-103.03748,42.6366],[-103.0429493682124,42.63655926672286],[-103.04461443230987,42.63813410186748],[-103.04794600091718,42.63860976751609],[-103.0494717317123,42.640424270568445],[-103.05227055519605,42.638990882185574],[-103.05228,42.64014],[-103.05719,42.6401],[-103.05713745993665,42.64424609630366]]]},"properties":{"flat_pct":57}},{"type":"Feature","geometry":{"type":"Polygon","coordinates":[[[-103.07779775,42.676842452],[-103.079698426,42.676043342],[-103.087402323,42.676437081],[-103.089970113,42.674900204],[-103.088247525,42.672634671],[-103.088719336,42.6691429],[-103.091809368,42.66789254],[-103.094113321,42.670129357],[-103.094358203,42.667088848],[-103.097887186,42.663865312],[-103.095958437,42.653068368],[-103.093512532,42.648595693],[-103.093373956,42.639473585],[-103.097346298,42.635854566],[-103.09800007028737,42.632864641609494],[-103.10400976426311,42.6328831140295],[-103.103316086,42.637750405],[-103.099345311,42.641683501],[-103.099427706,42.647107878],[-103.101707123,42.651108585],[-103.104109313,42.661415789],[-103.103691066,42.665706338],[-103.100775146,42.6702478],[-103.099991796,42.673432451],[-103.100072433,42.674603597],[-103.102661178,42.673575304],[-103.10487849,42.674171634],[-103.106024696,42.676161178],[-103.105596137,42.678136564],[-103.10309064340775,42.679823825879545],[-103.07673487210324,42.679727818831054],[-103.07779775,42.676842452]]]},"properties":{"flat_pct":47}},{"type":"Feature","geometry":{"type":"Polygon","coordinates":[[[-103.148075436,42.680576161],[-103.145387025,42.678636284],[-103.143992223,42.676087553],[-103.144373082,42.673288024],[-103.14578498716928,42.6716726776373],[-103.14579,42.67258],[-103.15068,42.67252],[-103.15069,42.67614],[-103.156827813,42.67613992],[-103.163411666,42.679998977],[-103.16557126143033,42.680047899207416],[-103.16558,42.68322],[-103.15729791369418,42.68330369971001],[-103.155127537,42.681984057],[-103.148075436,42.680576161]]]},"properties":{"flat_pct":56}},{"type":"Feature","geometry":{"type":"Polygon","coordinates":[[[-103.04034343326728,42.71652390852535],[-103.03811484180864,42.71826549283743],[-103.0354286282999,42.7173800591634],[-103.03397980705184,42.71392237601528],[-103.03500942146573,42.710139053775386],[-103.03146910633606,42.70559697304397],[-103.02703957044352,42.706537949434086],[-103.02695,42.70194],[-103.03650122862663,42.70192048778626],[-103.04138018054041,42.71007256737559],[-103.04034343326728,42.71652390852535]]]},"properties":{"flat_pct":34}},{"type":"Feature","geometry":{"type":"Polygon","coordinates":[[[-103.46634908,42.808324469],[-103.463947606,42.80985314],[-103.442833574,42.809928511],[-103.439917437,42.81099098],[-103.439056277,42.813376352],[-103.43184139,42.819269699],[-103.427867281,42.819630191],[-103.42722803547817,42.82120645014675],[-103.42427,42.82119],[-103.42432998725693,42.81451757126816],[-103.426452536,42.813196352],[-103.429029515,42.81366162],[-103.43332519,42.810075931],[-103.433881061,42.807295454],[-103.435299847,42.805770991],[-103.442031984,42.803941996],[-103.455467522,42.803892949],[-103.439791384,42.799136413],[-103.430764581,42.788038966],[-103.40456624871572,42.78802021259889],[-103.40456,42.785],[-103.4360052744701,42.78498723552893],[-103.443123366,42.793911754],[-103.466369217,42.800115937],[-103.46745999,42.802437819],[-103.46634908,42.808324469]],[[-103.4643,42.80214],[-103.4638,42.80094],[-103.46518,42.80318],[-103.4643,42.80214]]]},"properties":{"flat_pct":99}},{"type":"Feature","geometry":{"type":"Polygon","coordinates":[[[-103.392186556,42.809689524],[-103.386607509,42.809383935],[-103.38483423842536,42.80812677252236],[-103.38483,42.80689],[-103.38299787237658,42.806869393247595],[-103.37508039581826,42.80305144629491],[-103.37511,42.79942],[-103.38139868738037,42.79943706563739],[-103.388818366,42.803628559],[-103.396021698,42.802578564],[-103.400245058,42.800520016],[-103.404663551,42.800287661],[-103.40669865,42.801849486],[-103.40688612,42.80413792],[-103.405400514,42.80588865],[-103.392186556,42.809689524]]]},"properties":{"flat_pct":96}},{"type":"Feature","geometry":{"type":"Polygon","coordinates":[[[-103.493544775,42.808253663],[-103.482602859,42.805854237],[-103.480472838,42.803810034],[-103.480645504,42.800986929],[-103.483383144,42.799565595],[-103.495362398,42.802532093],[-103.511236869,42.808967623],[-103.512624407,42.812261498],[-103.511267692,42.814113903],[-103.508998502,42.814464407],[-103.493544775,42.808253663]]]},"properties":{"flat_pct":93}},{"type":"Feature","geometry":{"type":"Polygon","coordinates":[[[-103.407263441,42.902575703],[-103.39477424001181,42.9126439335297],[-103.38415,42.91274],[-103.38419977829308,42.90971513905786],[-103.388671675,42.909734376],[-103.39934580757674,42.90167092213642],[-103.40742651552647,42.90159137957962],[-103.407263441,42.902575703]]]},"properties":{"flat_pct":99}},{"type":"Feature","geometry":{"type":"Polygon","coordinates":[[[-103.556919797,42.903424896],[-103.55603358,42.916776541],[-103.552289486,42.92002281],[-103.548378315,42.919933628],[-103.54719149,42.91708647],[-103.550328706,42.913943346],[-103.549787846,42.909033171],[-103.550762029,42.903353264],[-103.550011214,42.900220849],[-103.551819646,42.897721963],[-103.55312920374827,42.89748635137447],[-103.55317,42.90044],[-103.55612505312907,42.90041261303866],[-103.556919797,42.903424896]]]},"properties":{"flat_pct":98}},{"type":"Feature","geometry":{"type":"Polygon","coordinates":[[[-103.477640852,42.92433276],[-103.478528055,42.927287033],[-103.476051935,42.929518743],[-103.468083436,42.928073898],[-103.466262546,42.925584075],[-103.466943751,42.923391351],[-103.468975925,42.922322546],[-103.472933155,42.922411176],[-103.477640852,42.92433276]]]},"properties":{"flat_pct":96}},{"type":"Feature","geometry":{"type":"Polygon","coordinates":[[[-103.550570849,42.937093949],[-103.560411719,42.934753883],[-103.567109917,42.935872911],[-103.57339013461689,42.94007223953147],[-103.57344,42.94368],[-103.56813195046445,42.94371776051499],[-103.565078962,42.941584555],[-103.560713009,42.940791459],[-103.554453587,42.942019958],[-103.55020175,42.948247717],[-103.545673103,42.948847556],[-103.542701158,42.951513426],[-103.535092539,42.953756442],[-103.533544166,42.957440909],[-103.53033195293953,42.95867032211794],[-103.528844125,42.961572452],[-103.532400308,42.965577772],[-103.532919456,42.967531307],[-103.531632228,42.969750308],[-103.529386885,42.970230428],[-103.52417265186787,42.965727819725124],[-103.52434,42.9584],[-103.52019539054434,42.95841254042195],[-103.516072869,42.954585518],[-103.516868941,42.951101103],[-103.520689572,42.950428054],[-103.516717103,42.945435121],[-103.514855805,42.937887545],[-103.510330586,42.926209595],[-103.505027579,42.928702921],[-103.502965607,42.927176752],[-103.502810474,42.924689702],[-103.494750665,42.92210269],[-103.486997219,42.922704176],[-103.484674381,42.921238098],[-103.470014257,42.921656114],[-103.46369745365256,42.924709189280634],[-103.46365588721812,42.91800313785686],[-103.46952126,42.915634203],[-103.48598436355921,42.91527295151601],[-103.488586024,42.916652485],[-103.492863993,42.916394692],[-103.495448393,42.91000619],[-103.49819751,42.908607185],[-103.500049029,42.909418166],[-103.500965792,42.911219653],[-103.498918794,42.917592389],[-103.507656687,42.919097686],[-103.508776895,42.91578202],[-103.513163164,42.914278842],[-103.51427481,42.911633099],[-103.518113226,42.908925565],[-103.511850608,42.905628098],[-103.510814569,42.901786839],[-103.513055223,42.897552465],[-103.514893097,42.89671102],[-103.5168476,42.89722651],[-103.51813898,42.899443097],[-103.517280567,42.90205036],[-103.520624677,42.903309214],[-103.526403584,42.901711581],[-103.512788237,42.893620895],[-103.512507416,42.890057748],[-103.515835617,42.888754692],[-103.519661568,42.889851705],[-103.521600479,42.891949156],[-103.529650456,42.896401622],[-103.53200225,42.899177095],[-103.532383369,42.901166649],[-103.536962226,42.900749382],[-103.543207818,42.897568448],[-103.545413388,42.898206836],[-103.546521552,42.900217818],[-103.545472661,42.90284452],[-103.539029526,42.906442645],[-103.527377515,42.90764769],[-103.525472101,42.911080086],[-103.519030163,42.915573879],[-103.517582621,42.919002646],[-103.514076483,42.920236616],[-103.517778324,42.927898447],[-103.522215608,42.942846426],[-103.52960422487857,42.95128542389657],[-103.532225141,42.948290859],[-103.53975209,42.946222155],[-103.543386987,42.942897512],[-103.546955362,42.942986148],[-103.550570849,42.937093949]]]},"properties":{"flat_pct":94}},{"type":"Feature","geometry":{"type":"Polygon","coordinates":[[[-103.510536839,42.975861611],[-103.506767049,42.979527118],[-103.499712682,42.983654717],[-103.502170559,42.987642918],[-103.501589636,42.990887855],[-103.496994052,42.998016676],[-103.494313331,42.998918601],[-103.492366755,42.997700849],[-103.491851399,42.995463331],[-103.495947699,42.988640264],[-103.493181394,42.985754988],[-103.48917097757516,42.985643259635886],[-103.48905,42.98052],[-103.48696599178943,42.98054668919634],[-103.497563745,42.978046474],[-103.502496912,42.975109107],[-103.501639311,42.973329843],[-103.501479545,42.964925812],[-103.490746782,42.970768651],[-103.485999629,42.971588925],[-103.482115274,42.973646771],[-103.473247185,42.970046605],[-103.470764481,42.96798612],[-103.466186234,42.968667864],[-103.462543891,42.967329075],[-103.462679708,42.969537637],[-103.46119165,42.971856063],[-103.456395374,42.975136376],[-103.451545185,42.976059963],[-103.435096788,42.975968431],[-103.431841197,42.975094632],[-103.427745358,42.972424122],[-103.425728021,42.969128646],[-103.42323594,42.969064601],[-103.413325066,42.965391011],[-103.40473878815172,42.964715469754616],[-103.40492,42.95991],[-103.41543815085717,42.959762107992354],[-103.424757141,42.963156401],[-103.432621579,42.96187747],[-103.437958239,42.963879764],[-103.440045038,42.962419204],[-103.443484635,42.961771081],[-103.44582532667232,42.95933484463598],[-103.454583824,42.959240089],[-103.462277048,42.961090646],[-103.467962244,42.949931692],[-103.473431162,42.948353766],[-103.480615346,42.948439796],[-103.480029216,42.944512338],[-103.482765707,42.936758906],[-103.488979661,42.933927127],[-103.490912523,42.93516653],[-103.491402873,42.937409661],[-103.490136589,42.939432716],[-103.487966583,42.940503446],[-103.486237048,42.944373495],[-103.486744705,42.948550939],[-103.49142814,42.950153788],[-103.498062145,42.954565597],[-103.503263145,42.95528098],[-103.507369947,42.953542399],[-103.509950191,42.955232724],[-103.5095633170083,42.9584447100847],[-103.50451,42.95846],[-103.5047,42.97292],[-103.51099753540193,42.97289717102651],[-103.510536839,42.975861611]],[[-103.434428341,42.969639275],[-103.437779571,42.969991912],[-103.433326482,42.968920135],[-103.434428341,42.969639275]],[[-103.446094515,42.967354783],[-103.442368964,42.968049708],[-103.439512417,42.97000047],[-103.451270278,42.970058533],[-103.456062033,42.96823699],[-103.455679965,42.965665304],[-103.453734213,42.965193666],[-103.448674063,42.964962302],[-103.446094515,42.967354783]],[[-103.473080687,42.962273767],[-103.481711962,42.967386702],[-103.483587568,42.965943249],[-103.488201904,42.965199046],[-103.496780554,42.960439108],[-103.488847558,42.955585819],[-103.485221514,42.954523006],[-103.474079039,42.954324033],[-103.468838271,42.960024348],[-103.468219664,42.962144706],[-103.473080687,42.962273767]]]},"properties":{"flat_pct":87}},{"type":"Feature","geometry":{"type":"Polygon","coordinates":[[[-100.498381084,41.959712903],[-100.495101915,41.956391937],[-100.488415383,41.954933819],[-100.486139101,41.953162711],[-100.472507241,41.95458314],[-100.465459975,41.952745567],[-100.464785485,41.950038945],[-100.468277464,41.942495827],[-100.472907095,41.938351586],[-100.477228151,41.937321262],[-100.475160779,41.934547581],[-100.473660051,41.929507451],[-100.475714069,41.925609122],[-100.474599902,41.922407485],[-100.476288019,41.9197262],[-100.476156481,41.917415295],[-100.477774114,41.913088287],[-100.47739339,41.911272188],[-100.472446042,41.910602745],[-100.466555554,41.911192404],[-100.457797431,41.909856133],[-100.454489568,41.907588692],[-100.454196153,41.904581684],[-100.448659762,41.902107135],[-100.440731636,41.904563077],[-100.433359201,41.904310341],[-100.429530576,41.902627112],[-100.427953825,41.900547103],[-100.423814911,41.898910056],[-100.416631601,41.898499092],[-100.412429562,41.896885923],[-100.4085357,41.905255907],[-100.40811917,41.912635808],[-100.40468081,41.915367953],[-100.40265986595892,41.91510763856501],[-100.40262,41.91329],[-100.3911472942799,41.9133063895796],[-100.374860029,41.911448158],[-100.370934753,41.911970068],[-100.356874084,41.908404406],[-100.343924552,41.909082085],[-100.334873503,41.905584328],[-100.31481,41.90597],[-100.31482,41.90494],[-100.31010716773096,41.90332906673999],[-100.310693343,41.900976379],[-100.312690158,41.899842884],[-100.316154658,41.900561484],[-100.318642057,41.899351122],[-100.328449876,41.90065019],[-100.335474764,41.899494516],[-100.34488685,41.903086875],[-100.357373446,41.902384456],[-100.371788209,41.905868244],[-100.383894203,41.90610839],[-100.40239421,41.908993081],[-100.402727526,41.90355152],[-100.406792853,41.894777669],[-100.406443319,41.886945614],[-100.409547518,41.881663081],[-100.403092177,41.882582706],[-100.396222052,41.879303273],[-100.39124954,41.878729345],[-100.379472639,41.873063792],[-100.37254087,41.874395866],[-100.369669083,41.873959101],[-100.369448055,41.879121872],[-100.367662874,41.881327264],[-100.36935337,41.883636271],[-100.368172304,41.888497809],[-100.370072855,41.892442615],[-100.370550458,41.896549084],[-100.36817765,41.899788499],[-100.360993077,41.899216527],[-100.350897232,41.900269343],[-100.335247872,41.89804024],[-100.326833797,41.899325094],[-100.324507471,41.896611593],[-100.326235188,41.893682884],[-100.319013052,41.891312341],[-100.316232238,41.892042871],[-100.310458544,41.889536526],[-100.308103756,41.894890063],[-100.303932052,41.898121226],[-100.304542608,41.900970473],[-100.303704189,41.902847934],[-100.301064373,41.903719625],[-100.3003852943571,41.90516765436286],[-100.29531,41.90428],[-100.2953,41.90129],[-100.29334,41.90086],[-100.2933,41.89983],[-100.29529,41.89979],[-100.29531759621547,41.89596332478739],[-100.297933476,41.896070769],[-100.303233704,41.890824078],[-100.30365811,41.88558023],[-100.305129516,41.883821701],[-100.309935647,41.883354648],[-100.316697812,41.885510973],[-100.320342658,41.88538834],[-100.325186181,41.887484788],[-100.32997168,41.887795454],[-100.32947311,41.886623441],[-100.325418002,41.884508498],[-100.324608962,41.879851315],[-100.32193754,41.877399386],[-100.3228736,41.874125779],[-100.320967629,41.872470209],[-100.320104501,41.869845721],[-100.320916185,41.867953072],[-100.323515943,41.866042839],[-100.322113597,41.863470487],[-100.314219479,41.861417871],[-100.310299213,41.85932596],[-100.297468687,41.858214535],[-100.291605539,41.856269133],[-100.28953546,41.852912846],[-100.272661982,41.848987821],[-100.262522671,41.847560076],[-100.25899999,41.84791633],[-100.250190138,41.845566504],[-100.243440235,41.845075848],[-100.237079979,41.847231172],[-100.222386699,41.845736432],[-100.218574181,41.84421526],[-100.214909574,41.840275994],[-100.209138351,41.837947684],[-100.209115738,41.833919681],[-100.207649138,41.828603982],[-100.208516757,41.823975831],[-100.211866818,41.821670226],[-100.221299872,41.823373427],[-100.236005633,41.823081154],[-100.24384792,41.826025802],[-100.247590607,41.826436059],[-100.250070535,41.825581241],[-100.254122842,41.82591155],[-100.255287484,41.821760979],[-100.253083609,41.820323366],[-100.252276084,41.817506189],[-100.254930691,41.813978141],[-100.254678967,41.809326212],[-100.257100533,41.805681323],[-100.257784454,41.802561636],[-100.25916723077822,41.80127],[-100.26115,41.80127],[-100.26116872710664,41.79449078740119],[-100.26591,41.79402],[-100.26591442345746,41.792396591113786],[-100.26865250587457,41.79032737055176],[-100.27558,41.79027],[-100.27558517811426,41.789327583206926],[-100.278357925,41.790289924],[-100.281017555,41.793848344],[-100.283649992,41.795552612],[-100.291348205,41.795960915],[-100.300559671,41.794957336],[-100.305644583,41.796224467],[-100.30855503,41.79474701],[-100.314470814,41.795531413],[-100.317159956,41.792681655],[-100.317420443,41.788011902],[-100.319140316,41.786170825],[-100.327646208,41.78762061],[-100.330612625,41.784002033],[-100.334267515,41.783311751],[-100.341011091,41.784823996],[-100.342943501,41.784092263],[-100.350425222,41.7845595],[-100.352218811,41.785568841],[-100.352931114,41.787344663],[-100.360304649,41.787286201],[-100.369583538,41.789699624],[-100.381037018,41.789730187],[-100.386314092,41.790691008],[-100.391605024,41.789249906],[-100.400456523,41.792249353],[-100.402093393,41.789859968],[-100.406927029,41.788986404],[-100.409444858,41.786659273],[-100.417281998,41.785679454],[-100.419082725,41.783458041],[-100.426030098,41.782042166],[-100.432579025,41.782133004],[-100.442548531,41.783848256],[-100.447283589,41.782540002],[-100.457242959,41.783250238],[-100.45882579,41.781893902],[-100.462654943,41.781233042],[-100.474939241,41.781357306],[-100.485186819,41.78214376],[-100.491416607,41.784132472],[-100.49654995817589,41.78401292497536],[-100.4965726060582,41.79001008421156],[-100.490865245,41.790127392],[-100.483984535,41.788096897],[-100.474519344,41.787362925],[-100.462925992,41.787247712],[-100.458530145,41.789769983],[-100.4474188,41.788618904],[-100.444518993,41.79021896],[-100.426571399,41.788034408],[-100.423419161,41.788657585],[-100.420500288,41.791404769],[-100.412371187,41.792505477],[-100.410218184,41.794578308],[-100.416290936,41.796893228],[-100.417478657,41.800082315],[-100.420423574,41.801682368],[-100.421996415,41.808756196],[-100.445791064,41.814284745],[-100.452060225,41.818799923],[-100.463437387,41.825012701],[-100.4645087,41.827580137],[-100.462935089,41.832657218],[-100.45893943,41.835495316],[-100.46450533,41.836035527],[-100.468458227,41.838893884],[-100.472605509,41.839637104],[-100.477657603,41.841971698],[-100.480499487,41.841796717],[-100.49775540949082,41.84560330509227],[-100.497707375,41.851849915],[-100.479861751,41.847802184],[-100.476447131,41.847953568],[-100.470693999,41.845351741],[-100.465905576,41.844421821],[-100.462328762,41.841765324],[-100.459914393,41.841584902],[-100.458685814,41.843745104],[-100.462489765,41.848925667],[-100.473527675,41.860214508],[-100.485016002,41.863419131],[-100.490196196,41.862816444],[-100.49854970743849,41.86497923637505],[-100.49880252269912,41.87114635682626],[-100.489555643,41.868834831],[-100.48503103,41.869458619],[-100.481060488,41.868765447],[-100.472801476,41.866428819],[-100.469167016,41.864376362],[-100.466186666,41.868920418],[-100.468477631,41.875543345],[-100.473302747,41.87779696],[-100.475109904,41.885988993],[-100.47631914,41.887605024],[-100.484945143,41.890187945],[-100.488135005,41.889802944],[-100.489887249,41.891286763],[-100.489843649,41.894114807],[-100.487061549,41.896056606],[-100.478695912,41.894961988],[-100.481789898,41.898912119],[-100.483538977,41.903861219],[-100.490318731,41.903738444],[-100.493693501,41.901157822],[-100.50006344805072,41.901905095455135],[-100.5003105826116,41.907933642152486],[-100.495141414,41.907329847],[-100.492422568,41.909530895],[-100.483292471,41.910168643],[-100.483845678,41.913843779],[-100.482157429,41.918460529],[-100.482339009,41.92154976],[-100.481238324,41.923174591],[-100.482241852,41.926169997],[-100.479975023,41.929985165],[-100.480605896,41.931927851],[-100.484492364,41.936188098],[-100.492471857,41.940966083],[-100.494365701,41.943980777],[-100.494320582,41.946381803],[-100.498290595,41.949260999],[-100.50035686,41.953465294],[-100.503024776,41.955871229],[-100.508110821,41.963664148],[-100.513739888,41.968182522],[-100.5146781442183,41.971292580309694],[-100.50838888453008,41.97128389348692],[-100.503626707,41.967750648],[-100.498381084,41.959712903]],[[-100.424228762,41.89276159],[-100.431348778,41.895327012],[-100.434499357,41.898368723],[-100.439921808,41.898607073],[-100.449399122,41.896019229],[-100.459173563,41.90029453],[-100.460609377,41.904258147],[-100.477430745,41.905222562],[-100.476586898,41.902099544],[-100.472674228,41.897397477],[-100.472166327,41.892797849],[-100.46910641,41.887787654],[-100.467817711,41.881517341],[-100.455780536,41.882437438],[-100.449922042,41.87969094],[-100.447167064,41.879540189],[-100.431906097,41.874578999],[-100.414102035,41.87105705],[-100.416762071,41.881907971],[-100.412373362,41.888622097],[-100.412522173,41.890730716],[-100.417942678,41.892576404],[-100.424228762,41.89276159]],[[-100.393901361,41.86817781],[-100.385991652,41.86903716],[-100.393364324,41.873045553],[-100.397824142,41.873467019],[-100.404482734,41.876651432],[-100.405914765,41.876592519],[-100.408549197,41.873332501],[-100.406999427,41.869736591],[-100.405744842,41.868999543],[-100.399930879,41.869243384],[-100.393901361,41.86817781]],[[-100.391336145,41.795361425],[-100.39205853,41.795487393],[-100.391404603,41.795339039],[-100.391336145,41.795361425]],[[-100.350512848,41.79298868],[-100.346965127,41.790339924],[-100.341387014,41.791027478],[-100.334199262,41.789354689],[-100.332038951,41.791774269],[-100.33908286,41.792781021],[-100.346851263,41.792365624],[-100.354330901,41.794074618],[-100.35999282,41.793654476],[-100.350512848,41.79298868]],[[-100.282775417,41.802281986],[-100.283141076,41.801534053],[-100.275178894,41.80100794],[-100.282775417,41.802281986]],[[-100.270040562,41.797089765],[-100.269078175,41.797497227],[-100.268289935,41.798475504],[-100.27022598,41.79913479],[-100.270040562,41.797089765]],[[-100.264551231,41.804444023],[-100.260517241,41.811121809],[-100.261029335,41.813403152],[-100.260085853,41.817244611],[-100.261753222,41.818813272],[-100.262066051,41.821273885],[-100.260381542,41.825809573],[-100.262489705,41.828767912],[-100.260950168,41.83143067],[-100.247683112,41.832482138],[-100.241933684,41.831799158],[-100.235924295,41.829313709],[-100.220690308,41.829381945],[-100.213790927,41.827912428],[-100.2151641,41.834152287],[-100.218842815,41.83520523],[-100.224168549,41.839999097],[-100.23551368,41.841212313],[-100.241335472,41.839061685],[-100.2507679,41.839573846],[-100.259553939,41.841923265],[-100.262820244,41.841528848],[-100.272968425,41.842828273],[-100.283140282,41.845875791],[-100.292068298,41.847228042],[-100.290693268,41.844636665],[-100.287220879,41.844202496],[-100.281027661,41.841326333],[-100.278442497,41.835783953],[-100.274505298,41.834565773],[-100.270036233,41.828363777],[-100.270212831,41.823384872],[-100.273107555,41.811547391],[-100.276716397,41.808855366],[-100.280179632,41.807986141],[-100.275059738,41.807281856],[-100.267244067,41.804432315],[-100.264551231,41.804444023]],[[-100.312163973,41.807132094],[-100.30540755,41.806131426],[-100.300659504,41.807315256],[-100.296294822,41.804100855],[-100.293395067,41.803289488],[-100.289240887,41.805666125],[-100.311062684,41.810012689],[-100.312163973,41.807132094]],[[-100.320479624,41.798078479],[-100.320034483,41.804901481],[-100.31633314,41.813028766],[-100.316905563,41.818087248],[-100.320400802,41.81817339],[-100.325608263,41.820604611],[-100.327228641,41.82409957],[-100.327830391,41.833148865],[-100.343362503,41.835927742],[-100.341461365,41.832160496],[-100.34240983,41.819244112],[-100.339834515,41.80877376],[-100.339875741,41.805675889],[-100.3369378,41.79846064],[-100.322810299,41.797548325],[-100.320479624,41.798078479]],[[-100.345888728,41.805317342],[-100.347579174,41.815152924],[-100.357367768,41.819340473],[-100.359456389,41.82420133],[-100.366808595,41.825511025],[-100.36846254,41.826686554],[-100.368951181,41.828939007],[-100.366475563,41.83208313],[-100.366915788,41.834279781],[-100.374587117,41.839985009],[-100.374866236,41.842576176],[-100.373193497,41.844371082],[-100.384086993,41.84503935],[-100.389474657,41.84406662],[-100.387704543,41.839021054],[-100.390511933,41.83583194],[-100.390051092,41.828887654],[-100.392438242,41.826541176],[-100.396670794,41.827205816],[-100.402792125,41.825504237],[-100.4115364,41.825031245],[-100.429753843,41.829546166],[-100.431609115,41.830721671],[-100.432756945,41.828025151],[-100.436912743,41.826484124],[-100.454608357,41.830984074],[-100.457033969,41.829723809],[-100.457426819,41.828165363],[-100.449030107,41.824002339],[-100.443697162,41.820023449],[-100.417129076,41.813813415],[-100.415304256,41.81044909],[-100.415841645,41.807540429],[-100.414758576,41.805451658],[-100.41208188,41.803949679],[-100.411438902,41.80137221],[-100.409206175,41.800552776],[-100.392162812,41.801575338],[-100.362384895,41.799493468],[-100.354021731,41.800098979],[-100.34620876,41.798360697],[-100.343139945,41.798546441],[-100.345888728,41.805317342]],[[-100.402926511,41.844724624],[-100.405535938,41.848219209],[-100.406032195,41.86142207],[-100.40877424,41.863636064],[-100.433580519,41.868814716],[-100.448648394,41.873676528],[-100.4517196,41.873857612],[-100.457079026,41.876576671],[-100.462062387,41.875503761],[-100.459859229,41.867522244],[-100.464885496,41.859944624],[-100.453111755,41.847202247],[-100.452670925,41.842044202],[-100.453396395,41.839828275],[-100.450024557,41.836327371],[-100.438576953,41.832865686],[-100.436280295,41.835938346],[-100.429132402,41.837364189],[-100.42624143,41.834863109],[-100.41113831,41.83107775],[-100.403801543,41.831502177],[-100.396473382,41.83325422],[-100.397223763,41.83741379],[-100.394370578,41.840426598],[-100.39600087,41.843848871],[-100.402926511,41.844724624]],[[-100.400067618,41.863190637],[-100.399324891,41.850093549],[-100.397245986,41.849754334],[-100.384216957,41.851039972],[-100.362398674,41.850529147],[-100.35520567,41.846687369],[-100.342474563,41.842780036],[-100.340952962,41.841585613],[-100.324028596,41.838349345],[-100.319183928,41.833794814],[-100.319513376,41.831513443],[-100.321769347,41.829209708],[-100.320997058,41.824770905],[-100.316120352,41.824076692],[-100.314273925,41.828810485],[-100.315642015,41.833528735],[-100.313324113,41.836705621],[-100.31342565,41.838285694],[-100.316023426,41.841481917],[-100.316712954,41.847934455],[-100.320000672,41.849845159],[-100.321170822,41.853628684],[-100.323326476,41.855128309],[-100.324084405,41.857539269],[-100.325316802,41.858390809],[-100.328207457,41.854505963],[-100.336567432,41.853386504],[-100.343482166,41.855142186],[-100.363544391,41.856009473],[-100.368591357,41.859231359],[-100.369796225,41.861733844],[-100.378148835,41.862782509],[-100.381544387,41.864487],[-100.38589119,41.862696595],[-100.394237383,41.862164673],[-100.400067618,41.863190637]],[[-100.311182512,41.851783639],[-100.310061583,41.849854168],[-100.31018809,41.84353678],[-100.307111139,41.840833959],[-100.305750188,41.836753607],[-100.306380821,41.834879622],[-100.308745566,41.832738838],[-100.308219979,41.82816551],[-100.311125655,41.820370592],[-100.310630829,41.815997831],[-100.288184939,41.811596818],[-100.28604134,41.813625377],[-100.279031292,41.81449761],[-100.276006747,41.826167578],[-100.277935877,41.829490401],[-100.284043229,41.831350656],[-100.285928875,41.837074713],[-100.29589053,41.840379211],[-100.29743084,41.844169039],[-100.300198202,41.847567596],[-100.299620413,41.850761005],[-100.29834854,41.852204563],[-100.312305924,41.853523908],[-100.315154297,41.855305258],[-100.315107409,41.853852707],[-100.311182512,41.851783639]],[[-100.345274743,41.837296823],[-100.345445795,41.837337701],[-100.345176074,41.837155867],[-100.345274743,41.837296823]],[[-100.364874924,41.844585136],[-100.366511014,41.84133874],[-100.362097084,41.838201231],[-100.360736478,41.836167861],[-100.359097722,41.832659461],[-100.359468315,41.83029578],[-100.353922758,41.828955983],[-100.35279949,41.82694141],[-100.353408888,41.824224946],[-100.348333521,41.822072235],[-100.34782308,41.831704237],[-100.361733661,41.843897249],[-100.364874924,41.844585136]],[[-100.329168238,41.869096978],[-100.327866261,41.870315661],[-100.32941499,41.872253214],[-100.329488818,41.876171738],[-100.331906885,41.881132282],[-100.333927459,41.882194837],[-100.337117566,41.886505475],[-100.338347329,41.889933437],[-100.337302863,41.89233427],[-100.350862408,41.894165739],[-100.364109102,41.893562287],[-100.362113847,41.890115632],[-100.362807398,41.884942204],[-100.361482897,41.880879122],[-100.364392901,41.870056021],[-100.368322577,41.867787625],[-100.366087709,41.866859094],[-100.364014024,41.86333946],[-100.362016785,41.861953842],[-100.343001605,41.861170513],[-100.336168935,41.859428583],[-100.331184327,41.860052555],[-100.329384001,41.863733246],[-100.329168238,41.869096978]],[[-100.372397695,41.868381411],[-100.370664116,41.867706921],[-100.369181597,41.867759307],[-100.372397695,41.868381411]],[[-100.485848113,41.943366587],[-100.482191453,41.943984749],[-100.480039434,41.942624049],[-100.476035598,41.943679882],[-100.472810062,41.948389039],[-100.481249498,41.947011684],[-100.488212157,41.94751447],[-100.488370738,41.945599434],[-100.485848113,41.943366587]]]},"properties":{"flat_pct":76}},{"type":"Feature","geometry":{"type":"Polygon","coordinates":[[[-101.057235323,42.684621707],[-101.055197115,42.685678962],[-101.053008293,42.684985323],[-101.047214735,42.67661182],[-101.04704015,42.672775037],[-101.048373333,42.670418403],[-101.045680776,42.667239583],[-101.039151613,42.665821961],[-101.034660976,42.667110864],[-101.027869389,42.670885363],[-101.023720627,42.671628767],[-101.021505108,42.670335555],[-101.021031048,42.668088926],[-101.022284445,42.666165108],[-101.036572097,42.660320083],[-101.037621194,42.656689347],[-101.033252327,42.653041175],[-101.009711556,42.652273201],[-101.001315947,42.649919145],[-100.996287987,42.646382324],[-100.990738307,42.644385793],[-100.976291258,42.643166166],[-100.972443573,42.645437283],[-100.971431746,42.653881938],[-100.971846893,42.655496352],[-100.978767395,42.659511916],[-100.982531375,42.666627095],[-100.981592514,42.672179448],[-100.984838099,42.677918259],[-100.98541396,42.683699814],[-100.98372909,42.687085345],[-100.98064391024907,42.689428378817816],[-101.013680189,42.691434492],[-101.015721742,42.690873259],[-101.021992702,42.693298111],[-101.029139157,42.692690583],[-101.036041062,42.693552049],[-101.0378688,42.691982326],[-101.041936236,42.691150002],[-101.058339188,42.694056862],[-101.062720251,42.69301106],[-101.070945562,42.693694732],[-101.078660055,42.692761685],[-101.084424823,42.694060538],[-101.085882048,42.69705857],[-101.084722653,42.699040458],[-101.081628805,42.700184667],[-101.077921791,42.698868483],[-101.058005316,42.700059893],[-101.041789025,42.697242701],[-101.037352739,42.699714429],[-101.029020503,42.698706642],[-101.021506393,42.699349907],[-101.015867078,42.697275691],[-101.004220083,42.696300829],[-100.979100492,42.695260198],[-100.97607213,42.696739828],[-100.969065873,42.695459037],[-100.968436992,42.695993118],[-100.971586743,42.698588253],[-100.972030361,42.701076751],[-100.970911675,42.702723635],[-100.966013026,42.7051073],[-100.963724723,42.708962199],[-100.963958338,42.712349029],[-100.964470324,42.713421584],[-100.973695395,42.71607941],[-100.97730483,42.715889089],[-100.977798162,42.713042028],[-100.9763494,42.707852699],[-100.977662334,42.70492739],[-100.983915866,42.70212542],[-100.988142613,42.701650303],[-101.000389396,42.702893564],[-101.007424201,42.705557853],[-101.014062815,42.706238379],[-101.02187548,42.711620477],[-101.030363613,42.712007018],[-101.041686262,42.710953689],[-101.051771802,42.711995667],[-101.06357308,42.715553491],[-101.066440346,42.714590406],[-101.072191689,42.714691883],[-101.08484668,42.71786671],[-101.08803546,42.720291934],[-101.092684351,42.721953215],[-101.102514374,42.721470109],[-101.115742995,42.722348479],[-101.116910471,42.720560174],[-101.119516082,42.719448892],[-101.126626862,42.719490745],[-101.157698828,42.725446427],[-101.164673683,42.725669622],[-101.170733588,42.724400973],[-101.177146941,42.72540851],[-101.179424071,42.725210499],[-101.179765909,42.720729912],[-101.183123436,42.708519805],[-101.153034722,42.708839658],[-101.145106729,42.706941861],[-101.141561108,42.708131085],[-101.13117137,42.707971946],[-101.128239865,42.706501834],[-101.127789028,42.703450341],[-101.129976437,42.701657305],[-101.140815223,42.702131796],[-101.144727103,42.700890049],[-101.153569067,42.70284704],[-101.18736436,42.702173562],[-101.189099461,42.70319322],[-101.189789323,42.705372876],[-101.185522735,42.724619137],[-101.215808377,42.729012422],[-101.222693045,42.732692467],[-101.229823715,42.7343388],[-101.232435779,42.736623458],[-101.232930306,42.739873063],[-101.233798305,42.741882106],[-101.235910741,42.743425162],[-101.236715861,42.746765376],[-101.244511637,42.74826793],[-101.250180083,42.751497093],[-101.252019874,42.758012478],[-101.251993024,42.7618919],[-101.250752453,42.763786283],[-101.253200708,42.766134675],[-101.255514983,42.770772986],[-101.255424645,42.772746132],[-101.251295444,42.775776915],[-101.2462836,42.775497042],[-101.245440619,42.779552842],[-101.243357824,42.780996707],[-101.236715359,42.780837703],[-101.232448479,42.777632364],[-101.227428718,42.777268473],[-101.223872426,42.783026928],[-101.22149531,42.784078505],[-101.218880828,42.78236856],[-101.217310454,42.77474216],[-101.213599836,42.775919852],[-101.208239404,42.774537697],[-101.201958849,42.774471835],[-101.199205811,42.772120924],[-101.198483514,42.769769373],[-101.194671044,42.769871039],[-101.185393366,42.772088417],[-101.178997507,42.771748208],[-101.175859393,42.772908395],[-101.170321761,42.773095204],[-101.166949572,42.777537786],[-101.154095824,42.784007438],[-101.150190831,42.78374541],[-101.146804309,42.782309906],[-101.142783807,42.782372239],[-101.13660057,42.783618208],[-101.134170781,42.78524115],[-101.12922,42.78564],[-101.08734973864881,42.785335948656964],[-101.062990368,42.780196425],[-101.020261639,42.778847323],[-100.99666,42.781],[-100.99664,42.77752],[-100.90919159841081,42.777742234329814],[-100.893076052,42.772834062],[-100.88043272290828,42.77139600384799],[-100.88062867224211,42.76539248949645],[-100.894222174,42.766935069],[-100.9169201,42.773323562],[-100.911630063,42.765183962],[-100.911933349,42.762182239],[-100.911030287,42.760054368],[-100.908775661,42.759299977],[-100.906494515,42.756276283],[-100.906988583,42.752953927],[-100.902841138,42.748035847],[-100.901151293,42.741881931],[-100.904353639,42.727624176],[-100.905627278,42.726063084],[-100.907754159,42.725433366],[-100.908111962,42.721063794],[-100.91006609,42.719787892],[-100.917037805,42.719324124],[-100.918463718,42.71671265],[-100.906561124,42.715530231],[-100.902564267,42.716596031],[-100.896772339,42.716218966],[-100.889724399,42.717407314],[-100.88204398849025,42.71669874241189],[-100.88215,42.71321],[-100.87226,42.71332],[-100.87227495306702,42.7096814203592],[-100.875041503,42.706748874],[-100.881812153,42.702601836],[-100.888118757,42.700577704],[-100.886311517,42.694912615],[-100.8872818,42.688803196],[-100.883307793,42.686985717],[-100.86802972,42.687357972],[-100.865609719,42.685971732],[-100.86405026,42.67546053],[-100.866754236,42.67193315],[-100.866181972,42.669169929],[-100.867365655,42.667255404],[-100.86594562596001,42.66381836682888],[-100.86686,42.66265],[-100.86697065878913,42.65421663543932],[-100.874942356,42.650856953],[-100.880699223,42.649966254],[-100.881596851,42.646157502],[-100.889795634,42.641658975],[-100.896950432,42.640361363],[-100.899664986,42.642296019],[-100.899595772,42.644591077],[-100.897766603,42.64643354],[-100.891577044,42.647401915],[-100.886776411,42.650114884],[-100.886725777,42.652325083],[-100.884610217,42.655230395],[-100.876873315,42.656589572],[-100.870933567,42.659061387],[-100.874666855,42.667532664],[-100.872812885,42.671079581],[-100.873025493,42.674233669],[-100.870505809,42.6766166],[-100.871260084,42.681472743],[-100.883526841,42.680960226],[-100.887727014,42.681772053],[-100.89264567,42.684614263],[-100.893810379,42.686589467],[-100.892849321,42.691244874],[-100.893508035,42.69409767],[-100.892601521,42.695986879],[-100.894188204,42.699349032],[-100.893602724,42.704211991],[-100.892122937,42.70558693],[-100.884317156,42.708078517],[-100.880347109,42.710516713],[-100.889862569,42.711394581],[-100.896303652,42.710214673],[-100.902254613,42.710582201],[-100.905801753,42.709372472],[-100.922863305,42.711517733],[-100.940065892,42.711937785],[-100.957593867,42.710372772],[-100.957846403,42.706679783],[-100.961332135,42.701084069],[-100.963037468,42.6998778],[-100.960611193,42.695559683],[-100.961655942,42.692005424],[-100.968722051,42.688789988],[-100.971724506,42.686399372],[-100.976506575,42.685020867],[-100.979352482,42.682752154],[-100.979090716,42.680099585],[-100.97584142,42.674068243],[-100.973271894,42.675547757],[-100.966409333,42.67656199],[-100.958421044,42.679365067],[-100.952831472,42.675103216],[-100.938250717,42.672989286],[-100.926161077,42.669226203],[-100.92481226,42.666697557],[-100.921597416,42.663972166],[-100.919255284,42.65796203],[-100.917158959,42.648959976],[-100.915115779,42.644954779],[-100.916106022,42.641555987],[-100.911880799,42.638509475],[-100.901741004,42.636951474],[-100.898317547,42.63766039],[-100.89293542839032,42.63571373067648],[-100.8930025272848,42.629641280724755],[-100.899360957,42.631380675],[-100.901617366,42.630901272],[-100.913225669,42.632363813],[-100.91794765,42.635637969],[-100.920955097,42.635487865],[-100.922985837,42.634025456],[-100.926215755,42.634072955],[-100.923613743,42.632916371],[-100.92218373,42.630354664],[-100.916488874,42.629534418],[-100.908700585,42.630068867],[-100.904722799,42.627331202],[-100.90454317052743,42.62625],[-100.91263,42.62625],[-100.91263208503528,42.62414619939297],[-100.916267685,42.623440642],[-100.923812472,42.624538659],[-100.926670678,42.625961571],[-100.928126027,42.628382522],[-100.93274132,42.63080868],[-100.936225093,42.635610166],[-100.939152069,42.634630171],[-100.943592446,42.6355533],[-100.952045717,42.632458503],[-100.955540506,42.633660977],[-100.959546903,42.633732022],[-100.962906745,42.6369177],[-100.969223345,42.637949738],[-100.969974025,42.6322847],[-100.967539484,42.629964072],[-100.967482485,42.625215359],[-100.969365071,42.623315426],[-100.977987617,42.619881749],[-100.973331481,42.614330984],[-100.97347651,42.612038974],[-100.975200027,42.610521135],[-100.982575898,42.610797382],[-100.987195718,42.609369426],[-100.990232561,42.606802542],[-100.993136078,42.606293454],[-101.003652591,42.606158493],[-101.012905232,42.609685121],[-101.023828256,42.610335301],[-101.030260698,42.611687751],[-101.032266366,42.611456568],[-101.038897641,42.607800679],[-101.049240804,42.608848435],[-101.051137727,42.610627076],[-101.051897054,42.615317086],[-101.049269078,42.626037832],[-101.033712905,42.631527156],[-101.032045704,42.633569052],[-101.03540004,42.637557082],[-101.03521554,42.6416634],[-101.033884503,42.645086817],[-101.04432926,42.654916225],[-101.044445118,42.65689225],[-101.04273145806467,42.660459425748535],[-101.048892715,42.662067133],[-101.052246965,42.665143612],[-101.054512814,42.669141844],[-101.054751074,42.67145002],[-101.053066561,42.674191388],[-101.057715037,42.680522663],[-101.057235323,42.684621707]],[[-101.1064785,42.727630935],[-101.091877531,42.727912881],[-101.085844423,42.725997503],[-101.084195509,42.728551344],[-101.074236522,42.732553001],[-101.071887272,42.739491506],[-101.071808322,42.742431152],[-101.067217282,42.746336685],[-101.065377105,42.751003281],[-101.057900945,42.759601631],[-101.057499883,42.76491794],[-101.052560423,42.773857253],[-101.063803412,42.77422972],[-101.080207603,42.777737997],[-101.079591353,42.763672702],[-101.080716426,42.761671131],[-101.082927298,42.761051353],[-101.085458643,42.763220221],[-101.086182903,42.777103939],[-101.087722714,42.778878184],[-101.0933052,42.781236642],[-101.097669943,42.781078825],[-101.104637371,42.782429006],[-101.124752947,42.782526569],[-101.134477076,42.777892279],[-101.141898777,42.776401826],[-101.147698999,42.776313002],[-101.152923945,42.778011253],[-101.163287098,42.772610098],[-101.164975168,42.769373577],[-101.168274378,42.767377325],[-101.183099043,42.765582552],[-101.183208445,42.757899165],[-101.184370892,42.754882209],[-101.186983621,42.752756794],[-101.194241496,42.751690442],[-101.20330794,42.753411742],[-101.213350129,42.751188977],[-101.22003604,42.751738743],[-101.227277873,42.75016888],[-101.223441845,42.747537282],[-101.212870576,42.745018325],[-101.211750517,42.742735698],[-101.212958807,42.73496],[-101.203547671,42.732768629],[-101.185096296,42.730627979],[-101.182609356,42.731439413],[-101.170887806,42.730453739],[-101.16510101,42.731676197],[-101.157049585,42.731413158],[-101.126168544,42.725482019],[-101.121384856,42.725375376],[-101.117880266,42.728479482],[-101.1064785,42.727630935]],[[-101.040691566,42.719296447],[-101.040032933,42.722152882],[-101.03799031,42.723568383],[-101.037499362,42.726426955],[-101.03912934,42.735262249],[-101.037648402,42.7381641],[-101.034675654,42.739989939],[-101.036147528,42.744308235],[-101.034914077,42.74755143],[-101.026816003,42.75099529],[-101.018310577,42.752463287],[-101.012640442,42.752258633],[-101.0123017,42.754524784],[-101.009098936,42.758396244],[-101.00907313400101,42.773519542840184],[-101.045098029,42.773181787],[-101.050997573,42.764985023],[-101.051759742,42.758575194],[-101.05440521,42.753637251],[-101.059043299,42.749513339],[-101.061230008,42.745853727],[-101.060983153,42.742300717],[-101.065726669,42.739271558],[-101.069601669,42.728457777],[-101.079448965,42.723960865],[-101.078841525,42.722419635],[-101.071148497,42.720658527],[-101.062742645,42.721571779],[-101.049510124,42.717731172],[-101.04310709799536,42.71711739100888],[-101.040691566,42.719296447]],[[-101.019611045,42.717509175],[-101.01221122,42.71196084],[-101.006126683,42.711473207],[-100.999360317,42.708866143],[-100.988057073,42.70767177],[-100.982841889,42.708943702],[-100.983959993,42.712543724],[-100.983407556,42.720144976],[-100.976065509,42.722219986],[-100.973076502,42.722047548],[-100.972770241,42.728075057],[-100.970821765,42.729787645],[-100.967897482,42.730138077],[-100.965026517,42.733124794],[-100.964283186,42.734788113],[-100.964851854,42.738565312],[-100.964000522,42.740171916],[-100.957668293,42.743433538],[-100.956949297,42.750243979],[-100.955218925,42.751389826],[-100.950759947,42.751716496],[-100.949506485,42.752793121],[-100.954325751,42.753999072],[-100.957621649,42.756262807],[-100.958757607,42.758307448],[-100.958867858,42.763937443],[-100.956563562,42.768590472],[-100.945888126,42.773870217],[-100.962123401,42.774498667],[-100.982839787,42.773301061],[-100.986960335,42.774466955],[-100.997244578,42.774753124],[-100.999293891,42.775673066],[-101.003065616,42.774685337],[-101.003066806,42.757591513],[-101.005936134,42.752382704],[-101.006281059,42.748620369],[-101.009911723,42.746215108],[-101.017908292,42.746459833],[-101.029693286,42.743595045],[-101.028441293,42.740772182],[-101.028850311,42.738212444],[-101.030462563,42.735485062],[-101.032572098,42.734225156],[-101.031272558,42.729337205],[-101.031636857,42.724491823],[-101.030831918,42.72182355],[-101.03482853099173,42.71756537808741],[-101.019611045,42.717509175]],[[-100.961882332,42.718989756],[-100.959136338,42.716175439],[-100.955782069,42.716101081],[-100.952031254,42.717224519],[-100.924699719,42.718082245],[-100.92392321,42.719208877],[-100.925150564,42.722070937],[-100.924044208,42.724072508],[-100.914427811,42.725703734],[-100.913798577,42.727783946],[-100.909609104,42.731290485],[-100.908136191,42.737274335],[-100.909086395,42.739342978],[-100.907828634,42.742547908],[-100.908493232,42.745794026],[-100.914221198,42.750721139],[-100.914734636,42.754387496],[-100.916062992,42.755634009],[-100.918377574,42.761556616],[-100.918237358,42.763733195],[-100.923855283,42.773860819],[-100.93347322502609,42.77442976398638],[-100.940056504,42.770995009],[-100.943390712,42.768161513],[-100.952305311,42.764146916],[-100.95214627,42.759693677],[-100.942492312,42.758304518],[-100.939414437,42.755984982],[-100.938856101,42.752642541],[-100.940369605,42.750582962],[-100.948058424,42.746272815],[-100.951614757,42.745317362],[-100.951729939,42.740013493],[-100.957367986,42.736259112],[-100.95685011,42.734014316],[-100.957525044,42.732144063],[-100.963174475,42.726119488],[-100.966533442,42.724195036],[-100.967121788,42.722831175],[-100.96617724903247,42.71984818515309],[-100.961882332,42.718989756]],[[-100.974953714,42.6645219],[-100.967912902,42.660132137],[-100.966250533,42.657872834],[-100.965330537,42.653836771],[-100.96654713,42.646579893],[-100.96606801,42.643739644],[-100.959784436,42.642216275],[-100.957398512,42.639631559],[-100.951734202,42.638629099],[-100.944550517,42.641670905],[-100.939414779,42.640769333],[-100.928976573,42.644682312],[-100.922311567,42.645876555],[-100.925084972,42.656295109],[-100.927230777,42.658723636],[-100.927375309,42.661116235],[-100.930902933,42.66458271],[-100.939482702,42.667092344],[-100.954720658,42.669401604],[-100.959229376,42.6729517],[-100.964876159,42.670738871],[-100.971247181,42.669833185],[-100.976068711,42.666922459],[-100.974953714,42.6645219]],[[-101.026903927,42.644573446],[-101.029355347,42.639236082],[-101.023688231,42.634678823],[-101.022704204,42.632520317],[-101.023129163,42.630561003],[-101.028623112,42.628339848],[-101.03076137,42.626077579],[-101.044135922,42.62200699],[-101.045536343,42.615599172],[-101.04508155,42.614380984],[-101.039757743,42.613815887],[-101.034589236,42.617115273],[-101.030219455,42.61770993],[-101.011173566,42.615543198],[-101.002544739,42.612209729],[-100.992686332,42.612424003],[-100.989995887,42.614790862],[-100.983828202,42.616693023],[-100.985850908,42.620972088],[-100.984381266,42.625131187],[-100.981913353,42.626399156],[-100.977773645,42.626344631],[-100.982652925,42.627335405],[-100.983810504,42.630497302],[-100.980647245,42.633652155],[-100.975997711,42.634939215],[-100.97532006,42.636979978],[-100.992137396,42.638532186],[-100.999283504,42.641098429],[-101.003632654,42.644360217],[-101.010651633,42.646326624],[-101.028060122,42.646858963],[-101.026903927,42.644573446]],[[-101.200175135,42.763740869],[-101.203443096,42.765251817],[-101.204382534,42.768666915],[-101.208772736,42.768472424],[-101.213232847,42.769708917],[-101.21563735,42.768670799],[-101.220486092,42.768951302],[-101.223895916,42.772086328],[-101.227706114,42.771050217],[-101.234352832,42.771829681],[-101.238513766,42.774936289],[-101.240256344,42.774977628],[-101.240621331,42.772808498],[-101.243509917,42.769666286],[-101.24780085,42.769625549],[-101.243923501,42.764137084],[-101.244558407,42.761395624],[-101.246036496,42.759851796],[-101.245202336,42.755334102],[-101.23833323,42.752817981],[-101.234270818,42.752692984],[-101.22976442,42.755784801],[-101.220755327,42.757768883],[-101.214013316,42.75716723],[-101.203566938,42.759527313],[-101.194282945,42.75785507],[-101.189678152,42.758534342],[-101.189395575,42.764697699],[-101.200175135,42.763740869]],[[-101.218665657,42.740707317],[-101.227198192,42.742838055],[-101.22689883,42.739752409],[-101.218892116,42.737606809],[-101.218665657,42.740707317]]]},"properties":{"flat_pct":89}},{"type":"Feature","geometry":{"type":"Polygon","coordinates":[[[-102.98083630180075,42.68154276920252],[-102.97648204314369,42.68200931859677],[-102.97324769063722,42.68071129650984],[-102.97063069006104,42.68336187490815],[-102.96707269311615,42.68458458182812],[-102.95947,42.68449],[-102.9591329733969,42.68796100873344],[-102.95289971934456,42.683991203002265],[-102.94975164546716,42.679086549326435],[-102.94976,42.67735],[-102.95573604719077,42.677335785820475],[-102.95720050307261,42.67967072247124],[-102.95933671921475,42.68095122080177],[-102.96230009267687,42.67899751618008],[-102.965660835313,42.67873528777054],[-102.96816876290374,42.67730621429143],[-102.97919,42.67728],[-102.97944208231452,42.673735958721636],[-102.98438,42.67354],[-102.98409291310927,42.67923543347751],[-102.98083630180075,42.68154276920252]]]},"properties":{"flat_pct":81}},{"type":"Feature","geometry":{"type":"Polygon","coordinates":[[[-101.066137814,42.687137515],[-101.063577387,42.687296053],[-101.061830518,42.685417392],[-101.062246417,42.682369664],[-101.064002608,42.680890518],[-101.066022613,42.680963947],[-101.06760946846687,42.68244943125665],[-101.067571693,42.685344174],[-101.066137814,42.687137515]]]},"properties":{"flat_pct":100}},{"type":"Feature","geometry":{"type":"Polygon","coordinates":[[[-101.080917991,42.686350229],[-101.08011752,42.68850228],[-101.077735388,42.689454314],[-101.070224134,42.68886179],[-101.068275686,42.685865388],[-101.06875167176243,42.68442410928302],[-101.08015796449884,42.68446311468075],[-101.080917991,42.686350229]]]},"properties":{"flat_pct":97}},{"type":"Feature","geometry":{"type":"Polygon","coordinates":[[[-101.160902143,42.685572186],[-101.16694162270129,42.685716838026146],[-101.167018043,42.688440932],[-101.165312048,42.689977702],[-101.163019068,42.689858043],[-101.161094132,42.687584386],[-101.160902143,42.685572186]]]},"properties":{"flat_pct":100}},{"type":"Feature","geometry":{"type":"Polygon","coordinates":[[[-101.151566577,42.68567676],[-101.153558851,42.685335208],[-101.157425687,42.686953635],[-101.158337307,42.688982907],[-101.157491051,42.691560396],[-101.152638685,42.692759987],[-101.150532486,42.691904863],[-101.149675746,42.689238097],[-101.151566577,42.68567676]]]},"properties":{"flat_pct":100}},{"type":"Feature","geometry":{"type":"Polygon","coordinates":[[[-102.93473249968909,42.683196540988675],[-102.93462329597553,42.68995767525432],[-102.93281193553074,42.690947270292156],[-102.92979772111543,42.68952382037168],[-102.928540750081,42.6834016584007],[-102.92722833118613,42.68430925804689],[-102.92828954153778,42.68878938345538],[-102.9329424256836,42.69824695416417],[-102.93255564815628,42.70166179078886],[-102.93365325740523,42.706769286099195],[-102.93234915373415,42.70865909867025],[-102.9300907139008,42.70907325740523],[-102.92793147297772,42.707246398231206],[-102.9265468942571,42.702418362064535],[-102.92683185864743,42.699164546240695],[-102.9199654754192,42.683455547912175],[-102.92007526177883,42.67424318073466],[-102.92301761638414,42.67561894328459],[-102.92416497341242,42.67833256698614],[-102.92552503050354,42.67714487445202],[-102.92359995455384,42.673474075836694],[-102.92404111114757,42.669715284101095],[-102.93008454419132,42.66981616082869],[-102.92967311430725,42.67229974550773],[-102.93263413682246,42.6760879996102],[-102.93473249968909,42.683196540988675]]]},"properties":{"flat_pct":62}},{"type":"Feature","geometry":{"type":"Polygon","coordinates":[[[-103.01821517512444,42.69281337779656],[-103.01391760192993,42.69442914116263],[-103.01360759226307,42.696265417219806],[-103.0077,42.69623],[-103.00771,42.69826],[-103.00555,42.69829],[-103.00388,42.69685],[-103.0041,42.69831],[-103.00085852216922,42.69212482817482],[-103.00364579813989,42.69166193479928],[-103.00619036036021,42.69369064842164],[-103.00715019557666,42.6932230420264],[-103.00909403159697,42.68994205972452],[-103.0145730585385,42.6878072624734],[-103.0155574215952,42.684783819969866],[-103.01749806193912,42.68342307442899],[-103.03104697024835,42.68334375686245],[-103.03340240255157,42.68490953924536],[-103.03363287819485,42.68719404333082],[-103.03218046075465,42.68897240255156],[-103.02053548647415,42.689354256294465],[-103.01821517512444,42.69281337779656]]]},"properties":{"flat_pct":45}},{"type":"Feature","geometry":{"type":"Polygon","coordinates":[[[-101.146930738,42.694045263],[-101.1448499,42.697038108],[-101.142579445,42.698051441],[-101.140370295,42.697541147],[-101.139149142,42.695630774],[-101.140589097,42.68966244],[-101.143659446,42.687892835],[-101.146876105,42.68944533],[-101.146930738,42.694045263]]]},"properties":{"flat_pct":95}},{"type":"Feature","geometry":{"type":"Polygon","coordinates":[[[-102.94816079497575,42.70368120596238],[-102.94662043823675,42.70100872399729],[-102.94825123777002,42.69839045135691],[-102.95850702062846,42.69546985601935],[-102.96141954864308,42.69709123777003],[-102.96174103546977,42.69824487489917],[-102.95875,42.69821],[-102.95872272914724,42.7015870405995],[-102.9501548947216,42.704011929476934],[-102.94816079497575,42.70368120596238]]]},"properties":{"flat_pct":65}},{"type":"Feature","geometry":{"type":"Polygon","coordinates":[[[-103.0399910867076,42.7275200223466],[-103.0386818590904,42.74065990198565],[-103.03796984004644,42.74152136103003],[-103.03243300721482,42.74149510233774],[-103.02511960779404,42.734200897147296],[-103.01787783659822,42.72968922839628],[-103.01701908763549,42.7259426561355],[-103.01264157670948,42.72542020369696],[-103.0129,42.71987],[-103.0179176875174,42.71988047533929],[-103.02148207355606,42.72135213914808],[-103.02333320972458,42.72604598649697],[-103.02882097103478,42.72920915766909],[-103.03347416242838,42.73477900242014],[-103.03440797119976,42.72711590949639],[-103.0399910867076,42.7275200223466]]]},"properties":{"flat_pct":58}},{"type":"Feature","geometry":{"type":"Polygon","coordinates":[[[-102.9371267149394,42.74921584493161],[-102.93268059136891,42.74845793702957],[-102.93060541281953,42.74966513982168],[-102.92356201729453,42.74970247559478],[-102.92016684380317,42.75109652033958],[-102.91838161173843,42.75383329609684],[-102.91697617192699,42.75442522506801],[-102.91698,42.75374],[-102.91451,42.75378],[-102.91452657703324,42.74857895582285],[-102.91688246019741,42.74597602932919],[-102.92224801570644,42.74381699230683],[-102.9291449769497,42.74347463892333],[-102.93203294757156,42.742331910645504],[-102.93517108809156,42.742785043708814],[-102.93722174882134,42.74140166503537],[-102.94093648866188,42.74300992567314],[-102.94213982634535,42.74522624303362],[-102.94727662036144,42.746147475988096],[-102.94873959847536,42.748480398405164],[-102.9484155835123,42.750888479761024],[-102.94633729968179,42.75422725477865],[-102.94414726891627,42.755563176232606],[-102.941348632977,42.75426606574519],[-102.94117279554945,42.7511492438897],[-102.9371267149394,42.74921584493161]]]},"properties":{"flat_pct":38}},{"type":"Feature","geometry":{"type":"Polygon","coordinates":[[[-103.00760250219821,42.71749151394372],[-103.00316698904237,42.72090374926344],[-102.999113212897,42.71949188484983],[-102.99869026009651,42.72249447780324],[-102.99609547791327,42.72362001821886],[-102.99344468125828,42.72159621196667],[-102.99297900059014,42.72236189259612],[-102.99299,42.72036],[-102.98808,42.72051],[-102.98807175686473,42.72201437218782],[-102.98311795131814,42.72092981696818],[-102.97710410346227,42.71739556625769],[-102.97450905182792,42.71402232153815],[-102.97141536462895,42.71276032792552],[-102.96502996914762,42.71210448131403],[-102.96132857665039,42.71221236943614],[-102.95911733023452,42.71369489080294],[-102.95627634138883,42.71316580752266],[-102.95760082641215,42.71786322557583],[-102.95661590859358,42.721622475440036],[-102.95448098052854,42.72316150192783],[-102.9531669637132,42.73130326656036],[-102.95552927016003,42.73228459160852],[-102.95674093517806,42.73448098002913],[-102.95887209063235,42.7355952702942],[-102.96057202121007,42.7404866547283],[-102.96293577983738,42.742623869397804],[-102.9692437034107,42.745270431302565],[-102.97204320494762,42.74509097774075],[-102.9755271011142,42.74708475106654],[-102.9779974159916,42.74612496832069],[-102.98173002593087,42.746920178331884],[-102.9888409352879,42.750637009684205],[-102.99134827729988,42.75088386510848],[-102.99335353811881,42.75306119418059],[-102.9978008034832,42.75327408306183],[-102.99771291621951,42.76067729256842],[-102.99348295302114,42.75963407650527],[-102.99192515910235,42.76100072006896],[-102.9890653392136,42.76118067413956],[-102.98322140961358,42.75428028144475],[-102.98100751678747,42.754197897441756],[-102.97851512427457,42.752299558998814],[-102.9753601733616,42.75335497972973],[-102.97051654447952,42.75114806900618],[-102.96816421614116,42.751278976611296],[-102.96911333792322,42.75685296199697],[-102.97187435925747,42.76175405911944],[-102.9719013655207,42.76587385570538],[-102.97050984053122,42.77019070533208],[-102.97709069842989,42.77308398447697],[-102.9784738852845,42.774916707059326],[-102.97737722071774,42.778064567451],[-102.973668136355,42.77843331604453],[-102.97325729936429,42.78118990651533],[-102.97696199201829,42.78277912812638],[-102.97817607714009,42.784451123488275],[-102.97732515224143,42.787705966196135],[-102.97477669635792,42.78904634696803],[-102.97623579876692,42.79530018879856],[-102.97884644462495,42.79736362187427],[-102.97873147124176,42.79988440269768],[-102.9738084213325,42.80234729167563],[-102.97069785657196,42.80058681938678],[-102.96850437102776,42.788491885949476],[-102.96927650158108,42.78598766415271],[-102.96718843103136,42.783158384510656],[-102.9675877266223,42.77915075208483],[-102.96582279607843,42.77626454127875],[-102.96588435236238,42.77422565272019],[-102.96425794970116,42.77223679125573],[-102.9642634675514,42.768527581144944],[-102.96089745742609,42.77184014859223],[-102.96032619916707,42.77594828240043],[-102.96108744029651,42.779059102583176],[-102.95921100287707,42.78598075597847],[-102.95722987423329,42.78936703685121],[-102.95707574857556,42.79298732953268],[-102.95453430664203,42.79571987201432],[-102.94973459016343,42.79792418856854],[-102.94643746254833,42.798898999758855],[-102.94451733405337,42.79826739988366],[-102.94336100024114,42.79597746254833],[-102.94418461264053,42.793834161226954],[-102.94803641833275,42.79134846572887],[-102.95131536531734,42.790478138622575],[-102.95108703092559,42.78819263595605],[-102.953513386698,42.78391912186066],[-102.9548317923114,42.77836160078287],[-102.95437108529627,42.77419931171202],[-102.9555436084841,42.76872001196902],[-102.95960806814722,42.7640189954076],[-102.96490692787667,42.76184681299016],[-102.96242649443192,42.75608222820416],[-102.96271301508959,42.753806168723806],[-102.96087830048702,42.74826651814712],[-102.95615469840394,42.744701972367245],[-102.95426355828465,42.740793967568045],[-102.95071918314882,42.736799452826006],[-102.94402229751167,42.73746719779708],[-102.94398,42.73488],[-102.94106846366154,42.73468114889431],[-102.94248214407607,42.73191845719547],[-102.9466520493846,42.731020423253725],[-102.94801500320398,42.72818373179507],[-102.94872720599095,42.72131683660787],[-102.95103495998455,42.71758184271509],[-102.95029130244909,42.716096416871494],[-102.94448852214528,42.717960502831666],[-102.94060825112466,42.716446451415045],[-102.93288148051928,42.720351124387484],[-102.92862667199114,42.72581905419226],[-102.92429,42.72678],[-102.92255289165611,42.72875656360455],[-102.91886872140887,42.72964405815405],[-102.91560617036582,42.72904186288335],[-102.91451060039618,42.72993174482395],[-102.91451817851897,42.723137957747014],[-102.91863026315023,42.72356627222769],[-102.92056205153342,42.72298080459308],[-102.92066480283003,42.72158702073861],[-102.91914157254381,42.718294824569924],[-102.91955199849798,42.715960019982774],[-102.91640746210406,42.71064541958524],[-102.90982840104687,42.70718071123877],[-102.91009224987378,42.700026923233686],[-102.91288515501573,42.70038340939554],[-102.91438223694637,42.70269253016982],[-102.92183264103464,42.70714332336867],[-102.9266824367214,42.71838554102155],[-102.92867577350056,42.71495800334919],[-102.9317324258149,42.71440621671219],[-102.93704033786692,42.71161738520638],[-102.93804513376097,42.710411347095175],[-102.93647267372354,42.70896352070995],[-102.9363168318298,42.70667271490351],[-102.93925073656696,42.70463137250139],[-102.94674868709889,42.70491097199608],[-102.95365276517175,42.70755079837938],[-102.96033184386948,42.706250270598055],[-102.96845821227869,42.70642503232747],[-102.96845,42.70948],[-102.978612591129,42.709505911757084],[-102.98070282960285,42.7123558781815],[-102.98584601291479,42.71522072429802],[-102.99075746658771,42.716559299453074],[-102.99112444907712,42.71374645615681],[-102.99285794390264,42.71216877681917],[-102.99545303758677,42.71200079167039],[-103.00096805586828,42.71367107385665],[-103.00282472418172,42.71187345090325],[-103.00284,42.71279],[-103.00763,42.71266],[-103.00764,42.71127],[-103.01037512621488,42.71493375728376],[-103.00983051934412,42.716267049267756],[-103.00761,42.71626],[-103.00760250219821,42.71749151394372]],[[-102.94558432005464,42.710825768981394],[-102.94618455512169,42.71149549076454],[-102.94676466160499,42.711206209646384],[-102.94558432005464,42.710825768981394]]]},"properties":{"flat_pct":38}},{"type":"Feature","geometry":{"type":"Polygon","coordinates":[[[-103.00474218546046,42.77353416658537],[-103.00187931988947,42.77180618990552],[-102.99517080904195,42.770272306669476],[-102.99404202146863,42.76827282759908],[-102.99465769333054,42.766060809041946],[-102.99724511882215,42.76491845833793],[-103.0025013142212,42.76582384005226],[-103.00248,42.76692],[-103.00732989586085,42.76683096668304],[-103.00729872241753,42.77310721993518],[-103.00474218546046,42.77353416658537]]]},"properties":{"flat_pct":27}}]}