{"type":"FeatureCollection","attribution":"Derived from USFS MVUM roads + USFS Basic Ownership (public domain); terrain from Mapzen tiles (USGS 3DEP). Heuristic beta \u2014 not a statement of legality. Generated 2026-07-23.","features":[{"type":"Feature","geometry":{"type":"Polygon","coordinates":[[[-82.7310047916,38.5936029328],[-82.732741867,38.5959847606],[-82.7327110946,38.6010962662],[-82.7316001761,38.6031057283],[-82.7293937338,38.6037410946],[-82.727064491,38.6021366123],[-82.726762995,38.5984071224],[-82.7242136377,38.5973937187],[-82.7222058901,38.5941073893],[-82.7172748283,38.5933933973],[-82.715601808,38.5922517841],[-82.7152807579,38.588186138],[-82.7136801014,38.5866540472],[-82.7135105446,38.5846398322],[-82.7151659528,38.5826801014],[-82.7181415623,38.5825187695],[-82.7132297057,38.5793217105],[-82.7133491435,38.5755081508],[-82.7095937707,38.5748606972],[-82.70704894877744,38.57261155050103],[-82.70663,38.57046],[-82.70819,38.56904],[-82.70946,38.56933],[-82.70863,38.56858],[-82.70976904714864,38.56490354614861],[-82.7124748672,38.5692195556],[-82.7149073486,38.5695236735],[-82.7189697541,38.5719287693],[-82.720745938,38.5769468008],[-82.7243045478,38.5774571057],[-82.7290387666,38.5762900128],[-82.7313545829,38.577393605],[-82.7315195277,38.5809639928],[-82.7275956774,38.5826279594],[-82.7265997843,38.58399726],[-82.7286127041,38.5856648911],[-82.7314563991,38.5855203983],[-82.7328942368,38.5869411146],[-82.7322179543,38.5904507468],[-82.729649985,38.5917598319],[-82.7276954167,38.5916289828],[-82.7310047916,38.5936029328]]]},"properties":{"flat_pct":37}},{"type":"Feature","geometry":{"type":"Polygon","coordinates":[[[-82.6500128731,38.605557805],[-82.65169239976848,38.609946001649185],[-82.64937,38.60984],[-82.65065327389993,38.61143925591549],[-82.6500970952,38.6117792774],[-82.6468530556,38.6117233238],[-82.64578069458436,38.610531527089826],[-82.64826,38.60749],[-82.64622,38.60679],[-82.64622406322151,38.60603424080063],[-82.6480385562,38.6051243487],[-82.6500128731,38.605557805]]]},"properties":{"flat_pct":32}},{"type":"Feature","geometry":{"type":"Polygon","coordinates":[[[-82.6412204142,38.6127579266],[-82.6416934179,38.6166250923],[-82.6386823635,38.6220818233],[-82.6358263884,38.6232988773],[-82.6337264083,38.6278301339],[-82.6295633561,38.6287573257],[-82.6273267581,38.6276079956],[-82.6267096857,38.6254249403],[-82.6238751597,38.6244344103],[-82.6223737813,38.6220354486],[-82.6222826851,38.6196105517],[-82.6239786265,38.6179277676],[-82.6128577575,38.6128116367],[-82.6112184154,38.6146514346],[-82.6089230628,38.6147100368],[-82.6069502979,38.6135717473],[-82.6062279134,38.6113922431],[-82.6082761592,38.6087623405],[-82.6122321969,38.6099089371],[-82.6141338237,38.6079664588],[-82.6177582725,38.6080400418],[-82.6272598588,38.6117647577],[-82.6283209793,38.6144072865],[-82.6267488291,38.616906503],[-82.629113658,38.6171851476],[-82.6298120838,38.6121820634],[-82.6316042549,38.6101663377],[-82.6307692539,38.6089491745],[-82.6268540001,38.6092746029],[-82.6253865783,38.6062815491],[-82.62739651648808,38.60310751133992],[-82.62957,38.6032],[-82.62986412070973,38.600522747385746],[-82.6314050473,38.6002063473],[-82.6347748614,38.602778737],[-82.6370517609,38.6075678901],[-82.6390667955,38.6091554103],[-82.6395089548,38.6115272515],[-82.6412204142,38.6127579266]]]},"properties":{"flat_pct":15}},{"type":"Feature","geometry":{"type":"Polygon","coordinates":[[[-82.5816397687,38.6349113599],[-82.5780245024082,38.634814542994754],[-82.58025,38.63449],[-82.5775736519,38.6344118311],[-82.5772118564,38.6308559937],[-82.5798816834,38.6291822709],[-82.5821540063,38.6295118564],[-82.5835277291,38.6313516834],[-82.5831981436,38.6336240063],[-82.5816397687,38.6349113599]]]},"properties":{"flat_pct":10}},{"type":"Feature","geometry":{"type":"Polygon","coordinates":[[[-82.6718112682,38.6484174944],[-82.66991800333021,38.64700513574757],[-82.67325,38.64454],[-82.67506,38.6461],[-82.67490841046818,38.64766786887199],[-82.6718112682,38.6484174944]]]},"properties":{"flat_pct":78}},{"type":"Feature","geometry":{"type":"Polygon","coordinates":[[[-82.38875265422384,38.655823858099765],[-82.3885421453,38.6585205805],[-82.3883768443,38.6587642],[-82.3881884603,38.6589904441],[-82.38789061730422,38.65926846560926],[-82.38639,38.65921],[-82.38669,38.65862],[-82.38493,38.65792],[-82.3841,38.65632],[-82.37937074139172,38.655482112916594],[-82.3794913119,38.6546255151],[-82.3802293111,38.6533682267],[-82.381757765,38.6525331363],[-82.386260138,38.6531120117],[-82.38750599138267,38.65386456107875],[-82.38068,38.65325],[-82.38236,38.65525],[-82.38478,38.65632],[-82.38543,38.65589],[-82.38782,38.65656],[-82.38843,38.65867],[-82.38875265422384,38.655823858099765]],[[-82.38708,38.65843],[-82.38682,38.65811],[-82.38665,38.65851],[-82.38708,38.65843]],[[-82.38543,38.65596],[-82.38507,38.65627],[-82.38561,38.65618],[-82.38543,38.65596]],[[-82.38688,38.65687],[-82.38707,38.65639],[-82.38652,38.65669],[-82.38688,38.65687]],[[-82.38668,38.6563],[-82.38564,38.65627],[-82.38569,38.65703],[-82.38668,38.6563]]]},"properties":{"flat_pct":19}},{"type":"Feature","geometry":{"type":"Polygon","coordinates":[[[-82.5980322025,38.6627673995],[-82.5954690063,38.6628720235],[-82.5935626005,38.6608622025],[-82.59325554704134,38.65903284920503],[-82.5943,38.65916],[-82.593356499,38.6585753706],[-82.5948277975,38.6568126005],[-82.5980891102,38.6562253385],[-82.59973231632003,38.65705448812639],[-82.59871,38.65787],[-82.6002129708,38.6576641357],[-82.6003337315,38.6604899369],[-82.5980322025,38.6627673995]]]},"properties":{"flat_pct":15}},{"type":"Feature","geometry":{"type":"Polygon","coordinates":[[[-82.62361,38.66156],[-82.62902,38.6618],[-82.6294,38.65821],[-82.62746259323424,38.65649082985842],[-82.6323858797,38.6551500931],[-82.6348927693,38.6569474141],[-82.6340803203,38.6604280466],[-82.6297078735,38.6620716234],[-82.6284728052,38.6646676907],[-82.6243705987,38.6669829443],[-82.620483899,38.6671063095],[-82.6190762212,38.6703708364],[-82.613644333,38.6719893101],[-82.6111219062,38.6707098183],[-82.6109045183,38.6676328716],[-82.6121876583,38.6658578196],[-82.6143126756,38.6652180536],[-82.61529806797569,38.66240555734856],[-82.61942,38.6631],[-82.61960602747433,38.66103625770664],[-82.6221778745,38.6612040942],[-82.62507,38.65796],[-82.62361,38.66156]]]},"properties":{"flat_pct":13}},{"type":"Feature","geometry":{"type":"Polygon","coordinates":[[[-82.7114616973,38.7114451752],[-82.709626601,38.7100651392],[-82.7093048248,38.7077916973],[-82.7104389874,38.7061185305],[-82.71316769394943,38.70505439753162],[-82.71341,38.70613],[-82.71432,38.70618],[-82.71398799713116,38.71097412142619],[-82.7114616973,38.7114451752]]]},"properties":{"flat_pct":56}},{"type":"Feature","geometry":{"type":"Polygon","coordinates":[[[-82.5811104727,38.7264998815],[-82.5819293458,38.7240687567],[-82.5846200954,38.7231972049],[-82.5886084529,38.7245528989],[-82.59150322269294,38.72881694265967],[-82.58849,38.72862],[-82.58866,38.72711],[-82.5838,38.72681],[-82.58190379862326,38.72819911942104],[-82.5811104727,38.7264998815]]]},"properties":{"flat_pct":23}},{"type":"Feature","geometry":{"type":"Polygon","coordinates":[[[-82.7314661347,38.7408786316],[-82.7280125399,38.7399580019],[-82.7273603409,38.7380447721],[-82.72791885109652,38.73630580133311],[-82.73013,38.73608],[-82.73311,38.73857],[-82.7314661347,38.7408786316]]]},"properties":{"flat_pct":50}},{"type":"Feature","geometry":{"type":"Polygon","coordinates":[[[-82.5915612671,38.7386959197],[-82.5864581505,38.7336810661],[-82.58573,38.73081],[-82.58862,38.73049],[-82.589,38.73225],[-82.59181,38.73431],[-82.58887,38.73051],[-82.5918437062624,38.73067274014372],[-82.5969018336,38.7350432458],[-82.5985629905,38.7439050417],[-82.597403233,38.7464847119],[-82.59608575879207,38.74706445360154],[-82.59616,38.74377],[-82.59229407776529,38.74349157228305],[-82.5915612671,38.7386959197]]]},"properties":{"flat_pct":18}},{"type":"Feature","geometry":{"type":"Polygon","coordinates":[[[-82.56042544040614,38.75142700066809],[-82.5663077567,38.7559623464],[-82.5659108746,38.7584967902],[-82.5636999437,38.7597978304],[-82.5605743619,38.7592126673],[-82.5550034037,38.7549630655],[-82.5537831145,38.7498569604],[-82.5554271229,38.7482540523],[-82.5574583601112,38.748184614166576],[-82.55605,38.75118],[-82.56042544040614,38.75142700066809]]]},"properties":{"flat_pct":12}},{"type":"Feature","geometry":{"type":"Polygon","coordinates":[[[-82.5571982134,38.7720706297],[-82.5485552483,38.7631087321],[-82.5474768107,38.7594499527],[-82.5451239615,38.7597832952],[-82.5400565154679,38.75798684530772],[-82.5381523896,38.7567994723],[-82.5365755179,38.7537446872],[-82.5307724778,38.7528257613],[-82.5296507587,38.7508223083],[-82.5302742387,38.7486124778],[-82.5319873715,38.7475396368],[-82.5398055406,38.7468699307],[-82.5426583159,38.7500684735],[-82.5427441713,38.7525759993],[-82.5506180014,38.7541836072],[-82.5529912051,38.7566089032],[-82.5537902197,38.7599952455],[-82.5575146044,38.7620139989],[-82.5602808278,38.7656572586],[-82.5610406297,38.7702717866],[-82.5594919742,38.7719669986],[-82.5571982134,38.7720706297]]]},"properties":{"flat_pct":18}},{"type":"Feature","geometry":{"type":"Polygon","coordinates":[[[-82.6196814385,38.7824359318],[-82.6220648239,38.7833848232],[-82.6228681332,38.7855358165],[-82.6214751768,38.7880348239],[-82.6193241835,38.7888381332],[-82.6172351761,38.7878851768],[-82.6164318668,38.7857341835],[-82.6173848232,38.7836451761],[-82.6196814385,38.7824359318]]]},"properties":{"flat_pct":19}},{"type":"Feature","geometry":{"type":"Polygon","coordinates":[[[-82.4472013203,38.8184013203],[-82.44508,38.81928],[-82.4429586797,38.8184013203],[-82.4420944458,38.8165740514],[-82.44258634285951,38.81416227580383],[-82.44461,38.8143],[-82.44482092098804,38.812842727719],[-82.4472013203,38.8137086797],[-82.44808,38.81583],[-82.4472013203,38.8184013203]]]},"properties":{"flat_pct":20}},{"type":"Feature","geometry":{"type":"Polygon","coordinates":[[[-82.4876747505,38.8145026157],[-82.4911213175,38.8155209142],[-82.4919573174811,38.81690863102658],[-82.48984,38.8176],[-82.49206603207004,38.81775621277684],[-82.4919675857,38.8184871726],[-82.4903074463,38.8204428971],[-82.4860823363,38.8214492545],[-82.4842041853,38.8201387217],[-82.4837980082,38.8178848434],[-82.4857300212,38.8153285517],[-82.4876747505,38.8145026157]],[[-82.48759,38.81694],[-82.48824,38.81749],[-82.48819,38.81699],[-82.48759,38.81694]]]},"properties":{"flat_pct":21}},{"type":"Feature","geometry":{"type":"Polygon","coordinates":[[[-82.29628882564786,39.48522136327214],[-82.29420771365811,39.48777526253243],[-82.29434299397214,39.490980512774954],[-82.29333474674037,39.4926511627464],[-82.28909583324263,39.49549666757912],[-82.28400242053999,39.49554436230297],[-82.2825754818104,39.497241280998594],[-82.28059347019772,39.49763807037176],[-82.27807805669984,39.49518898336899],[-82.27486133124066,39.49606082261657],[-82.27239956573499,39.49414659743073],[-82.2684159263023,39.49385652920631],[-82.2663171483966,39.48961587201545],[-82.26333238187927,39.48866326445743],[-82.26136114271645,39.485360591821824],[-82.25561549745925,39.48291891313049],[-82.2544202143664,39.48007529623205],[-82.25583428839086,39.47793489544284],[-82.25838591963972,39.47767013355947],[-82.26434811549079,39.48006653038731],[-82.26761696805173,39.4835962040389],[-82.27090002509013,39.48532115457004],[-82.27265978049304,39.48805048538976],[-82.27662438911032,39.48932025183232],[-82.28128031254965,39.48788714903649],[-82.28656193994294,39.4899203618039],[-82.28785785676162,39.48915049993427],[-82.28724707196727,39.48702409907865],[-82.2834559328107,39.48265360431092],[-82.28521596200507,39.478817872108934],[-82.28802491603477,39.47848694452672],[-82.29009149605592,39.48051251753085],[-82.29656874835007,39.476220724206854],[-82.3032616719443,39.47600820095108],[-82.30531226713045,39.47704122433957],[-82.30600957346164,39.47940138854251],[-82.30499877566042,39.48127226713045],[-82.29830140079494,39.48211565564846],[-82.29613543134295,39.483759112882126],[-82.29628882564786,39.48522136327214]]]},"properties":{"flat_pct":17}},{"type":"Feature","geometry":{"type":"Polygon","coordinates":[[[-81.35803048459461,39.43240669596666],[-81.36046302714838,39.43261024532214],[-81.36210823622989,39.43596371697169],[-81.35934772791424,39.43890474604582],[-81.35686654349087,39.43836984842395],[-81.35564678503931,39.4363563648462],[-81.35578469357733,39.43419682673297],[-81.35768,39.43424],[-81.35803048459461,39.43240669596666]]]},"properties":{"flat_pct":72}},{"type":"Feature","geometry":{"type":"Polygon","coordinates":[[[-81.1555383386,39.4474357417],[-81.1548499333,39.4496262156],[-81.15277515233448,39.45068986893625],[-81.15294,39.44767],[-81.14949369194241,39.44850159173547],[-81.14879734128671,39.447849724371146],[-81.14934,39.44506],[-81.1474,39.44499],[-81.14769321115985,39.443520906063675],[-81.15496865114355,39.44277653505831],[-81.1555383386,39.4474357417]]]},"properties":{"flat_pct":81}},{"type":"Feature","geometry":{"type":"Polygon","coordinates":[[[-81.1329126673,39.4482757158],[-81.1327140073,39.4523658665],[-81.12957215833524,39.4540573574411],[-81.13075,39.45237],[-81.1279,39.45007],[-81.13182314688099,39.44718495854369],[-81.1329126673,39.4482757158]]]},"properties":{"flat_pct":43}},{"type":"Feature","geometry":{"type":"Polygon","coordinates":[[[-82.18704230003345,39.48472090426522],[-82.18950012703685,39.48923482114407],[-82.18951372405328,39.49268429135602],[-82.18836670053973,39.49439461733123],[-82.18471153447652,39.49607944278336],[-82.180076769328,39.49533813317544],[-82.17758254187223,39.49335469196981],[-82.1731178265116,39.493184749736365],[-82.171324460755,39.49166783637603],[-82.16559818945224,39.49177130920907],[-82.16368483201249,39.48968833078541],[-82.1638695387523,39.48767544845906],[-82.1652892780226,39.48623664609466],[-82.16607,39.48795],[-82.16671810937173,39.48592818054689],[-82.17237765783285,39.48498113025166],[-82.17433932090121,39.48564159179135],[-82.17566663250872,39.487372587149125],[-82.1787761165137,39.486922627266566],[-82.18168675245768,39.48897197463268],[-82.17677014651447,39.484447074030655],[-82.17691809573782,39.4821557449478],[-82.17892593701274,39.48055903135425],[-82.18271793163912,39.48072990751798],[-82.18704230003345,39.48472090426522]]]},"properties":{"flat_pct":22}},{"type":"Feature","geometry":{"type":"Polygon","coordinates":[[[-82.21484809608714,39.49450094976211],[-82.21205981879196,39.494975550152766],[-82.21020757140923,39.49320069790026],[-82.21039,39.49035],[-82.212623591683,39.48867888161156],[-82.21441706303818,39.489054497453374],[-82.21573242859077,39.49058930209975],[-82.21418,39.49061],[-82.21588746350936,39.49115660195588],[-82.21408,39.49165],[-82.21401,39.49246],[-82.21598605864924,39.49250783754644],[-82.21484809608714,39.49450094976211]]]},"properties":{"flat_pct":61}},{"type":"Feature","geometry":{"type":"Polygon","coordinates":[[[-81.2514978433644,39.50663161907127],[-81.25144,39.51043],[-81.24744324827773,39.51155779627806],[-81.2466401934,39.5095540629],[-81.2472995088,39.5076432738],[-81.2495811544,39.5064066481],[-81.2514978433644,39.50663161907127]]]},"properties":{"flat_pct":29}},{"type":"Feature","geometry":{"type":"Polygon","coordinates":[[[-82.22833147597558,39.5216445962062],[-82.225775906754,39.52285653752462],[-82.22334841618789,39.521404977895415],[-82.22280201523051,39.5164328885633],[-82.22422502210459,39.51429841618789],[-82.2264959200053,39.513959151301435],[-82.22834158381211,39.515325022104584],[-82.22833147597558,39.5216445962062]],[[-82.22519,39.51844],[-82.22589,39.51794],[-82.22735,39.51799],[-82.2256,39.51757],[-82.22519,39.51844]],[[-82.22612,39.51956],[-82.22508,39.51949],[-82.22499,39.52023],[-82.22609,39.52031],[-82.22612,39.51956]]]},"properties":{"flat_pct":22}},{"type":"Feature","geometry":{"type":"Polygon","coordinates":[[[-82.26089952759773,39.529267165040686],[-82.25725566479616,39.52758052573921],[-82.25768,39.5235],[-82.25961,39.52361],[-82.25991067258329,39.522293054085154],[-82.26172995271527,39.52253149464288],[-82.26089952759773,39.529267165040686]],[[-82.26118,39.52481],[-82.26007,39.52565],[-82.26122,39.52583],[-82.26118,39.52481]]]},"properties":{"flat_pct":40}},{"type":"Feature","geometry":{"type":"Polygon","coordinates":[[[-81.2045941906,39.5405514889],[-81.20516762840762,39.538942783482455],[-81.21100415926966,39.53994229030899],[-81.21121904145046,39.54170604642063],[-81.20806,39.54159],[-81.2077827085818,39.54670602666578],[-81.205627326,39.5450621341],[-81.2045941906,39.5405514889]]]},"properties":{"flat_pct":100}},{"type":"Feature","geometry":{"type":"Polygon","coordinates":[[[-82.05583517994687,39.54773261845923],[-82.06214857203223,39.54643848774601],[-82.06392975533385,39.54790330292146],[-82.06416886455786,39.55010709489053],[-82.06330603996211,39.55151801617341],[-82.05474321148877,39.551059829737554],[-82.05583517994687,39.54773261845923]],[[-82.06288,39.54723],[-82.06235,39.54731],[-82.06305,39.54757],[-82.06288,39.54723]],[[-82.06394,39.55025],[-82.06313,39.54905],[-82.06294,39.55049],[-82.06394,39.55025]]]},"properties":{"flat_pct":44}},{"type":"Feature","geometry":{"type":"Polygon","coordinates":[[[-81.1254089512,39.6070997655],[-81.1254876383,39.609143183],[-81.12428856188497,39.6107269326859],[-81.12431,39.60799],[-81.11966283235407,39.61020326866279],[-81.119190855,39.6094048394],[-81.11910693724671,39.60565742063727],[-81.1205704502,39.6044187655],[-81.1231301065,39.6045892961],[-81.1254089512,39.6070997655]]]},"properties":{"flat_pct":17}},{"type":"Feature","geometry":{"type":"Polygon","coordinates":[[[-82.25037289755416,39.61092432060644],[-82.24753902752424,39.61155082171276],[-82.2454557946645,39.61005380409859],[-82.24529141599353,39.60749374540052],[-82.24717678834834,39.605039954348584],[-82.24945921836937,39.604789772139476],[-82.25125004565142,39.60622678834834],[-82.25149978458265,39.60683900039946],[-82.24895,39.60622],[-82.24902,39.60815],[-82.25161166544999,39.60785096167885],[-82.25037289755416,39.61092432060644]]]},"properties":{"flat_pct":65}},{"type":"Feature","geometry":{"type":"Polygon","coordinates":[[[-82.24457968522174,39.609776542313924],[-82.24369608630197,39.61194654150268],[-82.24152175855141,39.61281943460233],[-82.24123,39.61141],[-82.23755056539767,39.609741758551415],[-82.23885740673718,39.60714177585062],[-82.24095205775652,39.60620128925006],[-82.24309822414938,39.60701740673718],[-82.24457968522174,39.609776542313924]]]},"properties":{"flat_pct":58}},{"type":"Feature","geometry":{"type":"Polygon","coordinates":[[[-82.27765975271771,39.625521482048406],[-82.27651179999977,39.634661147258015],[-82.27600176248465,39.635284904882155],[-82.27186,39.63437],[-82.27182064035611,39.63520812888766],[-82.27065151300586,39.631065266709506],[-82.27148153785193,39.62623828250127],[-82.26945436294288,39.620501736273035],[-82.26925037008736,39.61565420875778],[-82.27056645533197,39.61237000667936],[-82.26890103605339,39.605300977725896],[-82.27495143611581,39.60562011970721],[-82.27657350374258,39.61182267959274],[-82.27543114077929,39.61990976745044],[-82.27765975271771,39.625521482048406]]]},"properties":{"flat_pct":19}},{"type":"Feature","geometry":{"type":"Polygon","coordinates":[[[-81.1882032067,39.6335854156],[-81.1866309409,39.6303695],[-81.1874359937,39.6288216109],[-81.18943620129171,39.627437700928034],[-81.19213,39.63061],[-81.19023784933698,39.63384568355605],[-81.1882032067,39.6335854156]],[[-81.18873,39.62875],[-81.1887,39.62837],[-81.1882,39.62837],[-81.18873,39.62875]]]},"properties":{"flat_pct":53}}]}