{"type":"FeatureCollection","attribution":"Derived from USFS MVUM roads + USFS Basic Ownership (public domain); terrain from Mapzen tiles (USGS 3DEP). Heuristic beta \u2014 not a statement of legality. Generated 2026-07-23.","features":[{"type":"Feature","geometry":{"type":"Polygon","coordinates":[[[-73.0910031899,42.7926003415],[-73.0879079499,42.7883224831],[-73.0841516669,42.7973027031],[-73.07800944942258,42.80113831268824],[-73.07798495052313,42.79372127087905],[-73.080526178,42.7910071184],[-73.08349021,42.7821527401],[-73.08512,42.78127],[-73.08458,42.77996],[-73.08648,42.77979],[-73.08682,42.77874],[-73.09057409344464,42.778833269402355],[-73.0901622298,42.7820310437],[-73.0935412547,42.7860395962],[-73.093738029144,42.78675039379267],[-73.09161,42.78658],[-73.0910031899,42.7926003415]]]},"properties":{"flat_pct":44}},{"type":"Feature","geometry":{"type":"Polygon","coordinates":[[[-73.101442616,42.7910311268],[-73.1017562733,42.7938420617],[-73.099593325,42.7956645299],[-73.09276539801672,42.79313232835793],[-73.09693,42.79296],[-73.09717225849602,42.78817135706206],[-73.101442616,42.7910311268]]]},"properties":{"flat_pct":10}},{"type":"Feature","geometry":{"type":"Polygon","coordinates":[[[-73.0226600911,42.8347771605],[-73.04234,42.8353],[-73.04229,42.83675],[-73.04532625916019,42.83683988925146],[-73.0455765767,42.83878361],[-73.042905255,42.8411582503],[-73.0211226821,42.840623679],[-73.0159701603,42.8380230323],[-73.0126816137,42.8375873745],[-73.0105169015,42.8356323176],[-73.009158128,42.8325942594],[-73.004133407,42.8309070795],[-73.00129804535548,42.8290438733014],[-73.0014,42.82776],[-73.00275,42.82777],[-73.00194,42.82615],[-73.00314,42.82562],[-73.00639,42.82804],[-73.01313030520829,42.82789895837119],[-73.0155014532,42.832024888],[-73.0178475821,42.8322440485],[-73.0226600911,42.8347771605]]]},"properties":{"flat_pct":59}},{"type":"Feature","geometry":{"type":"Polygon","coordinates":[[[-73.0987757241,42.8594023235],[-73.0978154633,42.8622777743],[-73.0905229246,42.8667371844],[-73.0896630715,42.8710276837],[-73.0871683377,42.8727961082],[-73.08728114524727,42.87557192009467],[-73.08407,42.87417],[-73.08323,42.87281],[-73.08161,42.87312],[-73.08173,42.86967],[-73.0805368073,42.8696414707],[-73.0832166283,42.8679641564],[-73.0855255771,42.863272307],[-73.0903287201,42.8593874995],[-73.0898970052,42.856905105],[-73.0906671324,42.8550953622],[-73.0895394948,42.8533760387],[-73.0895355043,42.84903672],[-73.092950796,42.846169005],[-73.1005085961,42.8426339136],[-73.1028631756,42.8442009782],[-73.1028683432,42.8470293539],[-73.0991209759,42.8503948179],[-73.0958467335,42.8514825122],[-73.0977637712,42.8542016898],[-73.0972951052,42.8573979935],[-73.0987757241,42.8594023235]],[[-73.09046,42.854],[-73.0912,42.85458],[-73.09121,42.85401],[-73.09046,42.854]],[[-73.0852,42.8714],[-73.08424,42.87184],[-73.08486,42.87202],[-73.0852,42.8714]],[[-73.09346,42.84751],[-73.09598,42.8481],[-73.09601,42.8477],[-73.09346,42.84751]]]},"properties":{"flat_pct":66}},{"type":"Feature","geometry":{"type":"Polygon","coordinates":[[[-73.0850337457,42.8772539399],[-73.08348975029529,42.87708529714062],[-73.08356,42.8761],[-73.08706463720672,42.875949952541234],[-73.0850337457,42.8772539399]]]},"properties":{}},{"type":"Feature","geometry":{"type":"Polygon","coordinates":[[[-73.0246341577,42.8965928651],[-73.0243059996,42.8988705606],[-73.0214243387,42.9020118631],[-73.0178354255,42.9029712166],[-73.0155491985,42.9013060134],[-73.0155270676,42.8987407783],[-73.0177400669,42.8969911944],[-73.0182082305,42.8919965223],[-73.0164922750219,42.89000466430898],[-73.01685,42.88376],[-73.01414659396298,42.8836726652969],[-73.0133816096,42.8808205693],[-73.0168029238,42.875216758],[-73.0169593654,42.8675546184],[-73.0193881919,42.8656531294],[-73.0220286119,42.8666669921],[-73.023606097,42.8708720494],[-73.0229724216,42.8761486294],[-73.0197795942,42.881592675],[-73.0224419948,42.8841366044],[-73.022667346,42.8867513733],[-73.02520985574765,42.888096670997875],[-73.0237157719,42.894613904],[-73.0246341577,42.8965928651]]]},"properties":{"flat_pct":74}},{"type":"Feature","geometry":{"type":"Polygon","coordinates":[[[-73.1180020024,42.8828529735],[-73.1189651433,42.8852306363],[-73.117967228,42.8872985442],[-73.1152293637,42.8881351433],[-73.1131614558,42.887137228],[-73.1124048567,42.8849693637],[-73.113402772,42.8829014558],[-73.1158462393,42.8820625539],[-73.1180020024,42.8828529735]],[[-73.11518,42.886],[-73.11637,42.88751],[-73.11716,42.8873],[-73.11596,42.88572],[-73.11518,42.886]]]},"properties":{"flat_pct":15}},{"type":"Feature","geometry":{"type":"Polygon","coordinates":[[[-73.05951,42.8943],[-73.06036,42.89537],[-73.06145,42.89519],[-73.06039,42.89604],[-73.05899,42.89489],[-73.05951,42.8943]]]},"properties":{}},{"type":"Feature","geometry":{"type":"Polygon","coordinates":[[[-73.0529139779,42.9010385729],[-73.049826245,42.899782546],[-73.04934478698053,42.89853193322415],[-73.05161,42.89818],[-73.05165,42.89707],[-73.04943678298082,42.8972386260586],[-73.0498050383,42.896449192],[-73.0533660221,42.8944614271],[-73.0559723181,42.8951708554],[-73.0569867661,42.8925415836],[-73.05960585366425,42.891886268631936],[-73.05766,42.89445],[-73.05861,42.8949],[-73.05639,42.89484],[-73.05896,42.89491],[-73.05667,42.89595],[-73.05632039935048,42.89926200615342],[-73.0529139779,42.9010385729]],[[-73.05174,42.89697],[-73.05208,42.89809],[-73.05352,42.89788],[-73.05445,42.89707],[-73.05174,42.89697]]]},"properties":{"flat_pct":50}},{"type":"Feature","geometry":{"type":"Polygon","coordinates":[[[-73.0660264466,42.9072303508],[-73.0626222819,42.9083196341],[-73.0603871965,42.9050509515],[-73.0615544068,42.9009169103],[-73.06004001293816,42.899298061146276],[-73.06403,42.89903],[-73.06414,42.8956],[-73.06552381439484,42.895555788677484],[-73.0675895104,42.8992533764],[-73.0660264466,42.9072303508]]]},"properties":{"flat_pct":40}},{"type":"Feature","geometry":{"type":"Polygon","coordinates":[[[-73.0863515119,43.0136652319],[-73.0864049076,43.0110649684],[-73.0820600482,43.0138530724],[-73.0780103666,43.0143256433],[-73.0727604779,43.0224269049],[-73.0704645871,43.0223958658],[-73.0688630951,43.0207504779],[-73.0688941342,43.0184545871],[-73.0740683037,43.0093194636],[-73.0799287806,43.0081441352],[-73.0870645977,43.0035975309],[-73.0900811603,43.0043833929],[-73.0912178061,43.0016512756],[-73.0933577886,42.9996139762],[-73.0928241003,42.9977132044],[-73.0939299379,42.992097925],[-73.0955269251,42.9908587948],[-73.0978163229,42.9910341099],[-73.0993889332,42.9930608851],[-73.0991784526,42.9977312319],[-73.10015765850943,43.00026],[-73.09703,43.00026],[-73.09374,43.00328],[-73.09072,43.00974],[-73.08943,43.00956],[-73.08944,43.01386],[-73.0879841833307,43.016464066436626],[-73.0863515119,43.0136652319]]]},"properties":{"flat_pct":34}},{"type":"Feature","geometry":{"type":"Polygon","coordinates":[[[-73.0583229929,43.0535916378],[-73.0558286709,43.0561515662],[-73.0522053167,43.0543945445],[-73.05143028581737,43.052682966055826],[-73.05328,43.05186],[-73.05359,43.04638],[-73.05072852955439,43.046308039944414],[-73.05065,43.0456404326],[-73.0514824853,43.0435659027],[-73.0560609273,43.0401975025],[-73.0574878453,43.034514467],[-73.0563247076,43.0289246696],[-73.0574107995,43.0272199068],[-73.05933185,43.0265911168],[-73.0619333627,43.0282485215],[-73.0636592297,43.0348079794],[-73.0618360138,43.0422040757],[-73.0574500097,43.0466239383],[-73.0583229929,43.0535916378]]]},"properties":{"flat_pct":70}},{"type":"Feature","geometry":{"type":"Polygon","coordinates":[[[-73.0425235078577,43.05317363344809],[-73.0399244694,43.064238401],[-73.0344309783,43.0703351926],[-73.0287788594,43.0728936239],[-73.0226516891,43.0732219678],[-73.0202646154,43.0757416567],[-73.0191131009,43.0799733934],[-73.016907453,43.0806115118],[-73.0150914866,43.0797237742],[-73.0142402497,43.0775912935],[-73.0149196075,43.0726783663],[-73.0189126241,43.0684651751],[-73.0216866767,43.0670752397],[-73.0277785797,43.0669377716],[-73.0305160331,43.0657522638],[-73.0346066833,43.0613456343],[-73.0353071752,43.0532897464],[-73.0379522288,43.0497508806],[-73.04081620712414,43.04957247881847],[-73.04011,43.05307],[-73.0425235078577,43.05317363344809]]]},"properties":{"flat_pct":51}},{"type":"Feature","geometry":{"type":"Polygon","coordinates":[[[-73.04216214864417,43.28785297744981],[-73.04031469424525,43.286073136690355],[-73.04051851709417,43.28351591610321],[-73.04149,43.28354],[-73.0412,43.28485],[-73.04394,43.284],[-73.04406,43.28273],[-73.04607,43.28154],[-73.04491627649789,43.28742507011334],[-73.04216214864417,43.28785297744981]]]},"properties":{"flat_pct":43}},{"type":"Feature","geometry":{"type":"Polygon","coordinates":[[[-73.05518889250857,43.85115139110286],[-73.055221843211,43.84860013084937],[-73.05704,43.84851],[-73.05937,43.8507],[-73.05751,43.85084],[-73.05723035319294,43.85282660039526],[-73.05518889250857,43.85115139110286]]]},"properties":{"flat_pct":33}},{"type":"Feature","geometry":{"type":"Polygon","coordinates":[[[-73.03463464529887,43.84672031629052],[-73.03300831014185,43.85612886619419],[-73.03145974117304,43.85798754293662],[-73.03106,43.85652],[-73.02701,43.8564],[-73.02646,43.85355],[-73.02833,43.85331],[-73.02777185200755,43.85079586435262],[-73.0284476666569,43.84889623984947],[-73.0273145608302,43.848185763430045],[-73.02894,43.8477],[-73.02873,43.84638],[-73.02981,43.84547],[-73.03002,43.84643],[-73.03252,43.84542],[-73.03251124242205,43.844276837244145],[-73.03463464529887,43.84672031629052]]]},"properties":{"flat_pct":54}},{"type":"Feature","geometry":{"type":"Polygon","coordinates":[[[-73.0273852252857,43.862090482379436],[-73.0253641462904,43.86205805501084],[-73.02382240280481,43.86075082937457],[-73.0234599141386,43.85876225857967],[-73.02454557720436,43.8569122520317],[-73.02712,43.85698],[-73.02753,43.85909],[-73.03111769544284,43.85918264002317],[-73.0273852252857,43.862090482379436]]]},"properties":{"flat_pct":80}},{"type":"Feature","geometry":{"type":"Polygon","coordinates":[[[-73.04534506395359,43.891587560954406],[-73.04432390077731,43.89476071773982],[-73.04100150394052,43.89503160051199],[-73.0332676125588,43.88516345067439],[-73.03829,43.88533],[-73.03861,43.88666],[-73.04149143052163,43.88635346483812],[-73.044167209969,43.88831918912146],[-73.04534506395359,43.891587560954406]]]},"properties":{"flat_pct":52}},{"type":"Feature","geometry":{"type":"Polygon","coordinates":[[[-73.04084389085816,43.91211964564584],[-73.04352137691794,43.913031130261935],[-73.0442510367117,43.91576377227856],[-73.03930758051625,43.92050406425747],[-73.03295506786911,43.92206739187096],[-73.03056939605854,43.92111065721137],[-73.02701292959946,43.922990943630644],[-73.02446285595175,43.92190562422274],[-73.01991631747563,43.92390926690916],[-73.01725294862148,43.923267041248735],[-73.01569925823573,43.921085102585714],[-73.0157593641773,43.91878978883495],[-73.01742489741429,43.917209258235715],[-73.02342718214216,43.91599232233838],[-73.02588632063906,43.91442212536825],[-73.03090619918748,43.91394780048938],[-73.03439703153381,43.91499939149634],[-73.04084389085816,43.91211964564584]]]},"properties":{"flat_pct":59}},{"type":"Feature","geometry":{"type":"Polygon","coordinates":[[[-73.01830027580809,43.940760414352994],[-73.01851799881578,43.938705941986086],[-73.02050520652678,43.936445903242664],[-73.02280016751925,43.936373570804186],[-73.02447409675733,43.93794520652678],[-73.02482562541377,43.941115984441744],[-73.01830027580809,43.940760414352994]]]},"properties":{"flat_pct":83}},{"type":"Feature","geometry":{"type":"Polygon","coordinates":[[[-73.02877279300483,43.94987598507375],[-73.03044420442828,43.95101273293192],[-73.03126696411087,43.95345493004936],[-73.03053529045559,43.95528683988974],[-73.02820085592252,43.95703930507645],[-73.02763,43.95655],[-73.02845,43.95413],[-73.02986,43.95327],[-73.0286,43.9524],[-73.025,43.95255],[-73.02427610509429,43.95076512528036],[-73.02877279300483,43.94987598507375]]]},"properties":{"flat_pct":65}},{"type":"Feature","geometry":{"type":"Polygon","coordinates":[[[-73.02230416233081,43.95499878736917],[-73.02232693170404,43.952977576495684],[-73.0239262786697,43.95096164850965],[-73.0227,43.9546],[-73.02372,43.95594],[-73.02588,43.95554],[-73.02597,43.95679],[-73.0236552150279,43.95672542865251],[-73.02230416233081,43.95499878736917]]]},"properties":{"flat_pct":75}},{"type":"Feature","geometry":{"type":"Polygon","coordinates":[[[-73.0756384093587,43.98132780926708],[-73.07363555593966,43.98367374978614],[-73.07041839320381,43.98280107450377],[-73.06811712217595,43.97938732124156],[-73.0681347769713,43.97685274214149],[-73.07198,43.97642],[-73.07072,43.97446],[-73.06941,43.97482],[-73.07178378205138,43.973794638522186],[-73.07338178372459,43.974692317878045],[-73.0756384093587,43.98132780926708]],[[-73.07061,43.97663],[-73.07056,43.97773],[-73.07207,43.97766],[-73.07212,43.97643],[-73.07061,43.97663]]]},"properties":{"flat_pct":23}},{"type":"Feature","geometry":{"type":"Polygon","coordinates":[[[-73.02107278769022,44.00468382578083],[-73.02105348318607,44.00776838183856],[-73.01902,44.00775],[-73.01916593381341,44.00328989782766],[-73.02107278769022,44.00468382578083]]]},"properties":{"flat_pct":100}},{"type":"Feature","geometry":{"type":"Polygon","coordinates":[[[-73.06537870820335,44.01410762337892],[-73.06483461256182,44.01977046336414],[-73.06290326401171,44.02101222449922],[-73.06065953663585,44.02052461256183],[-73.05889,44.01239],[-73.0565462239413,44.01262053535004],[-73.05725780817927,44.01077418965463],[-73.0564832840204,44.00902200648427],[-73.05670913629632,44.00392591053538],[-73.06163,44.00268],[-73.06329,44.01177],[-73.06537870820335,44.01410762337892]]]},"properties":{"flat_pct":48}},{"type":"Feature","geometry":{"type":"Polygon","coordinates":[[[-73.0555855368067,44.052235371685754],[-73.05001172078377,44.05341277017944],[-73.04826639433232,44.05192082061043],[-73.04808722982055,44.04963172078378],[-73.04932367293084,44.04803265221911],[-73.05463216700005,44.04528007325201],[-73.06037717096876,44.04527589876691],[-73.0616524637923,44.04718527200252],[-73.0612041012331,44.049437170968766],[-73.0555855368067,44.052235371685754]]]},"properties":{"flat_pct":70}},{"type":"Feature","geometry":{"type":"Polygon","coordinates":[[[-73.03141303220937,44.045201756082164],[-73.03389615313964,44.044906067308105],[-73.03201,44.04517],[-73.03176,44.05038],[-73.03521198855597,44.049884445362274],[-73.03372201046008,44.05202221534867],[-73.03132916843515,44.05326599429571],[-73.02896226297305,44.05318010578263],[-73.02469718924074,44.04957607370055],[-73.0249693194541,44.05251292133429],[-73.02413032359057,44.05435191502118],[-73.02231512577313,44.05524122302355],[-73.02016144012197,44.05464284994836],[-73.02003,44.05008],[-73.01871413449074,44.050062993660624],[-73.01850034570272,44.04803554225246],[-73.01963065094843,44.044734777403534],[-73.02422609987735,44.0432130887862],[-73.02779544820787,44.04391930112131],[-73.03024922279177,44.04648616742862],[-73.03141303220937,44.045201756082164]],[[-73.02159,44.05064],[-73.02056,44.05009],[-73.02217,44.05334],[-73.02159,44.05064]]]},"properties":{"flat_pct":72}},{"type":"Feature","geometry":{"type":"Polygon","coordinates":[[[-73.03368200411727,44.05835787292337],[-73.03594355564067,44.058973821580075],[-73.03276,44.0589],[-73.03212,44.0604],[-73.03057422772578,44.060552164857725],[-73.0323291287499,44.05890114585853],[-73.03368200411727,44.05835787292337]]]},"properties":{}},{"type":"Feature","geometry":{"type":"Polygon","coordinates":[[[-73.03037756774091,44.07079902827834],[-73.02984266297383,44.06242774245349],[-73.03277,44.06199],[-73.03295,44.06663],[-73.03570414719468,44.06658440153652],[-73.0355692585377,44.069775988266954],[-73.03037756774091,44.07079902827834]]]},"properties":{"flat_pct":31}},{"type":"Feature","geometry":{"type":"Polygon","coordinates":[[[-73.0200978814,42.9529209365],[-73.0191297356,42.9565628723],[-73.0197436717,42.9621054566],[-73.0184867087,42.9649256715],[-73.0204393027,42.9670974705],[-73.0206075879,42.9701701449],[-73.014955678,42.9761879268],[-73.0121007908,42.9765994255],[-73.0125551815,42.9792952094],[-73.0159532598,42.9815058631],[-73.0169336993,42.9835356695],[-73.0162987709,42.989087584],[-73.0142515068,42.9914570847],[-73.0125151429,42.998340981],[-73.0147910054,43.0037800303],[-73.0141295002,43.0062586048],[-73.0120881205,43.0073097218],[-73.0101351403,43.0067884922],[-73.0070741443,43.0015170574],[-73.0064739951,42.9976533826],[-73.0103930958,42.984893882],[-73.0069588379,42.9828871028],[-73.0061179984,42.9775143114],[-73.0032304781,42.9721264419],[-73.0051455874,42.9693828498],[-73.0103449076,42.9707281933],[-73.01103201,42.9693534097],[-73.0123199655,42.9684999951],[-73.0108844971,42.9655357986],[-73.0116704407,42.9631183754],[-73.0135091414,42.9614680102],[-73.0129167945,42.9567782064],[-73.0138531536,42.9530859287],[-73.0079967141,42.9503622635],[-73.0014983873,42.9487945546],[-72.9973445232,42.948751705],[-72.9926430231,42.9522110868],[-72.9970037145,42.957764628],[-72.9971894647,42.9678611992],[-72.9900649666,42.9819247808],[-72.9941619069,42.9874364351],[-72.995044037,42.9904222589],[-72.9973073689,42.9910262682],[-72.998979929,42.9943893751],[-73.0020028817,42.9959327562],[-73.0022295735,42.9990090315],[-72.9996234027,43.0006591019],[-72.9948273586,42.9992351686],[-72.9935856236,42.9971490145],[-72.9903802417,42.9956225517],[-72.9877039465,42.9885273149],[-72.9788165496,42.9979252918],[-72.9789868184,42.9993060154],[-72.981549163,43.0021064862],[-72.9830677874,43.0065569128],[-72.9885347587,43.0106541511],[-72.9884483049,43.0144053389],[-72.9869204677,43.0179426371],[-72.9887551699,43.0257566921],[-72.9861836738,43.0286950967],[-72.9934568419,43.0378558296],[-72.9949786981,43.0425975694],[-72.9946467036,43.0447867222],[-72.9963298508,43.0465705817],[-72.9975306716,43.0502100046],[-72.9963048555,43.0536987942],[-72.9925090268,43.0561167668],[-72.9902455275,43.063632176],[-72.9870863651,43.0646958447],[-72.9849466901,43.0624739875],[-72.9855515085,43.057589681],[-72.9872289291,43.0525281557],[-72.9911831784,43.0499301006],[-72.9889425672,43.0472739607],[-72.9878350738,43.0404234364],[-72.9865499691,43.0387404313],[-72.9821890876,43.0381251033],[-72.9739056487,43.0340198447],[-72.9724160928,43.0307111005],[-72.9733145129,43.0283731572],[-72.9761914303,43.0270200765],[-72.9780896972,43.0277146231],[-72.9802457516,43.0305695151],[-72.979826579,43.0283701096],[-72.9819381572,43.0243759279],[-72.98267,43.01769],[-72.98052807945342,43.0176196728443],[-72.9823062831,43.0135675839],[-72.9780365253,43.0099944803],[-72.9761982343,43.0049717419],[-72.9739074557,43.002579541],[-72.9727252878,42.9997486993],[-72.9729860189,42.9961795108],[-72.97955755313785,42.988052481102756],[-72.98498,42.98813],[-72.98535257319907,42.97772173169398],[-72.9910463332,42.9671902696],[-72.9910504299,42.9600339957],[-72.9880713346,42.9561421653],[-72.9848298587,42.9537228271],[-72.9834069611,42.949416491],[-72.9851248649,42.9475113066],[-72.9892351762,42.9472724322],[-72.9956822306,42.9426102834],[-73.0020315676,42.9426483791],[-73.0180971822,42.9469966547],[-73.0195382132,42.9487838979],[-73.0200978814,42.9529209365]],[[-72.98665,42.95432],[-72.98695,42.95405],[-72.98665,42.95402],[-72.98665,42.95432]],[[-73.00855,42.97952],[-73.0089,42.98186],[-73.01166,42.98169],[-73.01107,42.97966],[-73.0097,42.98026],[-73.00855,42.97952]],[[-73.01118,42.96957],[-73.01099,42.97139],[-73.01226,42.97154],[-73.01316,42.97298],[-73.01368,42.96961],[-73.01118,42.96957]]]},"properties":{"flat_pct":77}},{"type":"Feature","geometry":{"type":"Polygon","coordinates":[[[-72.9522473657,43.0501878746],[-72.9495346809,43.0493872018],[-72.9486823204,43.0466483928],[-72.9495457884,43.0423505089],[-72.9531899479,43.0407154512],[-72.9569774825,43.0439703615],[-72.9575748838,43.0461873842],[-72.9564296385,43.0481774825],[-72.9522473657,43.0501878746]]]},"properties":{"flat_pct":80}},{"type":"Feature","geometry":{"type":"Polygon","coordinates":[[[-72.9465495168,43.0584699366],[-72.9451558406,43.0602946954],[-72.9425995685,43.0605100878],[-72.9407402006,43.0586942649],[-72.9406599122,43.0563995685],[-72.9422257351,43.0547202006],[-72.9445204315,43.0546399122],[-72.9462446954,43.0561941594],[-72.9465495168,43.0584699366]]]},"properties":{"flat_pct":76}},{"type":"Feature","geometry":{"type":"Polygon","coordinates":[[[-72.958826882,43.0561730825],[-72.9603508434,43.0585557863],[-72.9592163651,43.0611466732],[-72.955511949,43.0622780535],[-72.9530093917,43.0609822196],[-72.9522769387,43.0588060784],[-72.9532977804,43.0567493917],[-72.958826882,43.0561730825]]]},"properties":{"flat_pct":96}},{"type":"Feature","geometry":{"type":"Polygon","coordinates":[[[-72.93611436462854,43.13781823255446],[-72.9520398254,43.146089125],[-72.9587700698,43.1476679946],[-72.9607282273,43.1498586621],[-72.96038771393123,43.1524012929107],[-72.95761817022512,43.15375941160841],[-72.94918723965198,43.15157127383033],[-72.93759921848817,43.145362529263146],[-72.93788,43.14145],[-72.93146,43.13879],[-72.92758003092621,43.1390935672625],[-72.92859384436785,43.13720361942773],[-72.93041500305527,43.136326583011915],[-72.93611436462854,43.13781823255446]]]},"properties":{"flat_pct":22}},{"type":"Feature","geometry":{"type":"Polygon","coordinates":[[[-73.0083783843,43.1793968904],[-73.0086421593,43.1773879118],[-73.0101229358,43.1760048451],[-73.0124651313,43.1756799438],[-73.01440703878315,43.176954650197985],[-73.01181,43.17824],[-73.01256,43.17921],[-73.01148,43.17963],[-73.01078,43.17851],[-73.00941,43.18094],[-73.0083783843,43.1793968904]]]},"properties":{"flat_pct":64}},{"type":"Feature","geometry":{"type":"Polygon","coordinates":[[[-72.9684783109,43.2098024079],[-72.9669404388,43.2077491494],[-72.9675520134,43.2052577848],[-72.9700908506,43.2038704388],[-72.9725822152,43.2044820134],[-72.9736741333,43.2065018631],[-72.9730179866,43.2087022152],[-72.9704791494,43.2100895612],[-72.9684783109,43.2098024079]]]},"properties":{"flat_pct":32}},{"type":"Feature","geometry":{"type":"Polygon","coordinates":[[[-72.96344223848808,43.237485054665704],[-72.96294453750241,43.24119345893045],[-72.95846334026673,43.24491715505389],[-72.95968716656311,43.246947368565536],[-72.95921198750766,43.250277136570105],[-72.95470128837847,43.252814581397665],[-72.95462665718163,43.25571585866005],[-72.95258750324462,43.25845563279661],[-72.95553650756771,43.262100359356],[-72.95648549672208,43.26486556871757],[-72.95536632186916,43.269248831242045],[-72.9561234464038,43.27003454091243],[-72.9597204961208,43.26996511163551],[-72.96415400394748,43.27468591584421],[-72.96276562600382,43.27952123382367],[-72.96002900923838,43.280944535413745],[-72.95778037349855,43.27970980540498],[-72.95660001636946,43.27611115905557],[-72.95403223144427,43.27622478887747],[-72.95211838383753,43.27457914488754],[-72.9489063624055,43.27435772682858],[-72.94733067548636,43.273138804468],[-72.94758877365929,43.26913095493189],[-72.95046440315087,43.2657186245441],[-72.94571264927058,43.259537225789465],[-72.94521323110811,43.2575785544698],[-72.94875237209135,43.253647414224204],[-72.94841744766042,43.249699817922725],[-72.95254335772456,43.247210839393524],[-72.95286530375257,43.242513814362866],[-72.956932155026,43.23799300260509],[-72.95699497011866,43.23529443759347],[-72.96200353252777,43.229259301423575],[-72.96675126277694,43.22803154361559],[-72.975591545488,43.23264489264526],[-72.97575727353059,43.234935004466664],[-72.97425510735474,43.236671545488],[-72.97196499553333,43.23683727353058],[-72.96612799583303,43.23425600555595],[-72.96344223848808,43.237485054665704]]]},"properties":{"flat_pct":37}},{"type":"Feature","geometry":{"type":"Polygon","coordinates":[[[-72.93694146855039,43.25549540239767],[-72.93899922845118,43.25447672574173],[-72.9413864641692,43.25541588840692],[-72.94225853987764,43.25792358740408],[-72.94131411159309,43.2600164641692],[-72.93916641259592,43.260828539877636],[-72.9370735358308,43.259884111593074],[-72.93620672574174,43.25767077154882],[-72.93694146855039,43.25549540239767]]]},"properties":{"flat_pct":86}},{"type":"Feature","geometry":{"type":"Polygon","coordinates":[[[-72.98794,43.34951],[-72.98691,43.35017],[-72.98572,43.34959],[-72.98657,43.34886],[-72.98794,43.34951]]]},"properties":{}},{"type":"Feature","geometry":{"type":"Polygon","coordinates":[[[-72.94038986276665,43.45124160923064],[-72.94133904349981,43.44882125113661],[-72.94376719080299,43.44787557504728],[-72.9469290720459,43.44804699842394],[-72.94923758012085,43.450681365612915],[-72.94356280919702,43.454014424952724],[-72.94262419988277,43.45392069182276],[-72.94214,43.45133],[-72.94038986276665,43.45124160923064]]]},"properties":{"flat_pct":13}},{"type":"Feature","geometry":{"type":"Polygon","coordinates":[[[-72.96740151364558,43.7840184802805],[-72.9639836346828,43.787773258715596],[-72.96716884329133,43.79741778841829],[-72.96981669966381,43.79986896769203],[-72.9739014674668,43.806495047763185],[-72.97364790557415,43.808777104796924],[-72.97185495223681,43.8102114674668],[-72.96908802197127,43.80962509496461],[-72.96453213297907,43.80281790117185],[-72.96160107499784,43.80101942223919],[-72.96118539101984,43.79666432553501],[-72.95720014029378,43.78651901280708],[-72.95929394554705,43.783549952667215],[-72.96037,43.78657],[-72.96740151364558,43.7840184802805]]]},"properties":{"flat_pct":24}},{"type":"Feature","geometry":{"type":"Polygon","coordinates":[[[-72.95270158337385,43.8377511433094],[-72.95477941783533,43.83925564483341],[-72.95493458665814,43.84181627825533],[-72.9528443551666,43.84395941783533],[-72.95028372174467,43.84411458665814],[-72.9486416719672,43.84250967218473],[-72.94861541334187,43.84021372174467],[-72.9507056448334,43.83807058216467],[-72.95270158337385,43.8377511433094]]]},"properties":{"flat_pct":18}},{"type":"Feature","geometry":{"type":"Polygon","coordinates":[[[-72.95524728644395,43.861227578078044],[-72.9548811086,43.8637666399],[-72.95239209581028,43.865109975615134],[-72.942749605,43.8611971031],[-72.9387017738,43.8620182732],[-72.9326156574,43.8611852112],[-72.92901759611775,43.86472579600546],[-72.92841,43.86318],[-72.9241959037,43.8641470406],[-72.9225313531,43.8615500942],[-72.92340114773673,43.859350190035684],[-72.9307083355,43.855185157],[-72.9384965988,43.8559737839],[-72.9465904508238,43.85270136386861],[-72.94904352660686,43.85410925413714],[-72.94927158644876,43.856839758776324],[-72.95233321645885,43.85821995046599],[-72.95524728644395,43.861227578078044]],[[-72.92792,43.86154],[-72.92731,43.86115],[-72.92673,43.86156],[-72.9273,43.86193],[-72.92792,43.86154]]]},"properties":{"flat_pct":12}},{"type":"Feature","geometry":{"type":"Polygon","coordinates":[[[-73.00281123600192,43.8791199871987],[-73.00022020592807,43.87933807469237],[-72.99842409413449,43.87831101430774],[-72.99553202905051,43.873802584644054],[-72.99617444667624,43.870785606299535],[-72.99965770076106,43.86985989042596],[-73.00247064626996,43.87216037045959],[-73.0043143482713,43.87024838319895],[-73.00476,43.87141],[-73.00595,43.87137],[-73.00786,43.87015],[-73.01182019084756,43.869795368181066],[-73.01176450550277,43.87192110438397],[-73.01055961138988,43.87333251946691],[-73.00281123600192,43.8791199871987]]]},"properties":{"flat_pct":15}},{"type":"Feature","geometry":{"type":"Polygon","coordinates":[[[-72.9924461614885,43.929723043461856],[-72.98982675336708,43.92103975550012],[-72.98987138544547,43.91351263148064],[-72.98831263396674,43.9115576842418],[-72.9879250005134,43.908290217927686],[-72.98245192992147,43.90554808346873],[-72.98107268256877,43.9032781720264],[-72.98137103648033,43.90100153791392],[-72.98319182797361,43.89960268256877],[-72.98520650360955,43.89976667623148],[-72.992411733318,43.90358448229456],[-72.99418733055877,43.909344373281584],[-72.99597182318479,43.911904519014534],[-72.99595454961872,43.92096294946364],[-72.9986258035572,43.93028766310636],[-72.99682212384279,43.93455940539611],[-72.99330055318877,43.938467849060046],[-72.99140867182135,43.93917960514965],[-72.98907215093995,43.93812055318877],[-72.98855435108332,43.93723198689343],[-72.98973,43.93581],[-72.98839405901214,43.9357523894912],[-72.98921597567144,43.93326777054801],[-72.9924461614885,43.929723043461856]]]},"properties":{"flat_pct":31}},{"type":"Feature","geometry":{"type":"Polygon","coordinates":[[[-72.99246336232629,43.94527121310526],[-72.99329968396619,43.94711142449369],[-72.99272034643894,43.94914077917673],[-72.98556,43.94674],[-72.98466004147187,43.943686767899365],[-72.98892798904284,43.94356225438069],[-72.99246336232629,43.94527121310526]]]},"properties":{"flat_pct":67}},{"type":"Feature","geometry":{"type":"Polygon","coordinates":[[[-73.01283,43.95678],[-73.0139,43.95798],[-73.0131,43.95819],[-73.0151382859186,43.95920202881758],[-73.0127282104271,43.961504904051445],[-73.00572970953867,43.96056385780665],[-73.00582,43.95866],[-73.00437,43.95845],[-73.006361010891,43.95477800943664],[-73.01258263675484,43.95542216196733],[-73.01436728135069,43.95646634005458],[-73.01283,43.95678]]]},"properties":{"flat_pct":89}},{"type":"Feature","geometry":{"type":"Polygon","coordinates":[[[-72.99425751057503,44.021208805446214],[-72.99256515624354,44.02392445722666],[-72.99058199511306,44.02436609010372],[-72.98630539440279,44.02128608812667],[-72.98465029444435,44.01750796930393],[-72.986312924731,44.014043423684896],[-72.9861955865376,44.01021677505126],[-72.9814975937573,44.00798960647655],[-72.97212219056232,44.01248121086343],[-72.97018757471477,44.01560259112112],[-72.96342985527644,44.015553622139684],[-72.96789782365894,44.007733605212195],[-72.97469521832731,44.00479015597599],[-72.9766690947898,44.0033691498997],[-72.97808044355632,44.00062678629846],[-72.9743112095521,44.000869005113465],[-72.96819975079126,43.99887358132764],[-72.9629117986539,43.99295099410258],[-72.96348154587767,43.98544383147319],[-72.96086651499816,43.978024834315676],[-72.96090110510922,43.97355622028476],[-72.96282000334736,43.97067999748948],[-72.97153722875292,43.966271737967155],[-72.97255303226515,43.963773755745244],[-72.97961805491066,43.96394178449179],[-72.97598349994261,43.97059878058216],[-72.9667766865081,43.97535619863926],[-72.96952886994677,43.98471894172186],[-72.968807474975,43.990355569850195],[-72.97073819913889,43.99325232066617],[-72.97546963131273,43.994871912766904],[-72.97878220733864,43.99312646315659],[-72.98377386148111,43.99212821088335],[-72.9916251398868,43.99250496109592],[-72.9905618634091,43.996570777138956],[-72.98464408404483,43.99807794364681],[-72.98425811604729,43.99931261247015],[-72.9854977086465,44.00076678361492],[-72.98314,44.00069],[-72.98307,44.00173],[-72.98735515301057,44.00185344062171],[-72.98803124879008,44.00445261510623],[-72.99143661950075,44.00694630963688],[-72.99250989723863,44.01092483057752],[-72.9915,44.02114],[-72.99425751057503,44.021208805446214]]]},"properties":{"flat_pct":53}},{"type":"Feature","geometry":{"type":"Polygon","coordinates":[[[-72.9929829882316,44.01177578672076],[-72.99440210080562,44.009248483954124],[-72.99926468907796,44.00741739086711],[-72.9996959288753,44.00558623995159],[-73.00127405912757,44.00432318146271],[-73.00929264004031,44.0055052720774],[-73.01325964816037,44.00769664330895],[-73.01493721428992,44.00439171739339],[-73.01739955249725,44.003418760709685],[-73.01726,44.00771],[-73.01368,44.00753],[-73.01314,44.01231],[-73.00524576659264,44.01104721834266],[-73.00334269050838,44.012050345796716],[-72.9929829882316,44.01177578672076]]]},"properties":{"flat_pct":69}},{"type":"Feature","geometry":{"type":"Polygon","coordinates":[[[-72.97048460513736,44.01964174220295],[-72.97119915319402,44.0207047062542],[-72.97082,44.02445],[-72.96635700647687,44.02425635771904],[-72.96330959852288,44.01936973887843],[-72.97048460513736,44.01964174220295]]]},"properties":{"flat_pct":14}},{"type":"Feature","geometry":{"type":"Polygon","coordinates":[[[-72.9708838504557,44.02946953296039],[-72.96153285408448,44.03522715340809],[-72.96000032076691,44.035285901342824],[-72.95981,44.03396],[-72.95885577150511,44.034759927726036],[-72.95778284659191,44.033242854084484],[-72.95900106952784,44.029830491675504],[-72.95898,44.03053],[-72.965,44.03049],[-72.96502,44.0291],[-72.97023,44.02931],[-72.97079,44.02506],[-72.97269454023272,44.02517626553747],[-72.9708838504557,44.02946953296039]]]},"properties":{"flat_pct":16}},{"type":"Feature","geometry":{"type":"Polygon","coordinates":[[[-72.98899226156928,44.03735673713783],[-72.99622581572362,44.02788890590297],[-72.99852110964468,44.02794976438319],[-72.99998231759237,44.02934643298134],[-73.00014673030873,44.03163663960899],[-72.99568093131006,44.03877834570616],[-72.99599,44.03556],[-72.99072,44.03537],[-72.99023708574357,44.040868323748114],[-72.98901896710565,44.039377899836325],[-72.98899226156928,44.03735673713783]]]},"properties":{"flat_pct":35}},{"type":"Feature","geometry":{"type":"Polygon","coordinates":[[[-73.01524903024148,44.09342991866401],[-73.01505604445245,44.09641834122258],[-73.01403,44.09518],[-73.00908612195128,44.09439620511808],[-73.01064606143946,44.092246557483634],[-73.0134145337281,44.09188781565565],[-73.01524903024148,44.09342991866401]]]},"properties":{"flat_pct":55}},{"type":"Feature","geometry":{"type":"Polygon","coordinates":[[[-72.94554628773842,44.09668116245349],[-72.93992515373218,44.09460004036202],[-72.93839234377155,44.09244350731546],[-72.95313948050985,44.091450672654005],[-72.95262,44.09298],[-72.95421,44.10063],[-72.95087855642717,44.10102010686397],[-72.94915001054189,44.09697231117689],[-72.94554628773842,44.09668116245349]]]},"properties":{"flat_pct":17}},{"type":"Feature","geometry":{"type":"Polygon","coordinates":[[[-72.9610261748874,44.11314174899398],[-72.96756,44.11154],[-72.96779,44.11234],[-72.97008879205836,44.11191248074525],[-72.96638000766325,44.11422380749134],[-72.96188959816726,44.1146502938727],[-72.9610261748874,44.11314174899398]]]},"properties":{"flat_pct":67}},{"type":"Feature","geometry":{"type":"Polygon","coordinates":[[[-72.96082849209483,44.14079691692805],[-72.95860059615718,44.13831736497086],[-72.95979333046274,44.135472678061284],[-72.96610250108941,44.13465983812075],[-72.96943220332531,44.13257029388542],[-72.9718015026936,44.13230939183499],[-72.97278809678114,44.13847560488209],[-72.96082849209483,44.14079691692805]]]},"properties":{"flat_pct":63}},{"type":"Feature","geometry":{"type":"Polygon","coordinates":[[[-72.93674637856265,42.881614273168665],[-72.93440561530761,42.885883201112435],[-72.93241106468012,42.886211194456656],[-72.93070441286804,42.88524562622155],[-72.93119,42.87938],[-72.93650886546216,42.87949528575386],[-72.93674637856265,42.881614273168665]]]},"properties":{"flat_pct":44}},{"type":"Feature","geometry":{"type":"Polygon","coordinates":[[[-72.8644792867,43.2293045818],[-72.8636109081,43.2320288819],[-72.8614046507,43.2338917745],[-72.8561,43.23376],[-72.85642,43.23005],[-72.86316,43.23028],[-72.86335229398578,43.227027484583196],[-72.8644792867,43.2293045818]]]},"properties":{"flat_pct":100}},{"type":"Feature","geometry":{"type":"Polygon","coordinates":[[[-72.862418785,43.2444309775],[-72.8630372812,43.2419413222],[-72.86528917128676,43.24084332572523],[-72.86534,43.24326],[-72.86434,43.24235],[-72.86324,43.24313],[-72.86489,43.2432],[-72.86742,43.24501],[-72.86717686052602,43.247909663356324],[-72.8636981311,43.2463376372],[-72.862418785,43.2444309775]]]},"properties":{"flat_pct":85}},{"type":"Feature","geometry":{"type":"Polygon","coordinates":[[[-72.8892502733,43.2490260313],[-72.890890288,43.2493241926],[-72.8901863916,43.2464268213],[-72.89116120854493,43.24451664699707],[-72.89342,43.24511],[-72.8931,43.24637],[-72.89401,43.24641],[-72.89395,43.24397],[-72.8963920499,43.2455927949],[-72.896922713,43.2483771478],[-72.8948433988,43.2508500779],[-72.89788521926701,43.254446411994465],[-72.8962795325,43.2583098354],[-72.8920751653,43.2583956576],[-72.8903535793,43.2556724038],[-72.8867706675,43.2543556464],[-72.886367179,43.2512975333],[-72.8892502733,43.2490260313]]]},"properties":{"flat_pct":61}},{"type":"Feature","geometry":{"type":"Polygon","coordinates":[[[-72.9032657645,43.297231094],[-72.9010262921,43.2989586643],[-72.8981993896,43.2981805077],[-72.8959364849,43.2939815298],[-72.8910977036,43.2924179335],[-72.8876021144,43.289703847],[-72.8868710494,43.2878193429],[-72.8875014452,43.2858988188],[-72.890664623,43.2848471512],[-72.9000405553,43.2892824221],[-72.9030877979,43.2939390891],[-72.9032657645,43.297231094]]]},"properties":{"flat_pct":72}},{"type":"Feature","geometry":{"type":"Polygon","coordinates":[[[-72.98083731878032,43.3537543187346],[-72.98130562124443,43.35908874645652],[-72.97874,43.35906],[-72.97864683358573,43.36079797711001],[-72.97532275063669,43.359079384908505],[-72.97463402045169,43.359643431180714],[-72.97499494366723,43.36236692399361],[-72.97405402259065,43.365397516472356],[-72.96931854767121,43.36942305940917],[-72.9661203839843,43.37456996016332],[-72.9634518399736,43.375749136422115],[-72.96019988563208,43.37496880377089],[-72.9569580331,43.3714568885],[-72.9535108201,43.3718276318],[-72.93650066859675,43.36966499930845],[-72.9349670169,43.3735936888],[-72.9325195207,43.3766631765],[-72.9324048599,43.3855684622],[-72.9309064437,43.3882742753],[-72.9265138191,43.3892575582],[-72.9238267218,43.3910231272],[-72.9109674996,43.3929352815],[-72.907810478,43.3947152536],[-72.9057892539,43.3946936893],[-72.9041045026,43.3931336602],[-72.9040163107,43.3908392539],[-72.9083752311,43.3875005068],[-72.9188807033,43.3860610778],[-72.9265693361,43.383245176],[-72.9265081817,43.375044043],[-72.930299802,43.3690690184],[-72.92056333131659,43.369890026627516],[-72.91102223192556,43.36586945933308],[-72.9002353641,43.3633604765],[-72.898120663,43.3609332844],[-72.88892849832484,43.357149497842016],[-72.8753707688,43.3406526316],[-72.8765932956977,43.33451688374368],[-72.874982464,43.3187015649],[-72.87700449899704,43.31464151536821],[-72.8761785316917,43.31038813420484],[-72.8740636715,43.3112449688],[-72.8692187748,43.3108667896],[-72.8635969503,43.3086669815],[-72.857926927,43.3083745829],[-72.8561946517,43.3068674994],[-72.8561425321,43.3043026984],[-72.8583796083,43.3025720263],[-72.8645262952,43.3026912414],[-72.8697869048,43.3048328896],[-72.8734017631,43.3050616939],[-72.8810786151,43.3029912935],[-72.88042324418323,43.29826989244171],[-72.87809493190994,43.29482029663736],[-72.86872456264673,43.289856323890966],[-72.86934,43.28146],[-72.87059288492287,43.281497306747085],[-72.87106809158472,43.28432204387362],[-72.87352622950883,43.285298262310036],[-72.87357,43.28634],[-72.882341424,43.2904097393],[-72.8863298378,43.2964119477],[-72.8862548128,43.2999151757],[-72.8873474391,43.3029839312],[-72.8865842907,43.3060893801],[-72.88225515447928,43.310156180752344],[-72.88309993451355,43.31554982206806],[-72.88120166871381,43.31913216273612],[-72.88260819993839,43.3341760907635],[-72.88160937791318,43.33949163682055],[-72.8862310544895,43.34355845867604],[-72.88805452562538,43.3469476683657],[-72.89411743891355,43.35337139849309],[-72.89955926390394,43.35509515839772],[-72.9036046415,43.3518259885],[-72.9069271704,43.3458408151],[-72.9106184743,43.3454843529],[-72.9150097741,43.3472669793],[-72.9214793335,43.3457148553],[-72.9261721694,43.3405703949],[-72.9286672561,43.3399741875],[-72.9307109969,43.3415246857],[-72.9309111741,43.3438120438],[-72.9260080694,43.3499174064],[-72.9232868652,43.3515559152],[-72.9151720144,43.3534437304],[-72.9108343114,43.3520172398],[-72.9085381644,43.3557463448],[-72.90584207381585,43.35805295496907],[-72.92205594028741,43.36391837185612],[-72.92811727123856,43.36299497666537],[-72.93494459520353,43.36324218947574],[-72.95358363496541,43.36578907346381],[-72.95830841587927,43.36556694597303],[-72.96311655638544,43.36888228104068],[-72.96461954570427,43.365434914901876],[-72.96884958816918,43.36235124591417],[-72.96837075618907,43.35870048513092],[-72.9701357844562,43.35559157881349],[-72.97363744390893,43.35296549236666],[-72.97366825709065,43.34958540913094],[-72.97824614001574,43.34772071628365],[-72.97680351413491,43.34509743461549],[-72.97598107124402,43.3382898356903],[-72.97691612186736,43.336192752413346],[-72.97906016430971,43.33537107124402],[-72.98270057602858,43.33773387764026],[-72.98243304608623,43.342652752179156],[-72.98353663999934,43.34478610002724],[-72.98345,43.34836],[-72.98597,43.34918],[-72.98098,43.34892],[-72.98113,43.35063],[-72.98026,43.35009],[-72.97921,43.35148],[-72.97698,43.35162],[-72.97796,43.3531],[-72.98244,43.35284],[-72.98083731878032,43.3537543187346]]]},"properties":{"flat_pct":52}},{"type":"Feature","geometry":{"type":"Polygon","coordinates":[[[-72.8987855702,43.6536058914],[-72.8966878246,43.6551947682],[-72.8944048789,43.655109409],[-72.89608,43.65419],[-72.89603,43.65263],[-72.89395,43.65397],[-72.89485,43.65227],[-72.89409,43.65124],[-72.89952244226487,43.65164416856942],[-72.8987855702,43.6536058914]]]},"properties":{"flat_pct":60}},{"type":"Feature","geometry":{"type":"Polygon","coordinates":[[[-72.93394541859391,43.70312624117932],[-72.9305975152,43.7005925268],[-72.9292623158,43.696262146],[-72.9299824395,43.6944273817],[-72.93294487435875,43.69227936160142],[-72.93448,43.6948],[-72.93661301209664,43.694085610234296],[-72.93583873694908,43.69735625700046],[-72.9389775946008,43.69810774588072],[-72.93692,43.69935],[-72.93685,43.70048],[-72.93888,43.70157],[-72.93394541859391,43.70312624117932]]]},"properties":{"flat_pct":43}},{"type":"Feature","geometry":{"type":"Polygon","coordinates":[[[-72.9103964069,43.7210777973],[-72.906101794,43.7228376626],[-72.90349685,43.7217358449],[-72.9028467201,43.7195337075],[-72.9039585964,43.7175063055],[-72.9026503949,43.7145413282],[-72.9037846945,43.7122403968],[-72.9065673154,43.7117336855],[-72.9090373100823,43.71372989842033],[-72.90815,43.71406],[-72.9111921968767,43.718553608340784],[-72.9103964069,43.7210777973]]]},"properties":{"flat_pct":60}},{"type":"Feature","geometry":{"type":"Polygon","coordinates":[[[-72.9233454338,43.7423034352],[-72.92676790788262,43.742782668497654],[-72.92237914889762,43.74309840655413],[-72.9233454338,43.7423034352]]]},"properties":{}},{"type":"Feature","geometry":{"type":"Polygon","coordinates":[[[-72.89280651401711,43.7754955390317],[-72.8873184298,43.7704209513],[-72.88682395,43.7684610274],[-72.8879028782,43.7664342093],[-72.889804897,43.7657500043],[-72.8927262852,43.7662291828],[-72.8947975511,43.7679352108],[-72.8953360968,43.7699327923],[-72.8992484129,43.7703805312],[-72.90087542720647,43.771884193447065],[-72.89280651401711,43.7754955390317]]]},"properties":{"flat_pct":18}},{"type":"Feature","geometry":{"type":"Polygon","coordinates":[[[-72.9096770016,43.7884914104],[-72.908651908,43.7902335341],[-72.9043491191,43.7929567953],[-72.8991596657,43.7940593932],[-72.8867872006,43.7912479839],[-72.8817018805,43.7922200157],[-72.8785392495,43.7907031372],[-72.8775217265,43.7883482343],[-72.8794666297,43.7856410125],[-72.882660432,43.7861275475],[-72.8869104108,43.7851306083],[-72.8998284256,43.7878808506],[-72.8947943576,43.7827712071],[-72.89296362717057,43.77573167916055],[-72.89589,43.78013],[-72.89995949636969,43.778601402471665],[-72.9046928518,43.7840651601],[-72.9083794742,43.7852573046],[-72.9096770016,43.7884914104]]]},"properties":{"flat_pct":18}},{"type":"Feature","geometry":{"type":"Polygon","coordinates":[[[-72.914383303,43.8248557155],[-72.9140491098,43.8276683652],[-72.9104651096,43.8290442608],[-72.9072254368,43.8349379781],[-72.9061940809,43.8414221437],[-72.9027637033,43.843424933],[-72.9037421934,43.8478062833],[-72.90207514028697,43.85293161832335],[-72.89725,43.85278],[-72.89931,43.85019],[-72.89934,43.84884],[-72.89614557654811,43.850010110867544],[-72.8973177742,43.8476911264],[-72.8961736702,43.8410081602],[-72.8977688399,43.838186977],[-72.9004781183,43.8377939401],[-72.9004449314,43.8328562377],[-72.904127025,43.8289192128],[-72.9065542166,43.8224054083],[-72.9081228451,43.8211305686],[-72.9101441612,43.8211402316],[-72.914383303,43.8248557155]]]},"properties":{"flat_pct":11}},{"type":"Feature","geometry":{"type":"Polygon","coordinates":[[[-72.9402552739,43.8416520605],[-72.9391096778,43.8447824451],[-72.9371711965,43.8453552471],[-72.9352735502,43.8446944128],[-72.9332090547,43.8464750028],[-72.9296200687,43.846827666],[-72.9277349972,43.8447190547],[-72.9288793956,43.8415882321],[-72.9334563441,43.8407194618],[-72.9355320605,43.8389147261],[-72.9389008211,43.8397980013],[-72.9402552739,43.8416520605]],[[-72.93129,43.84493],[-72.92972,43.84568],[-72.93223,43.84598],[-72.93129,43.84493]]]},"properties":{"flat_pct":14}},{"type":"Feature","geometry":{"type":"Polygon","coordinates":[[[-72.85490435896821,43.84997630381999],[-72.8558913035,43.8469655912],[-72.85757,43.84752],[-72.85833981333712,43.84594920679388],[-72.8610465255,43.8481588853],[-72.86073759887996,43.8506541669401],[-72.85924,43.85233],[-72.85667,43.85061],[-72.85591806150535,43.85197065060937],[-72.85490435896821,43.84997630381999]]]},"properties":{"flat_pct":53}},{"type":"Feature","geometry":{"type":"Polygon","coordinates":[[[-72.8813728674,43.875000907],[-72.880773378,43.8725066068],[-72.88173080877183,43.87048664817152],[-72.88259,43.87068],[-72.882309071,43.8696984825],[-72.8844387004,43.8688401373],[-72.8865515175,43.869739071],[-72.8873926044,43.8721626002],[-72.885810929,43.8752615175],[-72.8813728674,43.875000907]],[[-72.88489,43.87212],[-72.88557,43.87276],[-72.88569,43.87235],[-72.88489,43.87212]]]},"properties":{"flat_pct":32}},{"type":"Feature","geometry":{"type":"Polygon","coordinates":[[[-72.9034695424,43.9308988473],[-72.90202,43.93118],[-72.90235,43.929],[-72.90479630600935,43.928868478171545],[-72.9034695424,43.9308988473]]]},"properties":{}},{"type":"Feature","geometry":{"type":"Polygon","coordinates":[[[-72.90955525450923,43.94219038580225],[-72.9080043871,43.9516009281],[-72.9084642048,43.9566582836],[-72.9045303135,43.9589881093],[-72.9038981117,43.960963998],[-72.8985992525,43.9671851607],[-72.8953767023,43.9680377265],[-72.8934806847,43.9660645243],[-72.8904402211,43.9648017287],[-72.8896184475,43.9629549748],[-72.8903355717,43.9607737341],[-72.8923850252,43.9597384475],[-72.8963431213,43.9600817286],[-72.8991285314,43.9562205432],[-72.8997331595,43.9536963756],[-72.902026024,43.9525911775],[-72.9030539073,43.9462264262],[-72.9022755885,43.9412930298],[-72.9029189506,43.9392522375],[-72.9000728869,43.9371250841],[-72.9011533322,43.933718104],[-72.90448411859435,43.933467414064154],[-72.906061896,43.9345833322],[-72.9066242993,43.9365248559],[-72.9059834756,43.9381970264],[-72.90671741215323,43.93848531598965],[-72.9051,43.94064],[-72.90682,43.94208],[-72.90955525450923,43.94219038580225]]]},"properties":{"flat_pct":32}},{"type":"Feature","geometry":{"type":"Polygon","coordinates":[[[-72.9012280451,43.9914631095],[-72.899383694,43.9936074287],[-72.8910405356,43.9954295743],[-72.8891261547,43.9947807618],[-72.88808667643502,43.993171863283706],[-72.89163,43.99235],[-72.8880194955,43.9920370043],[-72.8784654916,43.9949890471],[-72.877353658,43.9971037764],[-72.8754858299,43.9978764535],[-72.8729295587,43.9966659935],[-72.8725439167,43.9938003196],[-72.8706079676,43.9934098366],[-72.8732284311,43.99976232],[-72.8738087391,44.0035569709],[-72.8729602897,44.0060110651],[-72.8739246221,44.0087293648],[-72.872944312,44.0105200013],[-72.8709217362,44.0114338281],[-72.8675469947,44.01067001],[-72.8621145897,44.011645224],[-72.8605984779,44.0177562058],[-72.8651288104,44.0220098794],[-72.8642466918,44.0268244025],[-72.8616147884,44.028010765],[-72.858154932,44.026478332],[-72.8551186984,44.0263466233],[-72.8462225876,44.0329223466],[-72.8424659638,44.0325640206],[-72.8408914461,44.0312964616],[-72.8405331736,44.0290284848],[-72.8416402992,44.0273373063],[-72.8447731921,44.0265501382],[-72.84984300789742,44.022346450126236],[-72.85175,44.02285],[-72.85313312730884,44.02067102562853],[-72.8548633559,44.0203299042],[-72.8546232823,44.0151280328],[-72.8573285139,44.0078819963],[-72.8604188535,44.0055162521],[-72.8669779968,44.0046916177],[-72.8677011627,44.0030735989],[-72.8638386885,43.9946516078],[-72.8639873715,43.9924770064],[-72.8612792368,43.9891508017],[-72.8610896694,43.986434638],[-72.8631276485,43.9816220598],[-72.8606720218,43.9806967627],[-72.8593605672,43.9780083361],[-72.8602275655,43.9721455064],[-72.8664158002,43.9675044472],[-72.8654450624,43.9636557905],[-72.8666746975,43.9614043646],[-72.8686142095,43.9608350624],[-72.8717076004,43.9615951491],[-72.8736683558,43.96431069],[-72.8709744957,43.9722773157],[-72.8655891173,43.9753801606],[-72.8710267565,43.9753604282],[-72.8735581161,43.9784832371],[-72.8726965987,43.9808660289],[-72.8688382519,43.9835402666],[-72.867166008,43.9873496522],[-72.8789829522,43.9889782469],[-72.8904964784,43.9849256959],[-72.8998869681,43.9882641147],[-72.9012280451,43.9914631095]],[[-72.87767,43.99461],[-72.87757,43.9949],[-72.87825,43.99478],[-72.87767,43.99461]]]},"properties":{"flat_pct":14}},{"type":"Feature","geometry":{"type":"Polygon","coordinates":[[[-72.8612182876,44.0564190386],[-72.8637833277,44.0564576397],[-72.8652995202,44.0581819478],[-72.8651523603,44.0604733277],[-72.8633171609741,44.062120350194704],[-72.864,44.06115],[-72.86276,44.06077],[-72.85937,44.06189],[-72.85716,44.06133],[-72.85582,44.06242],[-72.85059727027969,44.05934360811239],[-72.8585886595,44.0579251747],[-72.8612182876,44.0564190386]]]},"properties":{"flat_pct":12}},{"type":"Feature","geometry":{"type":"Polygon","coordinates":[[[-72.9317200879,44.0895938186],[-72.9324227747,44.0862436672],[-72.93606795688663,44.0829573805111],[-72.9362633787552,44.081523203893646],[-72.93284951655039,44.080167108019324],[-72.93058303766753,44.07764413344273],[-72.9311918125,44.074620187],[-72.93385705418326,44.07367349657724],[-72.94098875082997,44.077072815358605],[-72.9429828936,44.0811403846],[-72.94044,44.08201],[-72.94128868596792,44.08641845211116],[-72.9382120249298,44.08962338091164],[-72.9317200879,44.0895938186]]]},"properties":{"flat_pct":13}},{"type":"Feature","geometry":{"type":"Polygon","coordinates":[[[-72.9139438883,44.0860000025],[-72.9189698842,44.087316487],[-72.9199282883,44.0905091598],[-72.9184665263,44.092279846],[-72.9153315559,44.0923415356],[-72.9134818736,44.0945062356],[-72.9111983874,44.0947465876],[-72.91048985275471,44.09442853707519],[-72.91072,44.09186],[-72.91007449152352,44.094123121238844],[-72.9091734124,44.0910183874],[-72.9118078942,44.0868895202],[-72.9139438883,44.0860000025]],[[-72.91337,44.09089],[-72.91458,44.09298],[-72.91484,44.09115],[-72.91337,44.09089]]]},"properties":{"flat_pct":10}},{"type":"Feature","geometry":{"type":"Polygon","coordinates":[[[-72.86331774500417,44.09086300985273],[-72.8657061913,44.0914952509],[-72.866790598,44.0934793602],[-72.866370133,44.0957975533],[-72.8641906398,44.097150598],[-72.86335744011629,44.097176617862544],[-72.86331774500417,44.09086300985273]]]},"properties":{"flat_pct":31}},{"type":"Feature","geometry":{"type":"Polygon","coordinates":[[[-72.85661,43.22901],[-72.85642,43.23005],[-72.85404798342621,43.229952878061546],[-72.8551875836,43.2291378819],[-72.85661,43.22901]]]},"properties":{}},{"type":"Feature","geometry":{"type":"Polygon","coordinates":[[[-72.8367958271,43.3417067994],[-72.8356531574,43.3425269487],[-72.8375732209,43.3441948609],[-72.8379929241,43.3461721472],[-72.8354981635,43.3487316481],[-72.8332639111,43.3482023141],[-72.8274794812,43.3431861533],[-72.8277872713,43.3409107757],[-72.8315236088,43.3380673644],[-72.8322370518,43.3341584352],[-72.8339490722,43.3326283817],[-72.8367438746,43.3330629108],[-72.8385856838,43.3358422744],[-72.8367958271,43.3417067994]]]},"properties":{"flat_pct":88}},{"type":"Feature","geometry":{"type":"Polygon","coordinates":[[[-72.8277078283,43.3531018275],[-72.8269614823,43.3555561886],[-72.8245907586,43.3565362855],[-72.8167354333,43.3523686945],[-72.8145328893,43.3490174606],[-72.8104526807,43.3460851162],[-72.8081817133,43.3417919464],[-72.80830057891745,43.339613376629124],[-72.81018,43.34184],[-72.81283,43.34257],[-72.81317773509299,43.33876036887014],[-72.8157224197,43.3429001361],[-72.8183838841,43.3443135253],[-72.820979876,43.3475442829],[-72.8235369442,43.3483390947],[-72.8277078283,43.3531018275]]]},"properties":{"flat_pct":34}},{"type":"Feature","geometry":{"type":"Polygon","coordinates":[[[-72.8551424018,43.4124770961],[-72.8589494783,43.4115933105],[-72.8604895327,43.4129025256],[-72.86086885718542,43.41472432821302],[-72.85435420349292,43.41490532262024],[-72.8551424018,43.4124770961]]]},"properties":{"flat_pct":38}},{"type":"Feature","geometry":{"type":"Polygon","coordinates":[[[-72.811888257,43.688275401],[-72.8105058106,43.6864421197],[-72.8109862054,43.683922171],[-72.81378,43.68441],[-72.81344707679351,43.68256360185319],[-72.815467829,43.6831262054],[-72.8166639255,43.6850861623],[-72.8161237946,43.687317829],[-72.8141621197,43.6885941894],[-72.811888257,43.688275401]]]},"properties":{"flat_pct":21}},{"type":"Feature","geometry":{"type":"Polygon","coordinates":[[[-72.8383235049,43.751204257],[-72.8426750974,43.7499462774],[-72.8470040803,43.7504499478],[-72.8558531699,43.7486068876],[-72.8579101129,43.7496272127],[-72.8586431124,43.7518031699],[-72.8563244332,43.7545232071],[-72.8473146931,43.7565188043],[-72.84646342920867,43.756437361378254],[-72.84599,43.75447],[-72.838395137,43.7573197942],[-72.83635733539705,43.75688901168689],[-72.83794,43.75455],[-72.82835,43.75173],[-72.83002704523213,43.74882346455167],[-72.8355410085,43.7495030517],[-72.8383235049,43.751204257]]]},"properties":{"flat_pct":20}},{"type":"Feature","geometry":{"type":"Polygon","coordinates":[[[-72.7688307077,43.7923551763],[-72.76617931457791,43.7946550693418],[-72.76401,43.79272],[-72.76592,43.79219],[-72.76377,43.79099],[-72.76137,43.78551],[-72.76302,43.78775],[-72.76553,43.78775],[-72.7676169564697,43.78896404679247],[-72.7688307077,43.7923551763]]]},"properties":{"flat_pct":35}},{"type":"Feature","geometry":{"type":"Polygon","coordinates":[[[-72.8150408766,43.8272964013],[-72.8131524896,43.8286025683],[-72.81078254164,43.82811124577644],[-72.8099106773,43.8229943412],[-72.811917998,43.821879558],[-72.81177,43.82314],[-72.81244,43.82326],[-72.81224018940726,43.82186132585086],[-72.8141256588,43.8225106773],[-72.8154525683,43.8250375104],[-72.8150408766,43.8272964013]]]},"properties":{"flat_pct":16}},{"type":"Feature","geometry":{"type":"Polygon","coordinates":[[[-72.8245546271,43.8964695723],[-72.82354,43.89714],[-72.8229733299221,43.894530519270894],[-72.8240463493,43.8954151426],[-72.8245546271,43.8964695723]]]},"properties":{}},{"type":"Feature","geometry":{"type":"Polygon","coordinates":[[[-72.8150233007,43.8959421827],[-72.81528422590002,43.894414554331746],[-72.81726,43.89404],[-72.81965,43.89617],[-72.8166,43.89676],[-72.81628420032267,43.89849412805268],[-72.8150233007,43.8959421827]]]},"properties":{"flat_pct":43}},{"type":"Feature","geometry":{"type":"Polygon","coordinates":[[[-72.8546627263,44.0647444751],[-72.8504489806,44.0641270422],[-72.8493933485,44.062403252],[-72.84962094106905,44.06050933115142],[-72.85582,44.06242],[-72.86052246318974,44.063732674453625],[-72.8546627263,44.0647444751]]]},"properties":{"flat_pct":33}},{"type":"Feature","geometry":{"type":"Polygon","coordinates":[[[-72.83194455457023,44.079918278226685],[-72.8323741114,44.0778592268],[-72.83141055340307,44.07544265147537],[-72.83231,44.07398],[-72.83408,44.07438],[-72.83391,44.07244],[-72.8366599151,44.0732995679],[-72.8374636076,44.075154262],[-72.8369907708,44.0771613693],[-72.8400536568,44.0774259318],[-72.8412981332,44.0799658165],[-72.8408942359,44.081366632],[-72.83948395006747,44.08278980288854],[-72.83504,44.08099],[-72.83396,44.08136],[-72.83194455457023,44.079918278226685]],[[-72.83955,44.07944],[-72.83815,44.0785],[-72.83828,44.07985],[-72.83955,44.07944]]]},"properties":{"flat_pct":85}}]}