{"type":"FeatureCollection","attribution":"Derived from USFS MVUM roads + USFS Basic Ownership (public domain); terrain from Mapzen tiles (USGS 3DEP). Heuristic beta \u2014 not a statement of legality. Generated 2026-07-23.","features":[{"type":"Feature","geometry":{"type":"Polygon","coordinates":[[[-102.032994382,36.999673221],[-102.030749097,37.000914034],[-102.028365542,36.999965569],[-102.0272629510119,36.99314356928051],[-102.0332626863184,36.993117898041426],[-102.032994382,36.999673221]]]},"properties":{"flat_pct":100}},{"type":"Feature","geometry":{"type":"Polygon","coordinates":[[[-101.926484551,37.052844091],[-101.92659,37.0542],[-101.92466518520953,37.05419465329225],[-101.925438556,37.053343607],[-101.926484551,37.052844091]]]},"properties":{}},{"type":"Feature","geometry":{"type":"Polygon","coordinates":[[[-101.987216331,37.138969611],[-101.98820691520156,37.14133549197608],[-101.98083,37.14136],[-101.98080986617796,37.138432542277094],[-101.985345972,37.138203083],[-101.987216331,37.138969611]]]},"properties":{"flat_pct":100}},{"type":"Feature","geometry":{"type":"Polygon","coordinates":[[[-101.955796188,37.150643255],[-101.957943998,37.149831473],[-101.960036745,37.150776188],[-101.96075429496238,37.15593],[-101.954751543966,37.15593],[-101.955796188,37.150643255]]]},"properties":{"flat_pct":100}},{"type":"Feature","geometry":{"type":"Polygon","coordinates":[[[-102.004412415,37.158539725],[-102.002817391,37.15729807],[-102.002372118,37.155326385],[-102.003278741,37.153519773],[-102.005318383,37.152693434],[-102.00527561978757,37.14856536063391],[-102.01127589578432,37.14856093891247],[-102.01134883399699,37.15581640040803],[-102.00812,37.15582],[-102.00813617535894,37.15875582764837],[-102.004412415,37.158539725]]]},"properties":{"flat_pct":100}},{"type":"Feature","geometry":{"type":"Polygon","coordinates":[[[-102.031972583,37.152619637],[-102.03331258,37.154807177],[-102.032471675,37.157230769],[-102.02606931099974,37.15895922040423],[-102.02603897940818,37.15296183752665],[-102.031972583,37.152619637]]]},"properties":{"flat_pct":100}},{"type":"Feature","geometry":{"type":"Polygon","coordinates":[[[-102.033422243,37.159397913],[-102.035814771,37.160323512],[-102.03656876981212,37.16303694234291],[-102.02609,37.16305],[-102.02607605606333,37.160292903432655],[-102.033422243,37.159397913]]]},"properties":{"flat_pct":100}},{"type":"Feature","geometry":{"type":"Polygon","coordinates":[[[-102.011993958,37.179832159],[-102.01442779,37.181727238],[-102.014084652,37.184534727],[-102.00819,37.18485],[-102.00819435456927,37.18168858271315],[-102.011993958,37.179832159]]]},"properties":{"flat_pct":100}},{"type":"Feature","geometry":{"type":"Polygon","coordinates":[[[-101.987104542,37.196004551],[-101.988409562,37.197548162],[-101.98848369198417,37.19941415794249],[-101.98106,37.19948],[-101.98105618242082,37.19670461993016],[-101.987104542,37.196004551]]]},"properties":{"flat_pct":100}},{"type":"Feature","geometry":{"type":"Polygon","coordinates":[[[-101.990376711,37.200400008],[-101.995431852,37.200468961],[-101.997338131,37.201748874],[-101.997703384,37.204302489],[-101.99922263396783,37.2054429680857],[-101.99931,37.2139],[-101.99216075526711,37.213931633826256],[-101.9938562,37.206407806],[-101.9901713428557,37.20639013222013],[-101.990376711,37.200400008]]]},"properties":{"flat_pct":100}},{"type":"Feature","geometry":{"type":"Polygon","coordinates":[[[-102.032695135,37.206713137],[-102.035384114,37.205836137],[-102.037475861,37.207321235],[-102.037633562,37.211635808],[-102.03652381573771,37.21379],[-102.02974649813923,37.21379],[-102.032695135,37.206713137]]]},"properties":{"flat_pct":100}},{"type":"Feature","geometry":{"type":"Polygon","coordinates":[[[-102.003651133,37.224805221],[-102.003310978,37.227075986],[-102.001175948,37.228498156],[-101.998722147,37.22774997],[-101.996669176,37.224659124],[-101.993535379,37.224685275],[-101.99350420800364,37.22843606835075],[-101.9875037809557,37.22846259934728],[-101.987187936,37.226406185],[-101.98333365900606,37.228481037616774],[-101.97973250265804,37.22849696019458],[-101.977315354,37.222406872],[-101.97768381680837,37.22124590342984],[-101.99935,37.22115],[-101.99931,37.2139],[-102.00240415351976,37.21388973179142],[-102.002424187,37.218476634],[-102.005574266,37.218375403],[-102.00556327093877,37.213879247994676],[-102.00835,37.21387],[-102.00851,37.23562],[-101.99945,37.23566],[-101.99942348493688,37.231815315848344],[-102.005724878,37.232185866],[-102.005639711,37.224376397],[-102.003651133,37.224805221]]]},"properties":{"flat_pct":100}},{"type":"Feature","geometry":{"type":"Polygon","coordinates":[[[-101.99946559248882,37.23771537352599],[-101.99712291247056,37.235671142592224],[-101.99945,37.23566],[-101.99946559248882,37.23771537352599]]]},"properties":{}},{"type":"Feature","geometry":{"type":"Polygon","coordinates":[[[-102.011008919,37.237502629],[-102.00853313401534,37.23841536018626],[-102.00851,37.23562],[-102.0118328025473,37.235605313579896],[-102.011008919,37.237502629]]]},"properties":{"flat_pct":100}},{"type":"Feature","geometry":{"type":"Polygon","coordinates":[[[-102.01553465,37.24086606],[-102.01760338234516,37.2400731714624],[-102.01763,37.24283],[-102.01458192982713,37.242843457263454],[-102.01553465,37.24086606]]]},"properties":{}},{"type":"Feature","geometry":{"type":"Polygon","coordinates":[[[-102.028690537,37.241058803],[-102.0297319709903,37.24279327759694],[-102.02668,37.2428],[-102.02665329824889,37.24038015380542],[-102.028690537,37.241058803]]]},"properties":{"flat_pct":100}},{"type":"Feature","geometry":{"type":"Polygon","coordinates":[[[-101.997595567,37.241012935],[-101.998239332,37.244283602],[-101.996612494,37.245903934],[-101.99377802,37.246126615],[-101.99376037928884,37.250191971448245],[-101.99049,37.25021],[-101.99044,37.24296],[-101.98139,37.243],[-101.98140425467854,37.2461018180495],[-101.967346274,37.246073646],[-101.965953674,37.250702666],[-101.96327843523642,37.252010364269886],[-101.96326,37.2431],[-101.9620920376864,37.24310643151053],[-101.962302668,37.239133801],[-101.95417445606438,37.23913064667766],[-101.95417,37.2359],[-101.96323,37.23585],[-101.9632225120593,37.233131877528905],[-101.97228549040504,37.23315650851471],[-101.9723,37.23579],[-101.99116398903358,37.23569967519063],[-101.993335662,37.23713104],[-101.993804607,37.239999401],[-101.997595567,37.241012935]],[[-101.985532249,37.240110078],[-101.982931122,37.239217154],[-101.968312261,37.239134006],[-101.9683655,37.240075676],[-101.985532249,37.240110078]]]},"properties":{"flat_pct":100}},{"type":"Feature","geometry":{"type":"Polygon","coordinates":[[[-102.017699009,37.246373837],[-102.01763,37.24283],[-102.02668,37.2428],[-102.02672450371325,37.24638007648894],[-102.017699009,37.246373837]]]},"properties":{"flat_pct":100}},{"type":"Feature","geometry":{"type":"Polygon","coordinates":[[[-102.02416213744722,37.25005150104764],[-102.02674120973522,37.24772398314409],[-102.02677,37.25004],[-102.02416213744722,37.25005150104764]]]},"properties":{}},{"type":"Feature","geometry":{"type":"Polygon","coordinates":[[[-102.02684627970632,37.256700750851685],[-102.030944439,37.257420629],[-102.02681621739174,37.254189391340724],[-102.02677,37.25004],[-102.03133158791529,37.25004],[-102.0399257884332,37.25728],[-102.03593,37.25728],[-102.03601,37.26453],[-102.02964501281436,37.26453],[-102.02691957391067,37.26282363592227],[-102.02684627970632,37.256700750851685]]]},"properties":{"flat_pct":100}},{"type":"Feature","geometry":{"type":"Polygon","coordinates":[[[-101.95277205,37.282675111],[-101.951782081,37.285596552],[-101.948738931,37.286100636],[-101.94519,37.28345191898198],[-101.94519,37.27943],[-101.94973698465205,37.27939992501258],[-101.95277205,37.282675111]]]},"properties":{"flat_pct":100}},{"type":"Feature","geometry":{"type":"Polygon","coordinates":[[[-101.778052509,37.042584702],[-101.77863911763407,37.039836712764604],[-101.78168,37.03983],[-101.78171,37.0471],[-101.77267,37.04712],[-101.77264488374313,37.0440809329173],[-101.776577267,37.044075798],[-101.778052509,37.042584702]]]},"properties":{"flat_pct":100}},{"type":"Feature","geometry":{"type":"Polygon","coordinates":[[[-101.815889658,37.048086231],[-101.8134652,37.046629612],[-101.813064983,37.04338346],[-101.81460209637987,37.039677522966045],[-101.81801,37.03967],[-101.81803624451273,37.04732814881261],[-101.815889658,37.048086231]]]},"properties":{"flat_pct":100}},{"type":"Feature","geometry":{"type":"Polygon","coordinates":[[[-101.87384850910809,37.05413841048717],[-101.873245844,37.049917474],[-101.874600553,37.048009585],[-101.876542344,37.047413379],[-101.878490526,37.048262917],[-101.878512327,37.046166068],[-101.875597508,37.04565406],[-101.874023402,37.044021249],[-101.873943024,37.042026568],[-101.875132146,37.040423073],[-101.88431040222046,37.03962112226557],[-101.888249804,37.041038393],[-101.888792244,37.042985589],[-101.887763392,37.04503828],[-101.884505264508,37.046876550480675],[-101.88138,37.04688],[-101.88146,37.05413],[-101.87384850910809,37.05413841048717]]]},"properties":{"flat_pct":100}},{"type":"Feature","geometry":{"type":"Polygon","coordinates":[[[-101.797847313,37.049604794],[-101.798693243,37.052026637],[-101.797357786,37.05421695],[-101.79077,37.05437],[-101.79076,37.04344],[-101.79531,37.04342],[-101.79531,37.04707],[-101.795997541,37.048725107],[-101.797847313,37.049604794]]]},"properties":{"flat_pct":100}},{"type":"Feature","geometry":{"type":"Polygon","coordinates":[[[-101.832688879,37.059376311],[-101.833579949,37.061492456],[-101.832496709,37.063817862],[-101.8270478180814,37.064524336221886],[-101.82702588447363,37.058536461301784],[-101.832688879,37.059376311]]]},"properties":{"flat_pct":100}},{"type":"Feature","geometry":{"type":"Polygon","coordinates":[[[-101.760863828,37.053191573],[-101.757303727,37.053508669],[-101.755917298,37.050415061],[-101.75247924,37.05313272],[-101.750491854,37.053501651],[-101.748721537,37.052526054],[-101.747974552,37.050447543],[-101.744999385,37.050153297],[-101.742662909,37.052722646],[-101.740444206,37.053313777],[-101.73829015,37.051920591],[-101.738106235,37.049105394],[-101.729008864,37.049120921],[-101.727304376,37.051147631],[-101.724517521,37.050946766],[-101.724099276,37.053508127],[-101.721416465,37.054778072],[-101.719681807,37.05812],[-101.726525205,37.05813456],[-101.728654526,37.059359262],[-101.730340788,37.055808505],[-101.733673145,37.05572427],[-101.735062031,37.058478513],[-101.733452396,37.064528227],[-101.73644385141117,37.06604408300545],[-101.73645,37.06902],[-101.739009062,37.069085016],[-101.738280717,37.070970573],[-101.736521514,37.071966071],[-101.731783482,37.070500569],[-101.729303091,37.077778182],[-101.725888457,37.079083938],[-101.725057433,37.081620449],[-101.723466148,37.082866894],[-101.720251888,37.081983586],[-101.719658907,37.079109823],[-101.71835762425772,37.07911522980852],[-101.71835,37.07634],[-101.7094,37.07634],[-101.7094,37.07869781603634],[-101.699020597,37.078729374],[-101.698583374,37.081606865],[-101.696415033,37.082977709],[-101.693776927,37.08195784],[-101.69302014,37.07878158],[-101.6852059,37.079535025],[-101.685432191,37.083186265],[-101.686169276,37.083517523],[-101.688057853,37.080718466],[-101.691332764,37.081340284],[-101.69221288,37.083159957],[-101.691725804,37.086417721],[-101.701530297,37.093782254],[-101.702836858,37.095740734],[-101.70326576312921,37.09817],[-101.70038,37.09817],[-101.70035,37.10065],[-101.69745068703155,37.101725792100716],[-101.697232087,37.098045307],[-101.693480644,37.095260731],[-101.690760969,37.09580339],[-101.688204032,37.095143943],[-101.686882641,37.093266177],[-101.687367148,37.090874798],[-101.68218648350425,37.088305668761805],[-101.68218,37.08359],[-101.67944542076255,37.083585475048146],[-101.678653256,37.07703962],[-101.671821692,37.078974792],[-101.6640718806404,37.07902758163136],[-101.6641008344535,37.07303000605911],[-101.670774941,37.072993978],[-101.674175935,37.071800317],[-101.675889395,37.070039181],[-101.678257173,37.070113922],[-101.680280731,37.064342424],[-101.687992462,37.059448413],[-101.68851841617435,37.0545],[-101.69131,37.0545],[-101.69129787744127,37.05156229993411],[-101.697286603,37.051328976],[-101.6979348429244,37.0472336767088],[-101.70938,37.04724],[-101.708742215,37.051663428],[-101.710203187,37.058045506],[-101.71434286754734,37.05452],[-101.7183,37.05452],[-101.71826802831778,37.03707145442813],[-101.719543489,37.0370701],[-101.720044595,37.034975193],[-101.721681661,37.033789516],[-101.725033094,37.035031599],[-101.72580657,37.040087479],[-101.727550056,37.043147971],[-101.745276819,37.043496897],[-101.74544,37.04721],[-101.75451,37.04719],[-101.75448287590027,37.04324073107986],[-101.763445797,37.043422992],[-101.76361369402731,37.05002395180774],[-101.762102695,37.049711648],[-101.760863828,37.053191573]],[[-101.716528201,37.065398419],[-101.715557923,37.064143183],[-101.712277569,37.064083944],[-101.71203355,37.070368797],[-101.715518141,37.069896352],[-101.717056905,37.073120582],[-101.724643052,37.073089061],[-101.7264005,37.067677697],[-101.722014799,37.068356277],[-101.719774131,37.06646168],[-101.716528201,37.065398419]],[[-101.704379021,37.060052151],[-101.703198467,37.054435929],[-101.70120816,37.057049077],[-101.694238751,37.057449185],[-101.693086526,37.063195416],[-101.689358073,37.065654434],[-101.687911613,37.067751337],[-101.685399786,37.068093234],[-101.685333477,37.073530752],[-101.705942331,37.072668926],[-101.706302584,37.063323243],[-101.704379021,37.060052151]]]},"properties":{"flat_pct":100}},{"type":"Feature","geometry":{"type":"Polygon","coordinates":[[[-101.72441173,37.082964516],[-101.727148408,37.080665501],[-101.730142843,37.08261697],[-101.73032570651822,37.08358357854913],[-101.72742,37.08359],[-101.72745,37.09086],[-101.72417966624572,37.09087081698044],[-101.723854932,37.090117267],[-101.72441173,37.082964516]]]},"properties":{"flat_pct":100}},{"type":"Feature","geometry":{"type":"Polygon","coordinates":[[[-101.894113954,37.097460908],[-101.893740778,37.094657254],[-101.895864606,37.092789343],[-101.900902746,37.093440778],[-101.902770657,37.095564606],[-101.902399863,37.09783057],[-101.900535394,37.099170657],[-101.895777675,37.098608882],[-101.894113954,37.097460908]]]},"properties":{"flat_pct":100}},{"type":"Feature","geometry":{"type":"Polygon","coordinates":[[[-101.760043732,37.085939773],[-101.762032936,37.085580775],[-101.76372987654896,37.08649424042655],[-101.76376728495993,37.097835223682644],[-101.762790308,37.098478921],[-101.759328849,37.097588316],[-101.758853579,37.093698531],[-101.739533708,37.093615695],[-101.739553309,37.095499374],[-101.743680487,37.095617653],[-101.745417488,37.098462741],[-101.743724758,37.101041408],[-101.739148452,37.101532422],[-101.739431061,37.113478418],[-101.742729451,37.113082622],[-101.742341083,37.104582372],[-101.743883657,37.102211675],[-101.746966174,37.102325455],[-101.75095448,37.106665244],[-101.75047037,37.108627754],[-101.74869,37.109878658],[-101.748335607,37.120856701],[-101.746126625,37.124571927],[-101.743053299,37.124835607],[-101.741397165,37.122542803],[-101.742522868,37.119086263],[-101.739239763,37.118628398],[-101.738012155,37.117022537],[-101.738000644,37.115240502],[-101.735701065,37.11548441],[-101.733920127,37.114035156],[-101.732735429,37.104670403],[-101.73354755703598,37.09812662060191],[-101.73655,37.09812],[-101.73648045436563,37.085471387751],[-101.739353643,37.087615347],[-101.744278209,37.087141751],[-101.742111694,37.084135333],[-101.741899328,37.077240045],[-101.738342945,37.073620031],[-101.738737732,37.07108526],[-101.741826574,37.069831962],[-101.74553950031242,37.07246336356706],[-101.74555,37.07628],[-101.74788040811549,37.07627486694248],[-101.748477934,37.084630117],[-101.75195543,37.084435716],[-101.753255118,37.087708664],[-101.75866288,37.087698867],[-101.760043732,37.085939773]],[[-101.747070783,37.087570573],[-101.746786361,37.087105448],[-101.746271724,37.087294609],[-101.747070783,37.087570573]]]},"properties":{"flat_pct":100}},{"type":"Feature","geometry":{"type":"Polygon","coordinates":[[[-102.04210386187572,37.013478022958076],[-102.039350771,37.011738723],[-102.036680773,37.013409928],[-102.032954517,37.012767117],[-102.030855946,37.013343516],[-102.028900464,37.012317152],[-102.028999714,37.021884847],[-102.032315706,37.021878464],[-102.035965241,37.019591211],[-102.038987642,37.02186562],[-102.039339472,37.017169546],[-102.04210122225194,37.01539234895921],[-102.04208404252013,37.02785155157548],[-102.033754605,37.028669052],[-102.031590362,37.027879871],[-102.031104195,37.029934983],[-102.031284859,37.031769109],[-102.037997555,37.032943574],[-102.039712946,37.034408437],[-102.039826281,37.036926779],[-102.037426106,37.040107334],[-102.03974472,37.043835388],[-102.039856254,37.045852739],[-102.037097973,37.050726811],[-102.030656578,37.053052217],[-102.029830143,37.054570282],[-102.037827878,37.054193647],[-102.039903307,37.055175824],[-102.04064743,37.05763086],[-102.039221729,37.059763533],[-102.031575937,37.06049208],[-102.031621481,37.062131653],[-102.038407446,37.061872075],[-102.039792936,37.063703057],[-102.039614199,37.065716479],[-102.036547985,37.067935786],[-102.033650894,37.067845656],[-102.026786834,37.071079659],[-102.023425933,37.071246926],[-102.020753971,37.073261334],[-102.013086227,37.073041534],[-102.01275716,37.075404538],[-102.015591249,37.075742645],[-102.017209357,37.078706712],[-102.01866496,37.078889592],[-102.020251058,37.076600895],[-102.023440997,37.076318496],[-102.025908088,37.079070481],[-102.032240663,37.078117316],[-102.029207511,37.073811795],[-102.029486628,37.071388806],[-102.031135373,37.069790771],[-102.033695336,37.069956644],[-102.038369893,37.073521805],[-102.0420227409697,37.072309081282874],[-102.04201423352343,37.078478909657385],[-102.037908859,37.080267058],[-102.037451918,37.081246686],[-102.037661387,37.083381134],[-102.041134803,37.084890394],[-102.04138357,37.087443634],[-102.039567704,37.089255692],[-102.036440167,37.089327403],[-102.040795437,37.097710962],[-102.039093178,37.106264782],[-102.040090881,37.1047395],[-102.04197894529253,37.10407088184319],[-102.04196775001166,37.11219],[-102.02603,37.11219],[-102.02601286073048,37.109083507398914],[-102.030652484,37.10903315],[-102.03272062,37.1068634],[-102.03306807940483,37.10494],[-102.03504,37.10494],[-102.03501,37.09406],[-102.03168797077231,37.09406],[-102.029792431,37.088199922],[-102.030216735,37.084317819],[-102.029091778,37.084416466],[-102.026821976,37.087131829],[-102.023764087,37.08609681],[-102.023616,37.088337375],[-102.020782099,37.093090397],[-102.017971575,37.093407722],[-102.0159234,37.091408176],[-102.014832844,37.094190973],[-102.015187300524,37.097678070100244],[-102.0079,37.09767],[-102.00792820100037,37.10175914505258],[-102.006772686,37.103544552],[-102.007112768,37.109030779],[-102.01699256966975,37.109020752643275],[-102.01701,37.11218],[-102.00799,37.11217],[-102.00798042224456,37.114970535694745],[-102.005580766,37.115246602],[-102.000701228,37.124812975],[-101.99538482951957,37.12681077524073],[-101.98981,37.12682],[-101.98979493621128,37.12306409534785],[-101.99704558601883,37.119371971775664],[-101.99887,37.11938],[-101.99886100220856,37.11546776027926],[-102.000817895,37.110559565],[-102.001392894,37.106709572],[-102.000682706,37.103957593],[-101.99883453548175,37.10396002746739],[-101.99882,37.09764],[-101.99428,37.09762],[-101.99428670876455,37.10004857276539],[-101.991133548,37.100068013],[-101.99182281323093,37.10123456566791],[-101.98975,37.10123],[-101.98976026892673,37.107429008771646],[-101.987519597,37.10665765],[-101.986503429,37.104658475],[-101.986152867,37.10518781],[-101.986975628,37.112242826],[-101.983810015,37.116094846],[-101.98361409354506,37.11937402818132],[-101.97166,37.11944],[-101.9717086763941,37.129648135222034],[-101.96263332695676,37.129682561768654],[-101.96261,37.12686],[-101.95354,37.12687],[-101.9536029,37.135299771],[-101.95097695,37.133681363],[-101.950672097,37.129686134],[-101.939164039,37.129689572],[-101.939080404,37.131905894],[-101.941572161,37.132873831],[-101.944848641,37.132675399],[-101.946303028,37.134711563],[-101.950510289,37.136500449],[-101.952161482,37.139154092],[-101.95154807804008,37.14138763442368],[-101.9452330695383,37.14138059428042],[-101.938841015,37.138249696],[-101.938776655,37.139955234],[-101.942612543,37.143975045],[-101.942028252,37.146195559],[-101.939751645,37.147377922],[-101.93572831817032,37.145174770869275],[-101.93566,37.13413],[-101.92769757059514,37.13414792330761],[-101.925021671,37.133157408],[-101.923724882,37.131606876],[-101.923816229,37.129312593],[-101.925503124,37.127754882],[-101.928905461,37.128215827],[-101.931350715,37.127001991],[-101.933272679,37.12760991],[-101.928335901,37.117031193],[-101.926896754,37.116386245],[-101.923198877,37.118463321],[-101.921840991,37.120767909],[-101.919820287,37.12122506],[-101.920614219,37.123801956],[-101.919173384,37.125924435],[-101.91781667730935,37.12633360895541],[-101.9178,37.12329],[-101.91332,37.12325],[-101.9133248383754,37.125016007020754],[-101.911577403,37.124947069],[-101.908923728,37.127122917],[-101.912317554,37.130189764],[-101.911960459,37.135798423],[-101.910523938,37.137589647],[-101.908241577,37.137840459],[-101.903592749,37.133408154],[-101.902841389,37.13594096],[-101.904372065,37.136904429],[-101.905079704,37.138797854],[-101.90400485297829,37.141386139024874],[-101.8818,37.14138],[-101.88179131562391,37.14456716602607],[-101.867530425,37.144760356],[-101.862136841,37.14842655],[-101.859118925,37.148938297],[-101.858982636,37.151881666],[-101.860115001,37.154403121],[-101.857843358,37.158094465],[-101.857656156,37.167155047],[-101.859800797,37.167444131],[-101.861246735,37.169298888],[-101.86363779688918,37.167810407107275],[-101.86365,37.17079],[-101.85158259405227,37.17081674217385],[-101.851699614,37.164989722],[-101.849856188,37.163437805],[-101.849284884,37.161498882],[-101.8500733,37.159637643],[-101.851829452,37.158705544],[-101.85312127,37.149183363],[-101.849329342,37.148851641],[-101.846646478,37.149942115],[-101.845898843,37.151825624],[-101.841618107,37.155613254],[-101.839156337,37.15489172],[-101.838160292,37.152441887],[-101.8368515,37.152435723],[-101.836543625,37.155234484],[-101.83439291,37.156632821],[-101.832172798,37.156047002],[-101.830383478,37.153613774],[-101.83036477,37.160323468],[-101.827823168,37.162480308],[-101.82742,37.15987],[-101.82450493236284,37.15987488831912],[-101.824392236,37.154195077],[-101.821361612,37.15370374],[-101.819905503,37.152481606],[-101.817098831,37.15449227],[-101.811965129,37.155564847],[-101.810232321,37.15682348],[-101.805080258,37.156871132],[-101.799794382,37.159914144],[-101.789118891,37.162299184],[-101.779292163,37.16291076],[-101.773146242,37.159337435],[-101.773170056,37.156772215],[-101.775168105,37.155163265],[-101.78030114,37.156892931],[-101.784065776,37.156637204],[-101.786449897,37.155099624],[-101.789005653,37.15618625],[-101.797724427,37.154244927],[-101.804782966,37.150866547],[-101.80702885,37.1485407],[-101.812796686,37.149609044],[-101.814456981,37.149063272],[-101.819305687,37.145869807],[-101.818796297,37.143684745],[-101.820246617,37.139677867],[-101.817784633,37.139127408],[-101.805050641,37.144002248],[-101.80298191,37.146471216],[-101.80096205,37.146393916],[-101.799470355,37.14508638],[-101.795793102,37.145800793],[-101.794981042,37.147669868],[-101.792885683,37.148608776],[-101.789655053,37.146993287],[-101.764061827,37.155031153],[-101.763798084,37.156690059],[-101.766560727,37.158748482],[-101.766151341,37.161552825],[-101.773951107,37.161277955],[-101.775938506,37.162900041],[-101.775972558,37.16539932],[-101.778053097,37.164262807],[-101.780463467,37.165140896],[-101.781598947,37.171412157],[-101.779514355,37.173685774],[-101.776743535,37.173118065],[-101.775714332,37.171378366],[-101.775586133,37.166042025],[-101.773678176,37.167156334],[-101.764604467,37.167641043],[-101.764444231,37.171839981],[-101.763545006,37.173383448],[-101.757510395,37.174314694],[-101.758332763,37.178554192],[-101.765000597,37.178519973],[-101.765951677,37.176894731],[-101.767831462,37.176151619],[-101.769980499,37.176960148],[-101.771448981,37.179244587],[-101.777799741,37.178666368],[-101.779804215,37.177245773],[-101.78180271,37.177548808],[-101.78250195276297,37.17806987831062],[-101.78253,37.19266],[-101.77356,37.19271],[-101.77353188325772,37.18757166534706],[-101.777385316,37.187594841],[-101.778787436,37.18460451],[-101.770757047,37.18535901],[-101.768220556,37.184503526],[-101.75528998484366,37.184569885130685],[-101.75521,37.1781],[-101.75173207626202,37.178107610336404],[-101.751510138,37.174254041],[-101.74136607,37.174399308],[-101.739114203,37.175349278],[-101.735073116,37.174396161],[-101.72996706,37.17605549],[-101.731763511,37.178662215],[-101.730542518,37.181494888],[-101.727739112,37.181869917],[-101.72421211,37.179393356],[-101.722241007,37.182708053],[-101.721936763,37.191376991],[-101.723672475,37.191275957],[-101.725948855,37.188943759],[-101.728211665,37.189333335],[-101.729461181,37.190939002],[-101.731594604,37.190814818],[-101.735128109,37.190519059],[-101.738960804,37.188140584],[-101.743554462,37.190941903],[-101.744369039,37.193600606],[-101.742257998,37.198727326],[-101.739799075172,37.19998093403558],[-101.73704,37.19999],[-101.73703,37.20723],[-101.75527939713496,37.20763526855665],[-101.75527120946222,37.21354676827544],[-101.749711736,37.21341601],[-101.747650778,37.210880139],[-101.746132921,37.210777998],[-101.746657212,37.212599302],[-101.74591666480332,37.21444395658484],[-101.732368448,37.213976064],[-101.730270406,37.212499872],[-101.73001396,37.210143408],[-101.72792205587298,37.21015350263715],[-101.72791,37.20724],[-101.71877,37.20724],[-101.71882,37.21451],[-101.71586944764731,37.21451],[-101.715723106,37.21021237],[-101.71252905,37.211644757],[-101.7100426321211,37.210953770452456],[-101.71002,37.20003],[-101.70561670285187,37.20001553133467],[-101.70374,37.198643879],[-101.70374,37.200009364731656],[-101.70089,37.2],[-101.70092,37.20728],[-101.69800276288402,37.207260786583205],[-101.69774,37.194528377],[-101.697001053,37.193304008],[-101.694076051,37.19450693],[-101.69648385,37.199226488],[-101.696540571,37.203636766],[-101.69423667339431,37.207235982481194],[-101.69181,37.20722],[-101.6918198810848,37.21080683377887],[-101.68729232073964,37.21447600907717],[-101.67865735810987,37.21446841456299],[-101.677573203,37.210447601],[-101.679610474,37.207974715],[-101.677748077,37.20695715],[-101.674472533,37.21049657],[-101.677444233,37.211865192],[-101.67808332128543,37.214467909693305],[-101.65521330557269,37.21444779534352],[-101.655342234,37.21272497],[-101.654503058,37.212419523],[-101.651556412,37.213979955],[-101.648899313,37.212403016],[-101.642934332,37.216005959],[-101.639166421,37.214730189],[-101.634867074,37.211266928],[-101.632727128,37.212716492],[-101.629873527,37.211619426],[-101.6281794246993,37.21195651121174],[-101.62817802947355,37.20586076990559],[-101.630310757,37.205306261],[-101.629851667,37.201850627],[-101.63274424,37.200271817],[-101.63308061,37.19551395],[-101.636078676,37.193718932],[-101.639637599,37.195157764],[-101.639254755,37.192791969],[-101.64069069,37.190927245],[-101.632511105,37.190746225],[-101.62817414160969,37.188874692741116],[-101.6281726946878,37.182553091042],[-101.633564586,37.184754823],[-101.642034633,37.185077543],[-101.642390517,37.184788674],[-101.639514267,37.183214249],[-101.639661625,37.180139899],[-101.635427351,37.179716243],[-101.632728106,37.181309551],[-101.628860549,37.180069898],[-101.62817195205085,37.17930851018683],[-101.62817054099999,37.1731436289882],[-101.632093944,37.174039766],[-101.638098756,37.173613889],[-101.641046064,37.175913921],[-101.640930859,37.179066713],[-101.643596911,37.17822907],[-101.64359346075159,37.17083098664711],[-101.64632,37.17084],[-101.64634,37.16357],[-101.65543,37.16356],[-101.65543365733524,37.16090111727615],[-101.658000192,37.16276282],[-101.658214328,37.167936753],[-101.666322525,37.167955501],[-101.666784878,37.165719474],[-101.669618597,37.164421973],[-101.66961151250054,37.16355560739262],[-101.6736,37.16356],[-101.67359610800577,37.16073052019029],[-101.675471832,37.162660047],[-101.675608257,37.167976971],[-101.678191211,37.166630251],[-101.680738229,37.167988832],[-101.683009942,37.167994085],[-101.685474261,37.164862276],[-101.688500725,37.164745159],[-101.688545952,37.15584362],[-101.685081679,37.155109741],[-101.684079414,37.152235658],[-101.678164992,37.152162343],[-101.676340282,37.151272537],[-101.67353315894573,37.14777663838516],[-101.6735,37.14175],[-101.67679388813214,37.14175360776356],[-101.679945948,37.146194311],[-101.6826361362147,37.14622102807745],[-101.68264,37.14903],[-101.69457545131675,37.1490628257737],[-101.694573763,37.150385183],[-101.698046975,37.150634089],[-101.699009391,37.153825554],[-101.697802623,37.155447135],[-101.694539927,37.157044761],[-101.694517367,37.161484979],[-101.697671973,37.161073727],[-101.702205413,37.162988486],[-101.703680473,37.165181613],[-101.705954611,37.161642784],[-101.710800058,37.158996193],[-101.709639314,37.151924198],[-101.704073976,37.15183679],[-101.70208808,37.149476478],[-101.702091656,37.144784111],[-101.703463842,37.142943138],[-101.70654845,37.142950505],[-101.708629954,37.145774528],[-101.70744327728879,37.13816],[-101.7134604443876,37.13816],[-101.715146091,37.148430042],[-101.716359058,37.151020241],[-101.716606508,37.157327839],[-101.72280300890785,37.156335288219026],[-101.7367,37.15632],[-101.73667944892823,37.15257970493671],[-101.73958331,37.150724516],[-101.739829679,37.147605249],[-101.738645748,37.144903013],[-101.740583762,37.140839537],[-101.738694527,37.139354735],[-101.738542121,37.136865244],[-101.728582349,37.137874914],[-101.72831581115219,37.14905379204768],[-101.72211393642247,37.149064043080294],[-101.721625098,37.148009467],[-101.72262464,37.136137194],[-101.719796572,37.130271595],[-101.721719698,37.127859864],[-101.724614162,37.12830815],[-101.72463901808578,37.12723641185443],[-101.72755,37.12723],[-101.72750804471647,37.10979458288676],[-101.730186458,37.111653654],[-101.730392058,37.117048564],[-101.736961548,37.117458182],[-101.739664233,37.121482827],[-101.739007376,37.123682967],[-101.7372782,37.124729755],[-101.735277454,37.124441955],[-101.733934244,37.123084151],[-101.73073767,37.123052305],[-101.730543485,37.131425101],[-101.743860295,37.130480824],[-101.748967439,37.131530979],[-101.750390689,37.129557011],[-101.75231948,37.12895238],[-101.755424964,37.13146433],[-101.760805717,37.129928098],[-101.763782744,37.126356395],[-101.774152746,37.124065956],[-101.774735932,37.121876343],[-101.776400948,37.120730248],[-101.779153793,37.121379541],[-101.780157221,37.124044986],[-101.789206717,37.124013381],[-101.793031046,37.121321589],[-101.796539987,37.120610975],[-101.798817542,37.122288019],[-101.798688473,37.125113453],[-101.790035474,37.130010523],[-101.788804822,37.132830409],[-101.786000245,37.133196585],[-101.78398775,37.130031645],[-101.782230878,37.13003778],[-101.783979624,37.132160469],[-101.784325478,37.13679864],[-101.7861752,37.13526561],[-101.788706416,37.135682583],[-101.790520358,37.139549227],[-101.7912182604055,37.1390022625332],[-101.79124,37.14164],[-101.80035,37.14164],[-101.8003189364634,37.1388093352273],[-101.804775938,37.137943434],[-101.810669707,37.135242123],[-101.806604425,37.13250472],[-101.803895393,37.133146125],[-101.801921162,37.131508037],[-101.802287344,37.12717065],[-101.806707218,37.124010147],[-101.806573904,37.118894837],[-101.803312463,37.118440144],[-101.801957446,37.11561802],[-101.799690103,37.116570659],[-101.797721993,37.11610984],[-101.796447391,37.112843374],[-101.793918331,37.111194862],[-101.79497172583986,37.09799697241272],[-101.8009695345344,37.097977098957806],[-101.80012,37.11252],[-101.8092,37.1125],[-101.80919,37.10523],[-101.80653375814936,37.10523585720364],[-101.80637376853939,37.0979591922845],[-101.83631,37.09786],[-101.83618,37.0833],[-101.84107316537316,37.083289233959576],[-101.842906464,37.084979038],[-101.843466519,37.087423887],[-101.841682525,37.090999632],[-101.843042086,37.091837067],[-101.857151187,37.088923045],[-101.856477851,37.085667661],[-101.859232223,37.083790129],[-101.86345913738893,37.08375099090381],[-101.86358,37.09051],[-101.87263,37.09052],[-101.87257798752486,37.08105372952466],[-101.878730951,37.076767705],[-101.878725712,37.074743837],[-101.876471477,37.075387279],[-101.874474161,37.074254669],[-101.874097898,37.071193087],[-101.87675082767966,37.068675382429475],[-101.88163,37.06867],[-101.88158948638089,37.06498832486321],[-101.885590378,37.062469585],[-101.887989607,37.063377671],[-101.888809703,37.065808383],[-101.884713885,37.070166842],[-101.884720171,37.072595742],[-101.8906582472802,37.0691746161574],[-101.8906989060304,37.07574326313332],[-101.884739065,37.079894762],[-101.88244701,37.086212811],[-101.877606584,37.090409957],[-101.879563784,37.092033143],[-101.889453699,37.086136767],[-101.898387404,37.085628732],[-101.898005342,37.082568863],[-101.900524305,37.080788502],[-101.902473321,37.081324361],[-101.908387009,37.086245848],[-101.914634539,37.087119735],[-101.91491008736779,37.07600956747084],[-101.91773,37.07602],[-101.9177,37.07238],[-101.91485255320953,37.07235777912204],[-101.914834553,37.071215276],[-101.911561231,37.071197585],[-101.904696792,37.066505699],[-101.90179781592269,37.06863371305305],[-101.89975,37.06862],[-101.89968919944116,37.06273855927384],[-101.904094501,37.059504817],[-101.904231954,37.057214627],[-101.89963143268672,37.05715058856136],[-101.8996,37.05411],[-101.8966104686999,37.05411329606538],[-101.897960992,37.051645008],[-101.896336824,37.04957874],[-101.896414293,37.047256796],[-101.899379694,37.045373768],[-101.89951,37.04686],[-101.90212343276971,37.04686579689339],[-101.902497984,37.048807118],[-101.901464992,37.051175531],[-101.910226493,37.051297489],[-101.910533554,37.049164774],[-101.912275756,37.047669178],[-101.919481217,37.047876768],[-101.920813497,37.049746824],[-101.92076091260428,37.05418380809057],[-101.90859,37.05415],[-101.90868,37.06505],[-101.92662,37.0651],[-101.92659,37.0542],[-101.93545,37.0542],[-101.93540478508375,37.03445916756243],[-101.937717318,37.03330435],[-101.941458969,37.033790818],[-101.942819345,37.037090778],[-101.94447953840468,37.03668488403924],[-101.9445,37.03966],[-101.94736329569056,37.03966],[-101.949103162,37.050791844],[-101.953840104,37.051121978],[-101.955643387,37.052157916],[-101.956274827,37.059309153],[-101.962625645,37.059290771],[-101.965629152,37.062271398],[-101.965634771,37.064836722],[-101.963936854,37.066382412],[-101.96191552,37.066386839],[-101.960320114,37.065160523],[-101.956199102,37.065363171],[-101.956399144,37.071884361],[-101.97518187,37.071633463],[-101.976223032,37.070456379],[-101.973815351,37.063839099],[-101.97482647697977,37.061412842907735],[-101.97878634835206,37.06140413989373],[-101.979883811,37.063322545],[-101.992505321,37.058247845],[-101.986494572,37.048246431],[-101.986255546,37.042541919],[-101.98065434737329,37.042496844478976],[-101.98064940000332,37.03652207068144],[-101.98580942,37.036539153],[-101.986907167,37.027965888],[-101.98064232510201,37.02797794820471],[-101.98064,37.02517],[-101.97158,37.02516],[-101.97158782173429,37.027995378678774],[-101.968845924,37.028000657],[-101.967155157,37.03226845],[-101.964507877,37.033264263],[-101.962092089,37.031346236],[-101.962505119,37.028012863],[-101.9534818516364,37.028024145461465],[-101.95345707727414,37.022037007916566],[-101.961821002,37.022014169],[-101.96248900093444,37.01766889217607],[-101.96727753221347,37.01791528425189],[-101.967821351,37.022002618],[-101.976812692,37.021985309],[-101.975624247,37.020563365],[-101.975550273,37.01854338],[-101.978447446,37.016450234],[-101.983148712,37.018206743],[-101.983931422,37.021971606],[-102.00939166,37.021922593],[-102.010692835,37.018916211],[-102.014794596,37.018346893],[-102.011454081,37.017281188],[-102.009192595,37.014689105],[-102.009479258,37.009215988],[-102.011973981,37.007401818],[-102.014381136,37.008288682],[-102.022968762,37.018932283],[-102.023541352,37.008480978],[-102.025848881,37.007360161],[-102.028334681,37.008638073],[-102.029023776,37.00692132],[-102.030764462,37.005893788],[-102.0346232,37.006956818],[-102.036540515,37.005545656],[-102.039082505,37.006128666],[-102.03912000777915,36.993092836152535],[-102.04212,36.99308],[-102.04210386187572,37.013478022958076]],[[-101.9897,37.03241],[-101.9897,37.03966],[-101.99874,37.03966],[-101.99873320018538,37.03719506720105],[-102.009091815,37.036530791],[-102.009383065,37.027922621],[-102.00242849,37.027936009],[-102.001786859,37.030541719],[-101.999449799,37.03159958],[-101.997149446,37.030464107],[-101.996332517,37.027947744],[-101.992910418,37.027954332],[-101.99220971255495,37.03241],[-101.9897,37.03241]],[[-102.015089993,37.035803654],[-102.01680349600747,37.036672777351555],[-102.01682,37.03966],[-102.02586,37.03966],[-102.02584,37.03241],[-102.02383447177385,37.03241],[-102.025223199,37.031437914],[-102.024840782,37.027892864],[-102.015407635,37.027911023],[-102.015089993,37.035803654]],[[-101.996444158,37.052021627],[-101.998313767,37.05660731],[-102.005651813,37.056170884],[-102.005004595,37.053138952],[-102.003009574,37.051351601],[-102.003119153,37.048911502],[-102.000361455,37.043006899],[-101.992856387,37.043806762],[-101.993226479,37.048001748],[-101.996444158,37.052021627]],[[-102.010401497,37.050006134],[-102.017014852,37.049187188],[-102.017758328,37.046377515],[-102.015655026,37.047823677],[-102.01363377,37.047805356],[-102.011753419,37.045692534],[-102.012539396,37.042724005],[-102.007216917,37.042497287],[-102.010401497,37.050006134]],[[-102.024128006,37.04935462],[-102.027249571,37.047649348],[-102.032970889,37.046176038],[-102.033578818,37.045020973],[-102.031602508,37.04247145],[-102.028605374,37.042399276],[-102.026186961,37.043981402],[-102.023773206,37.043041938],[-102.023789066,37.04855862],[-102.024128006,37.04935462]],[[-102.016745647,37.055209903],[-102.015210039,37.055146367],[-102.015209205,37.05535223],[-102.016745647,37.055209903]],[[-102.007650301,37.062062627],[-102.004892269,37.06222666],[-102.008296517,37.063586256],[-102.007650301,37.062062627]],[[-102.015255196,37.061373658],[-102.014475442,37.064900857],[-102.014716195,37.067108618],[-102.016469497,37.067187267],[-102.016710034,37.063854954],[-102.017876742,37.062204316],[-102.02247389,37.062102357],[-102.024429507,37.064185774],[-102.025581765,37.060785202],[-102.015255196,37.061373658]],[[-102.007543416,37.069587656],[-101.985443381,37.074377801],[-101.98625251,37.078028573],[-101.983759912,37.080241863],[-101.976686045,37.07765272],[-101.967686483,37.078226069],[-101.964505581,37.077429736],[-101.965982942,37.079930152],[-101.96575558,37.082155671],[-101.964319084,37.084007357],[-101.960371251,37.086071678],[-101.957235661,37.084356175],[-101.957057148,37.082342734],[-101.958437752,37.080515236],[-101.956682413,37.078876434],[-101.955964648,37.084483786],[-101.951446868,37.089409906],[-101.948013891,37.091187743],[-101.949569529,37.095266869],[-101.948280626,37.0977845],[-101.945471216,37.098111536],[-101.943093208,37.095997156],[-101.933289026,37.100778854],[-101.922698194,37.101995794],[-101.914644662,37.10785041],[-101.907683148,37.109422282],[-101.903550249,37.113612279],[-101.899072892,37.115876646],[-101.898734551,37.118839588],[-101.899859998,37.121176862],[-101.899211133,37.123040063],[-101.905134898,37.122465954],[-101.90644838,37.121470325],[-101.907226099,37.118953163],[-101.910854528,37.117100022],[-101.911577143,37.114160693],[-101.914922477,37.112212686],[-101.914663169,37.10989921],[-101.916107373,37.108114174],[-101.922614146,37.106094624],[-101.925671865,37.106902901],[-101.92981626,37.103914923],[-101.935564274,37.103439401],[-101.936414783,37.101612668],[-101.938254508,37.100734588],[-101.940230673,37.101234977],[-101.942846728,37.104740689],[-101.944546175,37.105229681],[-101.946237741,37.100945247],[-101.948682565,37.09938524],[-101.950955897,37.095014977],[-101.953696701,37.094953068],[-101.968784684,37.087902096],[-101.97032581,37.085754236],[-101.973060588,37.085709966],[-101.978624494,37.08218913],[-101.987542,37.081163274],[-101.993807421,37.077270873],[-101.995695803,37.07507759],[-101.997716999,37.075053546],[-102.000246081,37.076675846],[-102.004727583,37.074944047],[-102.006760148,37.075202642],[-102.007543416,37.069587656]],[[-102.038968037,37.10903887],[-102.039019813,37.106605598],[-102.038342864,37.109040732],[-102.038968037,37.10903887]],[[-101.991617626,37.09205223],[-101.994138328,37.091386311],[-101.993649253,37.088494561],[-101.994477482,37.086650694],[-101.997590975,37.085646067],[-101.995101435,37.08393362],[-101.993572189,37.08570292],[-101.987756694,37.087159433],[-101.986937542,37.089203567],[-101.982441083,37.092835044],[-101.980212902,37.092728506],[-101.976873048,37.090414913],[-101.97479562,37.091563011],[-101.975243468,37.099837595],[-101.98178584,37.100915418],[-101.983546402,37.096118222],[-101.986040725,37.094542514],[-101.990582458,37.094071297],[-101.991617626,37.09205223]],[[-102.006046073,37.083656573],[-102.005855967,37.082735957],[-102.004740355,37.082992245],[-102.005074452,37.083906188],[-102.006046073,37.083656573]],[[-102.000213068,37.094107052],[-102.001621544,37.091467457],[-102.003564892,37.090668999],[-102.00282076,37.090053465],[-102.00013271,37.09109577],[-102.000213068,37.094107052]],[[-101.979358184,37.106492578],[-101.98025094,37.111215279],[-101.98030581,37.106730055],[-101.979358184,37.106492578]],[[-101.964537514,37.107123722],[-101.96548316,37.110560596],[-101.967996594,37.112465552],[-101.971779777,37.113038072],[-101.974326684,37.116154496],[-101.977798136,37.116124421],[-101.974943919,37.114108374],[-101.973321727,37.106927751],[-101.970540645,37.104118017],[-101.964537514,37.107123722]],[[-101.961683781,37.117223094],[-101.96554795,37.118992597],[-101.965765205,37.123681626],[-101.968687334,37.123680753],[-101.968631075,37.118538684],[-101.965733409,37.11816845],[-101.960258547,37.115391437],[-101.960148823,37.117732863],[-101.961683781,37.117223094]],[[-101.949916628,37.113411111],[-101.949847818,37.123461012],[-101.953865068,37.123647488],[-101.953963491,37.113889376],[-101.949916628,37.113411111]],[[-101.917877872,37.113729855],[-101.918115471,37.11427823],[-101.921234104,37.112742904],[-101.917877872,37.113729855]],[[-101.933661687,37.114061965],[-101.93809477,37.123689891],[-101.94364743,37.123688232],[-101.943330115,37.111123214],[-101.939178538,37.109928656],[-101.931988798,37.109643894],[-101.930651056,37.110657738],[-101.933661687,37.114061965]],[[-101.890717156,37.123329632],[-101.886131408,37.124193813],[-101.882153843,37.126306428],[-101.888718344,37.125042733],[-101.890717156,37.123329632]],[[-101.893713345,37.114633213],[-101.893939362,37.110301293],[-101.884872963,37.108773992],[-101.883742353,37.106775542],[-101.884356008,37.104562963],[-101.886064357,37.103482521],[-101.891120121,37.103318839],[-101.897269758,37.104512864],[-101.900274133,37.106231049],[-101.90197665,37.104601005],[-101.904098898,37.104610488],[-101.908834925,37.102351632],[-101.912346514,37.102165598],[-101.921540297,37.096106937],[-101.917835591,37.092243055],[-101.91569357,37.093263749],[-101.911385351,37.09272366],[-101.909602711,37.094531867],[-101.907316713,37.09474702],[-101.905698392,37.093535885],[-101.905248373,37.091359456],[-101.902593965,37.089727106],[-101.900822247,37.091401156],[-101.89436213,37.091805644],[-101.892176785,37.093607994],[-101.889607445,37.092934666],[-101.883666807,37.096414971],[-101.880442553,37.099578493],[-101.881095571,37.102934103],[-101.878963418,37.10516318],[-101.875455208,37.103887067],[-101.874427303,37.100937118],[-101.866688992,37.100852762],[-101.866622986,37.109004749],[-101.871091808,37.112481876],[-101.870820453,37.115804235],[-101.868520039,37.116939583],[-101.865312572,37.115474414],[-101.862861885,37.115918461],[-101.855852202,37.122095266],[-101.848889494,37.12237987],[-101.848655955,37.125255468],[-101.850165812,37.125927029],[-101.881509894,37.116022726],[-101.893713345,37.114633213]],[[-101.944768033,37.055670889],[-101.943475985,37.053643265],[-101.941421286,37.038950108],[-101.938957342,37.039314735],[-101.938510439,37.049852794],[-101.941872108,37.065394821],[-101.950198927,37.065339677],[-101.950304681,37.056884918],[-101.944768033,37.055670889]],[[-101.929812597,37.058683435],[-101.929892146,37.065739495],[-101.935820678,37.065878612],[-101.93389568,37.057751812],[-101.929812597,37.058683435]],[[-101.944610494,37.076955522],[-101.950734622,37.077134592],[-101.950325159,37.071338972],[-101.943291135,37.071385555],[-101.944610494,37.076955522]],[[-101.993990151,37.064084861],[-101.986224847,37.068204949],[-101.994683859,37.066994968],[-101.993990151,37.064084861]],[[-101.946701254,37.084790498],[-101.947621919,37.084724117],[-101.949178536,37.083027706],[-101.94566636,37.082868783],[-101.946701254,37.084790498]],[[-101.936865772,37.088344352],[-101.93485261,37.08656336],[-101.93478532,37.083998913],[-101.936445586,37.08241285],[-101.939695678,37.082237775],[-101.937250237,37.07191381],[-101.933923387,37.071835743],[-101.933479526,37.074069027],[-101.931569877,37.075351436],[-101.920901737,37.075432277],[-101.921081393,37.086835349],[-101.924507656,37.088135277],[-101.925903728,37.091988548],[-101.930043534,37.094868762],[-101.93193586,37.094885169],[-101.941623107,37.089955843],[-101.941290639,37.088190834],[-101.936865772,37.088344352]],[[-101.870135118,37.094889972],[-101.869785223,37.093559752],[-101.866668414,37.093600718],[-101.866671965,37.094852219],[-101.870135118,37.094889972]],[[-101.858910031,37.111402245],[-101.860673123,37.10818236],[-101.860699714,37.104639408],[-101.857327231,37.103662515],[-101.856372636,37.100879971],[-101.848704304,37.100932194],[-101.84875069323527,37.105122695848166],[-101.84542,37.10513],[-101.84538,37.11241],[-101.84884831987425,37.11240237731896],[-101.848912108,37.116379755],[-101.853455263,37.116364017],[-101.858910031,37.111402245]],[[-101.834356657,37.108947228],[-101.830290875,37.108772749],[-101.830271178,37.110179693],[-101.831534668,37.110226107],[-101.834356657,37.108947228]],[[-101.860670438,37.094322831],[-101.858418689,37.094787896],[-101.860671936,37.094850552],[-101.860670438,37.094322831]],[[-101.838503167,37.103119651],[-101.838554021,37.10100132],[-101.830398898,37.101056858],[-101.830374902,37.102770833],[-101.838503167,37.103119651]],[[-101.812619105,37.112391126],[-101.824190132,37.113148095],[-101.824299947,37.108082802],[-101.812790763,37.108167429],[-101.812619105,37.112391126]],[[-101.812726277,37.128983386],[-101.820597001,37.13220526],[-101.82431133,37.125971422],[-101.824150932,37.119147975],[-101.812568234,37.118599048],[-101.812726277,37.128983386]],[[-101.829866823,37.116168886],[-101.830251492,37.127262596],[-101.828332331,37.130944812],[-101.834405703,37.131144523],[-101.841682397,37.129569156],[-101.84245843609811,37.12699],[-101.84543,37.12699],[-101.84541,37.11969],[-101.84297688727551,37.11969267963956],[-101.842834833,37.111609539],[-101.833110795,37.116085144],[-101.829866823,37.116168886]],[[-101.845399445,37.134706506],[-101.838225704,37.136456513],[-101.841697596,37.138750166],[-101.843563867,37.136522528],[-101.846256841,37.135930402],[-101.850161888,37.132905017],[-101.855027399,37.13193134],[-101.857198005,37.129501079],[-101.845399445,37.134706506]],[[-101.860584881,37.12867341],[-101.860255158,37.128753986],[-101.860437854,37.128760511],[-101.860584881,37.12867341]],[[-101.898632658,37.129244348],[-101.899584339,37.129485722],[-101.900094464,37.129324523],[-101.898632658,37.129244348]],[[-101.894812234,37.133839528],[-101.890989131,37.13071576],[-101.884267768,37.132009651],[-101.886701832,37.135268773],[-101.884790184,37.138288786],[-101.882769463,37.138338752],[-101.879038479,37.135423081],[-101.878382616,37.135945585],[-101.880871917,37.138579071],[-101.89900136,37.138074274],[-101.89949881,37.137306657],[-101.89760581,37.136249064],[-101.896920179,37.134350897],[-101.894812234,37.133839528]],[[-101.86475353,37.138851547],[-101.875702665,37.129218982],[-101.874292774,37.129014907],[-101.870776806,37.13229769],[-101.862960217,37.134240063],[-101.865103118,37.136145109],[-101.86475353,37.138851547]],[[-101.86026002,37.134874087],[-101.860442248,37.134764493],[-101.860329015,37.134760449],[-101.86026002,37.134874087]],[[-101.852781451,37.138409439],[-101.84620171,37.143646205],[-101.848564323,37.142815614],[-101.853126058,37.143160867],[-101.853716349,37.139720655],[-101.852781451,37.138409439]],[[-101.842829268,37.145016964],[-101.841441986,37.145003195],[-101.841725113,37.145465758],[-101.842829268,37.145016964]],[[-101.833302831,37.14454126],[-101.831243701,37.144712388],[-101.826429055,37.142337097],[-101.82802391,37.147815149],[-101.836064825,37.146431952],[-101.837282293,37.144371527],[-101.835214294,37.142992852],[-101.833302831,37.14454126]],[[-101.831556587,37.138210628],[-101.831481359,37.137386838],[-101.830136617,37.137490136],[-101.831556587,37.138210628]],[[-101.859123482,37.142559116],[-101.861731922,37.141796167],[-101.861889589,37.140895548],[-101.859123482,37.142559116]],[[-101.747004971,37.137542711],[-101.746367506,37.148052403],[-101.747079589,37.148144395],[-101.759704562,37.147777948],[-101.759487311,37.142772775],[-101.761791819,37.140722385],[-101.76500866,37.142280207],[-101.76576566,37.148195703],[-101.77483293073136,37.14533233876601],[-101.77764,37.14532],[-101.77764,37.14445657589218],[-101.78502436,37.142152768],[-101.784096724,37.138893935],[-101.782744936,37.141675048],[-101.779180729,37.143268376],[-101.77764,37.14328635215864],[-101.77764,37.14168],[-101.774934437,37.141304576],[-101.775069774,37.137732944],[-101.778311026,37.136751141],[-101.775976115,37.130059625],[-101.773227226,37.131270845],[-101.766764505,37.131806569],[-101.766645761,37.135743148],[-101.760238887,37.140775412],[-101.757197965,37.14025806],[-101.756202652,37.137438689],[-101.747004971,37.137542711]],[[-101.746112265,37.159267612],[-101.74684536,37.162553354],[-101.759786258,37.161882694],[-101.757709056,37.156863981],[-101.747767839,37.158082049],[-101.746112265,37.159267612]],[[-101.73015641,37.161367062],[-101.727581668,37.167419748],[-101.723829138,37.168686458],[-101.725145132,37.171331604],[-101.734362317,37.168318279],[-101.74109243,37.164734118],[-101.740709104,37.162000101],[-101.73896068,37.160422205],[-101.73015641,37.161367062]],[[-101.719795712,37.162977547],[-101.7206756,37.16308581],[-101.721121056,37.162812781],[-101.719795712,37.162977547]],[[-101.703971916,37.17163237],[-101.707327534,37.172863102],[-101.707123881,37.176431492],[-101.69616562,37.185807967],[-101.688968687,37.188951967],[-101.69169246,37.188999613],[-101.707141494,37.183583648],[-101.705066542,37.181391093],[-101.70503007,37.178826021],[-101.706709274,37.177260022],[-101.708825533,37.17726911],[-101.709576141,37.174528629],[-101.71372702,37.170289462],[-101.711307316,37.168075449],[-101.703971916,37.17163237]],[[-101.754020514,37.168426138],[-101.753930676,37.16819421],[-101.752159843,37.168285983],[-101.754020514,37.168426138]],[[-101.715249346,37.18627764],[-101.715276828,37.188036227],[-101.714944227,37.188787191],[-101.716049151,37.188069421],[-101.716104155,37.186502173],[-101.715249346,37.18627764]],[[-101.708132871,37.194366787],[-101.705790323,37.190507544],[-101.703353749,37.191156129],[-101.708132871,37.194366787]],[[-101.712819843,37.198485899],[-101.714150962,37.195178359],[-101.708842879,37.194851678],[-101.712819843,37.198485899]],[[-101.724559804,37.198927839],[-101.722247877,37.199302135],[-101.72345,37.20178],[-101.722242876,37.204180839],[-101.725616229,37.202580002],[-101.72825757,37.204151814],[-101.733941253,37.204124387],[-101.73383726,37.20117098],[-101.733075427,37.20023334],[-101.729575663,37.200216338],[-101.728442421,37.197008459],[-101.72585627,37.197158997],[-101.724559804,37.198927839]],[[-101.678327495,37.189460542],[-101.675788559,37.189827588],[-101.674019036,37.188364418],[-101.673802412,37.186078559],[-101.675383631,37.183662555],[-101.674102565,37.184294353],[-101.670620921,37.191156495],[-101.668404221,37.191755092],[-101.66660441,37.190835042],[-101.665814908,37.188394221],[-101.667696875,37.183904639],[-101.666153334,37.182484791],[-101.665979329,37.180195293],[-101.667219374,37.178599016],[-101.670677201,37.177013875],[-101.6700335,37.173964097],[-101.663558619,37.173949126],[-101.663366004,37.177298512],[-101.658881515,37.179737542],[-101.657763954,37.19452273],[-101.65469089060302,37.1999042144011],[-101.65086,37.1999],[-101.65087,37.20353],[-101.65996,37.20354],[-101.65995647954024,37.20226207311017],[-101.660219857,37.202910308],[-101.662737024,37.202220294],[-101.664946501,37.203986065],[-101.664709154,37.206798485],[-101.666853664,37.206026596],[-101.665730834,37.203619274],[-101.667122559,37.201156991],[-101.669094355,37.200712208],[-101.674147042,37.202087721],[-101.676894593,37.199406287],[-101.6746025,37.196927492],[-101.675672866,37.193770592],[-101.678180185,37.193228126],[-101.681256084,37.195149753],[-101.682933221,37.193512974],[-101.681554954,37.191162334],[-101.682418272,37.185503063],[-101.678327495,37.189460542]],[[-101.696557761,37.167604031],[-101.694660214,37.16622964],[-101.694493937,37.166096293],[-101.69448416,37.168020615],[-101.696557761,37.167604031]],[[-101.676158684,37.17397826],[-101.680095388,37.179938963],[-101.683671488,37.17842],[-101.689202638,37.179771745],[-101.689565571,37.177713444],[-101.687490176,37.175726315],[-101.68722,37.17086],[-101.6827,37.17084],[-101.68270867511552,37.17399340448948],[-101.676158684,37.17397826]],[[-101.690084791,37.181998331],[-101.690085475,37.181997854],[-101.690084859,37.181996445],[-101.690084791,37.181998331]],[[-101.652149735,37.191794904],[-101.649502341,37.191609949],[-101.649819296,37.194310479],[-101.651720789,37.193353609],[-101.652149735,37.191794904]],[[-101.649657549,37.181101758],[-101.649555531,37.184095913],[-101.652912245,37.182982661],[-101.652892115,37.1808757],[-101.649657549,37.181101758]],[[-101.639299643,37.20693284],[-101.639204,37.206792134],[-101.639135644,37.20683401],[-101.639299643,37.20693284]],[[-101.644377004,37.206893385],[-101.642960046,37.208022425],[-101.640996697,37.208150894],[-101.642585491,37.209638382],[-101.645431396,37.207503953],[-101.644377004,37.206893385]],[[-101.689984546,37.201169318],[-101.689201194,37.19820282],[-101.686031105,37.199306959],[-101.689184895,37.201015375],[-101.689984546,37.201169318]],[[-101.687284235,37.206759645],[-101.683077907,37.204607812],[-101.682592474,37.206704436],[-101.681050061,37.207865583],[-101.683480318,37.209842373],[-101.687284235,37.206759645]],[[-101.951413468,37.104743673],[-101.950542683,37.1062069],[-101.952066264,37.107084939],[-101.951413468,37.104743673]],[[-101.960415983,37.102672573],[-101.962140233,37.097638718],[-101.95640612,37.100309992],[-101.957669419,37.104840838],[-101.960415983,37.102672573]],[[-101.91543,37.06873],[-101.91544,37.07054],[-101.91768,37.07056],[-101.91767,37.06874],[-101.91543,37.06873]],[[-101.74604,37.15126],[-101.74615,37.15365],[-101.75534,37.1536],[-101.7551,37.15123],[-101.74604,37.15126]]]},"properties":{"flat_pct":100}},{"type":"Feature","geometry":{"type":"Polygon","coordinates":[[[-101.770377253,37.113737988],[-101.767942651,37.1118439],[-101.768465424,37.108803905],[-101.773190808,37.105958921],[-101.774882106,37.103396219],[-101.778199931,37.103718306],[-101.779285963,37.10632987],[-101.777777949,37.110706604],[-101.7753393157765,37.112567196806374],[-101.77278,37.11257],[-101.77279530684402,37.1138081536047],[-101.770377253,37.113737988]]]},"properties":{"flat_pct":100}},{"type":"Feature","geometry":{"type":"Polygon","coordinates":[[[-101.766785381,37.118853546],[-101.764422532,37.121801371],[-101.762404585,37.121918415],[-101.760770438,37.120728719],[-101.760254959,37.118946292],[-101.756707445,37.117658962],[-101.755904901,37.108176755],[-101.750879444,37.103475824],[-101.752048733,37.100354212],[-101.754852332,37.099980623],[-101.758884376,37.102901823],[-101.760296115,37.10110702],[-101.762575462,37.10083015],[-101.764225932,37.101997096],[-101.764844533,37.104152057],[-101.768374242,37.105418101],[-101.768507336,37.108499845],[-101.765713951,37.110097246],[-101.767014124,37.112382333],[-101.766785381,37.118853546]]]},"properties":{"flat_pct":100}},{"type":"Feature","geometry":{"type":"Polygon","coordinates":[[[-101.795265564,37.168208618],[-101.796881007,37.166215815],[-101.799446291,37.166200348],[-101.800998487,37.167892319],[-101.80123046862634,37.17078862738759],[-101.79528922644847,37.17077116598515],[-101.795265564,37.168208618]]]},"properties":{"flat_pct":100}},{"type":"Feature","geometry":{"type":"Polygon","coordinates":[[[-101.791437888,37.1758907],[-101.79079727496634,37.17802389537158],[-101.78254496421431,37.178069639887944],[-101.781777313,37.176259337],[-101.782323819,37.174313279],[-101.784550398,37.172425818],[-101.785254865,37.169079494],[-101.787756623,37.167760046],[-101.790517957,37.169627325],[-101.790428477,37.173908561],[-101.791437888,37.1758907]]]},"properties":{"flat_pct":100}},{"type":"Feature","geometry":{"type":"Polygon","coordinates":[[[-101.897671353,37.174100851],[-101.893283807,37.180956956],[-101.891280068,37.181223119],[-101.889562305,37.180157707],[-101.88892458345195,37.178023255797704],[-101.89089,37.17802],[-101.89087134887802,37.1734815603178],[-101.89239241586043,37.17071324182642],[-101.89849634254308,37.17068632263487],[-101.897671353,37.174100851]]]},"properties":{"flat_pct":100}},{"type":"Feature","geometry":{"type":"Polygon","coordinates":[[[-101.839337127,37.183288031],[-101.83663773696033,37.182646172199526],[-101.8366,37.17808],[-101.84113,37.17808],[-101.84116193262734,37.18193852580445],[-101.839337127,37.183288031]]]},"properties":{"flat_pct":100}},{"type":"Feature","geometry":{"type":"Polygon","coordinates":[[[-101.88365392579836,37.17803198687057],[-101.883475308,37.180197314],[-101.882027806,37.181608182],[-101.876623203,37.181182684],[-101.876882363,37.192245235],[-101.87292,37.1926],[-101.873,37.19984],[-101.86396,37.19986],[-101.8638,37.18532],[-101.85476,37.18532],[-101.8547,37.17807],[-101.86373,37.17806],[-101.86365,37.17079],[-101.8756347403496,37.17075692952442],[-101.87577790478612,37.17440330849771],[-101.87275,37.17441],[-101.87278,37.17805],[-101.88365392579836,37.17803198687057]],[[-101.87285,37.18533],[-101.86832,37.18533],[-101.867755099,37.194171829],[-101.869975191,37.194225911],[-101.8699830780448,37.1926],[-101.87292,37.1926],[-101.87285,37.18533]],[[-101.871279387,37.176549775],[-101.869805639,37.173975839],[-101.867777963,37.174008356],[-101.866906144,37.175684908],[-101.866993038,37.182128713],[-101.867617604,37.182123299],[-101.868257437,37.177605018],[-101.871279387,37.176549775]]]},"properties":{"flat_pct":100}},{"type":"Feature","geometry":{"type":"Polygon","coordinates":[[[-101.85934601959796,37.20711478767566],[-101.861278227,37.210185523],[-101.860431485,37.212020963],[-101.858024826,37.21304012],[-101.85796434810524,37.21441688253725],[-101.85485,37.21441],[-101.85488743291116,37.20756592662615],[-101.85934601959796,37.20711478767566]]]},"properties":{"flat_pct":100}},{"type":"Feature","geometry":{"type":"Polygon","coordinates":[[[-101.897613418,37.209068425],[-101.89991396360743,37.20809386051603],[-101.9002,37.21443],[-101.89698067098173,37.214433557269636],[-101.897613418,37.209068425]]]},"properties":{"flat_pct":100}},{"type":"Feature","geometry":{"type":"Polygon","coordinates":[[[-101.857472106,37.256663876],[-101.856550616,37.254560798],[-101.857600213,37.252220015],[-101.86389319618445,37.251411345847615],[-101.86391806108264,37.257412074613185],[-101.859316515,37.2574909],[-101.857472106,37.256663876]]]},"properties":{"flat_pct":100}},{"type":"Feature","geometry":{"type":"Polygon","coordinates":[[[-101.92434086,37.288019531],[-101.925372001,37.290071074],[-101.924447338,37.292463963],[-101.91844519209113,37.293178566515586],[-101.91841,37.2868],[-101.92177290314076,37.286777778173075],[-101.92434086,37.288019531]]]},"properties":{"flat_pct":100}},{"type":"Feature","geometry":{"type":"Polygon","coordinates":[[[-101.715345095,37.028084393],[-101.710188689,37.029864359],[-101.70932726371024,37.02957083615713],[-101.70931,37.02537],[-101.70146649541441,37.025335255793635],[-101.701885254,37.020337172],[-101.704847792,37.018809078],[-101.707434193,37.021135456],[-101.710174256,37.020313558],[-101.712630971,37.022406707],[-101.71381260453482,37.02221532760596],[-101.71383,37.02539],[-101.71668353011012,37.02539645595047],[-101.715345095,37.028084393]]]},"properties":{"flat_pct":100}},{"type":"Feature","geometry":{"type":"Polygon","coordinates":[[[-101.711259336,37.030776762],[-101.71213807538572,37.03267627371163],[-101.70934,37.03267],[-101.709328692682,37.029918552622476],[-101.711259336,37.030776762]]]},"properties":{}},{"type":"Feature","geometry":{"type":"Polygon","coordinates":[[[-101.701524845,37.036439574],[-101.703258395,37.033888171],[-101.706156654,37.034099429],[-101.70616152375243,37.0326629757431],[-101.70934,37.03267],[-101.70937,37.03997],[-101.70301509545683,37.03996299349003],[-101.701524845,37.036439574]]]},"properties":{"flat_pct":100}},{"type":"Feature","geometry":{"type":"Polygon","coordinates":[[[-101.651577918,37.060931656],[-101.649282554,37.060989841],[-101.647618344,37.059407918],[-101.64857213785025,37.05448283431168],[-101.65477747677839,37.054489672150716],[-101.653040751,37.05953669],[-101.651577918,37.060931656]]]},"properties":{"flat_pct":100}},{"type":"Feature","geometry":{"type":"Polygon","coordinates":[[[-101.659271542,37.067026188],[-101.660771707,37.064330939],[-101.66413223851474,37.064197770951644],[-101.66412,37.06906],[-101.66015019197827,37.069048310341515],[-101.659271542,37.067026188]]]},"properties":{"flat_pct":100}},{"type":"Feature","geometry":{"type":"Polygon","coordinates":[[[-101.66652613930086,37.06905734421711],[-101.66411432090757,37.0702363834322],[-101.66412,37.06906],[-101.66652613930086,37.06905734421711]]]},"properties":{}},{"type":"Feature","geometry":{"type":"Polygon","coordinates":[[[-101.598885622,37.074447326],[-101.596270607,37.075525023],[-101.59392171,37.073949454],[-101.593234977,37.068620607],[-101.594810546,37.06627171],[-101.597095989,37.066050742],[-101.59886829,37.067510546],[-101.599569995,37.072545368],[-101.598885622,37.074447326]]]},"properties":{"flat_pct":100}},{"type":"Feature","geometry":{"type":"Polygon","coordinates":[[[-101.635204828,37.087689565],[-101.633643679,37.088973554],[-101.631622341,37.088975708],[-101.629654115,37.086534286],[-101.625811694,37.085844815],[-101.62472125659298,37.08355],[-101.63527480155172,37.08355],[-101.635204828,37.087689565]]]},"properties":{"flat_pct":100}},{"type":"Feature","geometry":{"type":"Polygon","coordinates":[[[-101.56153541,37.086579974],[-101.561397921,37.088871954],[-101.559597172,37.090419567],[-101.562343918,37.092919633],[-101.56226558,37.095746928],[-101.560163551,37.097217437],[-101.55575698025132,37.09715300717321],[-101.5556812517994,37.07992478436476],[-101.5602,37.07966],[-101.560866576,37.07825254],[-101.563228769,37.079253024],[-101.563550868,37.082812676],[-101.560150742,37.084720136],[-101.56153541,37.086579974]]]},"properties":{"flat_pct":100}},{"type":"Feature","geometry":{"type":"Polygon","coordinates":[[[-101.60973419425541,37.10649574688347],[-101.606595514,37.106553785],[-101.603963839,37.104278814],[-101.60051732,37.104580714],[-101.599217151,37.103033015],[-101.59913575,37.101012006],[-101.59185055549437,37.10100562212846],[-101.59185606237038,37.09501414102265],[-101.60121002,37.095012583],[-101.603263042,37.092256837],[-101.605413382,37.091451782],[-101.607291965,37.092197931],[-101.608245567,37.093848757],[-101.612109022,37.092123704],[-101.613976026,37.09289837],[-101.614921128,37.094647979],[-101.620075976,37.095017841],[-101.620553167,37.090340028],[-101.621745888,37.088650992],[-101.627760019,37.087680017],[-101.630082687,37.088769115],[-101.63076235217832,37.090836664087526],[-101.62772,37.09084],[-101.62773963333248,37.093698613210385],[-101.626038924,37.093871834],[-101.625824244,37.095019444],[-101.62774870865326,37.09501997991437],[-101.62777,37.09812],[-101.60974,37.09806],[-101.60973419425541,37.10649574688347]]]},"properties":{"flat_pct":100}},{"type":"Feature","geometry":{"type":"Polygon","coordinates":[[[-101.566360631,37.094970858],[-101.567083864,37.092153476],[-101.563384482,37.091250891],[-101.562010929,37.089767934],[-101.562625881,37.086491726],[-101.565031772,37.085601443],[-101.569844693,37.086826141],[-101.57035267652793,37.08333486076578],[-101.57665748880224,37.08336273760709],[-101.575689048,37.089309641],[-101.574017566,37.092300489],[-101.574497347,37.093294601],[-101.577128993,37.094020206],[-101.578095373,37.096396554],[-101.5775699306509,37.097926506921695],[-101.57386,37.09791],[-101.57387657237773,37.10135942204995],[-101.572566887,37.102571693],[-101.572429491,37.107980752],[-101.57391275295898,37.10889015160432],[-101.57393,37.11248],[-101.5682881177027,37.112455200517374],[-101.566414823,37.108482011],[-101.562922388,37.109349153],[-101.560444152,37.111627335],[-101.558453601,37.111275882],[-101.557137844,37.109741412],[-101.558284493096,37.10513117747782],[-101.56482,37.10516],[-101.56481049709328,37.09823238099947],[-101.568943378,37.097749879],[-101.566360631,37.094970858]]]},"properties":{"flat_pct":100}},{"type":"Feature","geometry":{"type":"Polygon","coordinates":[[[-101.711387623,37.103428161],[-101.71234245033048,37.105453656907166],[-101.70945,37.10546],[-101.7094538758159,37.10263453021446],[-101.711387623,37.103428161]]]},"properties":{}},{"type":"Feature","geometry":{"type":"Polygon","coordinates":[[[-101.70945,37.10896451037857],[-101.70028,37.10910754362339],[-101.70028,37.10548],[-101.70945,37.10546],[-101.70945,37.10896451037857]]]},"properties":{"flat_pct":100}},{"type":"Feature","geometry":{"type":"Polygon","coordinates":[[[-101.67550608657427,37.10539518472171],[-101.6762763488932,37.109582545046976],[-101.67313,37.11075],[-101.67316,37.10539],[-101.67550608657427,37.10539518472171]]]},"properties":{"flat_pct":100}},{"type":"Feature","geometry":{"type":"Polygon","coordinates":[[[-101.58483705804389,37.11976],[-101.584818497,37.114594134],[-101.586732643,37.113055119],[-101.589268411,37.113443449],[-101.59049838,37.116651183],[-101.59185464928088,37.11674708101933],[-101.59187530166066,37.12274866258704],[-101.58738,37.12243419558875],[-101.58738,37.11976],[-101.58483705804389,37.11976]]]},"properties":{"flat_pct":100}},{"type":"Feature","geometry":{"type":"Polygon","coordinates":[[[-101.671594006,37.152195529],[-101.67177658625137,37.15628799843957],[-101.66453,37.15628],[-101.66444,37.14901],[-101.66915333024849,37.14901517948379],[-101.671594006,37.152195529]]]},"properties":{"flat_pct":100}},{"type":"Feature","geometry":{"type":"Polygon","coordinates":[[[-101.66452591802702,37.159247594346965],[-101.65543590947452,37.159263812025024],[-101.65544,37.15629],[-101.66453,37.15628],[-101.66452591802702,37.159247594346965]]]},"properties":{"flat_pct":100}},{"type":"Feature","geometry":{"type":"Polygon","coordinates":[[[-101.617194435,37.199581634],[-101.615724981,37.201345942],[-101.613164492,37.201681633],[-101.613173664,37.202892277],[-101.616568283,37.204397214],[-101.61732085766079,37.20709381289965],[-101.61011,37.20703],[-101.61007,37.19252],[-101.61309521318294,37.19253676947441],[-101.61310384,37.19367551],[-101.616287736,37.194229053],[-101.617230071,37.196017297],[-101.617194435,37.199581634]]]},"properties":{"flat_pct":100}},{"type":"Feature","geometry":{"type":"Polygon","coordinates":[[[-101.52245395992661,37.25752562546239],[-101.52224402555757,37.253810247296435],[-101.52307250561417,37.25201838650815],[-101.51995907724269,37.25026026025217],[-101.52444,37.25028],[-101.52444,37.245859906601765],[-101.52792411738218,37.24727282796074],[-101.53527383892936,37.24109864330689],[-101.53495350727948,37.23942568294819],[-101.54104274813119,37.23944916762365],[-101.54131152669291,37.240452355483185],[-101.54307197831906,37.23945699385578],[-101.55100691752638,37.239487596927106],[-101.5527756576417,37.241145165276194],[-101.55297563088601,37.24311943428077],[-101.5471,37.2431],[-101.5471,37.24536004084058],[-101.54449931272322,37.24671138845273],[-101.53769250357453,37.24674258884148],[-101.53805,37.25031],[-101.52897,37.25029],[-101.52898,37.25754],[-101.52245395992661,37.25752562546239]]]},"properties":{"flat_pct":99}},{"type":"Feature","geometry":{"type":"Polygon","coordinates":[[[-101.54711,37.25752903160068],[-101.53805797048946,37.25683328767205],[-101.53805,37.25031],[-101.5469028288629,37.25034908533714],[-101.54711,37.25752903160068]]]},"properties":{"flat_pct":100}},{"type":"Feature","geometry":{"type":"Polygon","coordinates":[[[-101.52047601331762,37.255105105701446],[-101.52157524660493,37.2575236899705],[-101.51536,37.25751],[-101.51536,37.25443992398266],[-101.52047601331762,37.255105105701446]]]},"properties":{"flat_pct":100}}]}