{"type":"FeatureCollection","attribution":"Derived from USFS MVUM roads + USFS Basic Ownership (public domain); terrain from Mapzen tiles (USGS 3DEP). Heuristic beta \u2014 not a statement of legality. Generated 2026-07-23.","features":[{"type":"Feature","geometry":{"type":"Polygon","coordinates":[[[-71.66663,43.8188],[-71.66709,43.81667],[-71.66549,43.81666],[-71.6656,43.81587],[-71.66988,43.81342],[-71.6705519304359,43.81895749509517],[-71.66929943476927,43.81954363688669],[-71.66663,43.8188]]]},"properties":{"flat_pct":29}},{"type":"Feature","geometry":{"type":"Polygon","coordinates":[[[-71.8010633839,43.8453059358],[-71.80322644017934,43.84570764785761],[-71.80025,43.85067],[-71.797385316961,43.849824683693406],[-71.7993265752,43.846340009],[-71.8010633839,43.8453059358]]]},"properties":{"flat_pct":75}},{"type":"Feature","geometry":{"type":"Polygon","coordinates":[[[-71.79613670686491,43.85332549775217],[-71.79835,43.85396],[-71.79765,43.8553],[-71.7967853821,43.8548463522],[-71.79613670686491,43.85332549775217]]]},"properties":{}},{"type":"Feature","geometry":{"type":"Polygon","coordinates":[[[-71.67469957982574,43.86623321545418],[-71.67616780528544,43.86886842158251],[-71.66966,43.86991],[-71.67137,43.86695],[-71.67469957982574,43.86623321545418]]]},"properties":{"flat_pct":73}},{"type":"Feature","geometry":{"type":"Polygon","coordinates":[[[-71.63223909368575,43.8725100884209],[-71.62791,43.87365],[-71.62822,43.87523],[-71.6228,43.87581],[-71.62285,43.8739],[-71.6317,43.87022],[-71.62281,43.87375],[-71.61990648614953,43.873166450017855],[-71.6262595208,43.8676465733],[-71.6300107975,43.8657500141],[-71.6321348032,43.8666221825],[-71.6330199859,43.8687407975],[-71.63223909368575,43.8725100884209]]]},"properties":{"flat_pct":100}},{"type":"Feature","geometry":{"type":"Polygon","coordinates":[[[-71.59742,43.88174],[-71.59984,43.87925],[-71.60204,43.88006],[-71.59742,43.88174]]]},"properties":{}},{"type":"Feature","geometry":{"type":"Polygon","coordinates":[[[-71.7042331131,43.9453369692],[-71.7025220748,43.9469205253],[-71.6996162008,43.9468508108],[-71.69999,43.9458],[-71.69573932525692,43.94425066608978],[-71.69671,43.94432],[-71.69624,43.94353],[-71.69703,43.94334],[-71.69629,43.94182],[-71.69849,43.94254],[-71.70023,43.93972],[-71.69918940634973,43.93916685756112],[-71.7024685027,43.9399308007],[-71.7040068022,43.9416354158],[-71.7042331131,43.9453369692]]]},"properties":{"flat_pct":76}},{"type":"Feature","geometry":{"type":"Polygon","coordinates":[[[-71.8220031225,43.9616506126],[-71.8204892055,43.9599243064],[-71.8206393874,43.9576331225],[-71.8220918905,43.9562274033],[-71.82479696867637,43.95561528508325],[-71.82337,43.95805],[-71.82566,43.95872],[-71.82438,43.96025],[-71.82582,43.9588],[-71.8254,43.96037],[-71.82812634159649,43.96030710852328],[-71.8262440375,43.9618357357],[-71.8220031225,43.9616506126]]]},"properties":{"flat_pct":53}},{"type":"Feature","geometry":{"type":"Polygon","coordinates":[[[-71.734789353,43.9862634538],[-71.7321309017,43.9833315109],[-71.73320778,43.9801768268],[-71.7354266538,43.979586338],[-71.7409317526,43.9811129364],[-71.7468674489,43.985402769],[-71.7523940999,43.9910779632],[-71.7533496816,43.9940362922],[-71.7527215269,43.9973108024],[-71.7508256952,43.9986061402],[-71.7485691976,43.9981815269],[-71.7473483468,43.9965705226],[-71.7472839567,43.9943687031],[-71.7429185003,43.989933816],[-71.7384379008,43.9866946303],[-71.734789353,43.9862634538]]]},"properties":{"flat_pct":63}},{"type":"Feature","geometry":{"type":"Polygon","coordinates":[[[-71.9290823248,44.0007834474],[-71.9278313728,44.0036470055],[-71.9249836633,44.0039705333],[-71.9165986704,43.9989358826],[-71.91564137937898,43.99627872980316],[-71.92447,44.00026],[-71.9254,43.9995],[-71.91589682475575,43.99543006574407],[-71.917595081,43.9938868919],[-71.9196164178,43.9938838501],[-71.9278969072,43.998780236],[-71.9290823248,44.0007834474]]]},"properties":{"flat_pct":51}},{"type":"Feature","geometry":{"type":"Polygon","coordinates":[[[-71.8929903073,44.0182962288],[-71.8923515625,44.0246899435],[-71.8949914969,44.0354726801],[-71.8915001563,44.0439898833],[-71.8912447572,44.0506399236],[-71.8888542774,44.0567481048],[-71.8920690692,44.0582450102],[-71.8920116097,44.0623166563],[-71.890761125,44.0642510673],[-71.8856765714,44.0667293662],[-71.8853430971,44.0692403842],[-71.881571381,44.0749586954],[-71.8871864173,44.0907755312],[-71.88670314348828,44.09352288830303],[-71.88502,44.0954],[-71.88341,44.09459],[-71.88432,44.09132],[-71.87909,44.07693],[-71.8842,44.09136],[-71.88333,44.09456],[-71.88053547438616,44.09315155909063],[-71.8810567875,44.0914741081],[-71.87523180844408,44.07454770998961],[-71.87819,44.07488],[-71.87899,44.07664],[-71.87835,44.0746],[-71.87938,44.0726],[-71.87815,44.07474],[-71.8752957177,44.0739455102],[-71.8796788672,44.0669529705],[-71.8799915265,44.0582894347],[-71.8833882534,44.0541088514],[-71.8854424593,44.0489754333],[-71.8855532563,44.0428681408],[-71.8887887886,44.0347805722],[-71.8863072304,44.025651165],[-71.8870066409,44.0189331615],[-71.8850900159,44.0082502224],[-71.88648,44.00145],[-71.8881,44.00028],[-71.8873931314637,43.99774618722629],[-71.8894399027,43.9983077191],[-71.890574832,43.9999803659],[-71.8929903073,44.0182962288]],[[-71.89195,44.03501],[-71.89125,44.03694],[-71.89216,44.03523],[-71.89073,44.02844],[-71.88928,44.0254],[-71.88997,44.01918],[-71.88883,44.01302],[-71.88987,44.01921],[-71.88915,44.02543],[-71.89195,44.03501]],[[-71.88275,44.06717],[-71.88277,44.0589],[-71.88607,44.0552],[-71.88826,44.04982],[-71.88846,44.0426],[-71.89103,44.03684],[-71.88831,44.04261],[-71.88809,44.04978],[-71.88588,44.05518],[-71.88254,44.05892],[-71.882,44.06464],[-71.88275,44.06717]]]},"properties":{"flat_pct":40}},{"type":"Feature","geometry":{"type":"Polygon","coordinates":[[[-71.7977625634,44.0747353772],[-71.7979050146134,44.07738902322726],[-71.79609,44.07691],[-71.79383398449694,44.07263999364555],[-71.7977625634,44.0747353772]]]},"properties":{"flat_pct":100}},{"type":"Feature","geometry":{"type":"Polygon","coordinates":[[[-71.79773694366499,44.07772240230813],[-71.7933849236,44.0799792941],[-71.7909069506,44.0788795592],[-71.7896975161,44.0762022271],[-71.7904197944,44.0740288355],[-71.79382939972895,44.07263968281383],[-71.79536,44.07655],[-71.79773694366499,44.07772240230813]]]},"properties":{"flat_pct":59}},{"type":"Feature","geometry":{"type":"Polygon","coordinates":[[[-71.8522490738,44.116988901],[-71.8544317369,44.1177016841],[-71.855471099,44.1197490738],[-71.8542567411,44.12291175],[-71.8525843669,44.1240856465],[-71.8453808759,44.1239776954],[-71.8409843381,44.1259011627],[-71.8379246617,44.1247467479],[-71.8371641164,44.1219616735],[-71.8336654852,44.1243642604],[-71.830668515,44.1224166861],[-71.8304367338,44.11984039],[-71.831358383,44.1180511949],[-71.8414091997,44.1133536771],[-71.8434476896,44.1132516133],[-71.8437939206,44.1105965468],[-71.8461266424,44.1086358972],[-71.8451721255,44.1055429087],[-71.8456172597,44.1024290794],[-71.842122709,44.0984998893],[-71.8424365233,44.0965030587],[-71.8439458809,44.0951585694],[-71.8462418962,44.0951783593],[-71.84950862225084,44.097738440214364],[-71.84656,44.09758],[-71.84326,44.09832],[-71.84822,44.09815],[-71.85051320789098,44.098944016291554],[-71.8515724584,44.1007459322],[-71.8512785202,44.1050020409],[-71.8522598446,44.1101592034],[-71.8494801498,44.1136926549],[-71.8493960889,44.1160185662],[-71.8481206099,44.1180656875],[-71.8522490738,44.116988901]]]},"properties":{"flat_pct":65}},{"type":"Feature","geometry":{"type":"Polygon","coordinates":[[[-71.7833105811,44.1209913416],[-71.78563313705925,44.119630084318274],[-71.7885838942,44.1214300139],[-71.78608,44.12819],[-71.7824950875585,44.12707856323307],[-71.7823579973,44.1231340378],[-71.7833105811,44.1209913416]],[[-71.78346,44.1233],[-71.7859,44.12376],[-71.78624407606047,44.122276021452954],[-71.78718,44.12204],[-71.78532,44.12134],[-71.78582579050098,44.12197773584906],[-71.78524,44.12156],[-71.78346,44.1233]]]},"properties":{"flat_pct":61}},{"type":"Feature","geometry":{"type":"Polygon","coordinates":[[[-71.6271977781777,44.245273273998535],[-71.60228478318069,44.236466838296195],[-71.5982336913687,44.23362358871793],[-71.58843726755222,44.236124105773285],[-71.58658543809963,44.23476660600639],[-71.58623589422672,44.232497267552226],[-71.58734951845332,44.230810361235505],[-71.59154006861361,44.22858154861761],[-71.59888314732235,44.227483123068154],[-71.60731433089838,44.23169138549705],[-71.60928786723865,44.229709038726696],[-71.60872235086912,44.22710136847372],[-71.61053700186751,44.22474060671536],[-71.61694485821799,44.2234263534469],[-71.626501753688,44.22329702270877],[-71.63192891990073,44.22621180869994],[-71.63535806881632,44.2255653218421],[-71.63812183096655,44.22760071848388],[-71.63991045131057,44.230817928171724],[-71.63996812429612,44.23440566466091],[-71.64220169103294,44.24174323685439],[-71.64105,44.24146],[-71.63915,44.2438],[-71.632,44.24442],[-71.63017,44.24309],[-71.62531,44.24087],[-71.6319,44.24443],[-71.6271977781777,44.245273273998535]],[[-71.63622497381934,44.24234339533882],[-71.63376586312168,44.2319805206617],[-71.63053410137118,44.23219817153341],[-71.6276932372915,44.230683102245216],[-71.62724,44.22716],[-71.62141,44.2275],[-71.62144330585404,44.22954275904761],[-71.61652668556351,44.23002094406181],[-71.61369982020966,44.23378163236319],[-71.61536,44.23536],[-71.62341475097841,44.237144100425674],[-71.63622497381934,44.24234339533882]],[[-71.61709,44.23746],[-71.62025,44.23947],[-71.62201,44.23963],[-71.62181,44.23824],[-71.61939,44.23653],[-71.61702,44.2363],[-71.61709,44.23746]]]},"properties":{"flat_pct":77}},{"type":"Feature","geometry":{"type":"Polygon","coordinates":[[[-71.6343,44.24426],[-71.63931,44.24393],[-71.6411,44.2416],[-71.64221207132833,44.24194046246676],[-71.64221508032797,44.244246715005104],[-71.64128,44.244],[-71.63748,44.24574],[-71.6343,44.24426]]]},"properties":{"flat_pct":100}},{"type":"Feature","geometry":{"type":"Polygon","coordinates":[[[-71.64218999412928,44.244426362111504],[-71.64149298758534,44.24586582537314],[-71.63774,44.24581],[-71.64128,44.24419],[-71.64218999412928,44.244426362111504]]]},"properties":{}},{"type":"Feature","geometry":{"type":"Polygon","coordinates":[[[-71.6347537224654,44.247141823528715],[-71.6330927588778,44.247140638569455],[-71.63288,44.24618],[-71.63213,44.24454],[-71.63398,44.24429],[-71.63663744055832,44.24552381168779],[-71.6347537224654,44.247141823528715]]]},"properties":{"flat_pct":100}},{"type":"Feature","geometry":{"type":"Polygon","coordinates":[[[-71.62763100042753,44.24541082206285],[-71.63224210745452,44.244785141633876],[-71.63282821786821,44.247060938600264],[-71.62763100042753,44.24541082206285]]]},"properties":{"flat_pct":100}},{"type":"Feature","geometry":{"type":"Polygon","coordinates":[[[-71.64046880496126,44.246626793446204],[-71.63734773971683,44.2462143783045],[-71.64127313866824,44.246091883391024],[-71.64046880496126,44.246626793446204]]]},"properties":{}},{"type":"Feature","geometry":{"type":"Polygon","coordinates":[[[-71.5462854633,43.8501834187],[-71.5473327839,43.8547682372],[-71.5434966707,43.8585169046],[-71.5404520708,43.8571596611],[-71.5404959541,43.8538980436],[-71.5369631491,43.851772693],[-71.536312581,43.848202701],[-71.5338248282,43.8496554952],[-71.5257874718,43.8494344078],[-71.5207967693,43.8510258638],[-71.51941798,43.8544762189],[-71.5157987577,43.8588580947],[-71.5132442204,43.8586230208],[-71.5112434921,43.8560389802],[-71.5148255186,43.848486906],[-71.5173420837,43.8460835949],[-71.51962,43.84657],[-71.51883005170676,43.845319248535695],[-71.5251472864,43.8434271526],[-71.5317293188,43.8439301696],[-71.53322798127131,43.840610664127226],[-71.53823,43.84509],[-71.5419493664765,43.846042520683],[-71.5424740957,43.8480481523],[-71.5462854633,43.8501834187]]]},"properties":{"flat_pct":63}},{"type":"Feature","geometry":{"type":"Polygon","coordinates":[[[-71.5461454373,43.8735916977],[-71.5445304541,43.8712697234],[-71.5456799618,43.868318543],[-71.5492926117,43.8667191774],[-71.5517416886,43.8674826846],[-71.552877385,43.8707747671],[-71.5520936855,43.872924746],[-71.55083,43.87282],[-71.55167154250061,43.873305306718144],[-71.5503139694,43.8738684458],[-71.5461454373,43.8735916977]]]},"properties":{"flat_pct":53}},{"type":"Feature","geometry":{"type":"Polygon","coordinates":[[[-71.5070032895,43.940274454],[-71.508864924,43.9385094504],[-71.51120921124328,43.93871433526182],[-71.50657332127606,43.94254302726984],[-71.5070032895,43.940274454]]]},"properties":{"flat_pct":20}},{"type":"Feature","geometry":{"type":"Polygon","coordinates":[[[-71.5146193273,43.9430376972],[-71.5140204574,43.9458292343],[-71.5104791114,43.9474419877],[-71.51309,43.94552],[-71.51253,43.94444],[-71.50663307007814,43.94397599652814],[-71.51132258364166,43.93877887402379],[-71.5146193273,43.9430376972]]]},"properties":{"flat_pct":53}},{"type":"Feature","geometry":{"type":"Polygon","coordinates":[[[-71.553159548,43.9783365116],[-71.5702965164,43.9828938852],[-71.5802949538,43.9895276324],[-71.5956693642,43.9953969957],[-71.6023922782,43.995652531],[-71.6056403493,43.9945191292],[-71.6083613135,43.9915165395],[-71.6103919294,43.9906448276],[-71.6112872436,43.9881508044],[-71.6131297868,43.9873196325],[-71.6168963171,43.9889076421],[-71.6184196985,43.9910423335],[-71.6183786742,43.9930339045],[-71.6245723431,43.994961788],[-71.6285570232,43.9925771888],[-71.63906878519461,43.992275387039165],[-71.63686,43.99618],[-71.63108,43.99842],[-71.63706,43.99623],[-71.63925505332563,43.99232038760187],[-71.6404054425,43.9925983104],[-71.641402615,43.9901973149],[-71.6436020413,43.9882128268],[-71.64964107,43.9881886123],[-71.65535506576002,43.9869076559004],[-71.65613994093134,43.992944263508214],[-71.6501695023,43.994204625],[-71.6462594446,43.9940258323],[-71.6463613869,43.9967899263],[-71.645171216,43.9984608811],[-71.6467424247,44.0045356673],[-71.6503995941,44.0047444183],[-71.652255362,44.0064609803],[-71.65261255160614,44.00759384438747],[-71.65134,44.00816],[-71.65029,44.01036],[-71.65262,44.01209],[-71.65496541087279,44.01084896897109],[-71.654691972,44.0129553772],[-71.653072842,44.0152473687],[-71.6495457971,44.0175122285],[-71.645650698,44.01625285],[-71.6444675349,44.0113938278],[-71.6388085244,44.0138091229],[-71.6367905598,44.0137373181],[-71.6350424231,44.0118633754],[-71.6352323685,44.0095775051],[-71.6407595889,44.0050224555],[-71.6386757651,43.9983530517],[-71.62376,43.99975],[-71.61936,43.99737],[-71.61774,43.99703],[-71.61442,43.99782],[-71.61826,43.99719],[-71.62411,43.99994],[-71.62825316970213,43.99971873578701],[-71.6245914054,44.0014020255],[-71.6172453924,43.9989307698],[-71.614981062,43.999310521],[-71.6151482811,44.0027104619],[-71.6116458218,44.0043539128],[-71.6099059964,44.0082661111],[-71.6047733577,44.009888219],[-71.6022307679,44.0087419766],[-71.6004499449,44.0105602697],[-71.5970888591,44.010681867],[-71.5950514983,44.007745196],[-71.5969774351,44.0042031623],[-71.5998381328,44.002327038],[-71.6032066971,44.0022449658],[-71.6057235333,44.0033871866],[-71.606535846,44.0006816545],[-71.6027483505,44.0017383874],[-71.5943363289,44.0013679198],[-71.5845037089,43.9973382525],[-71.582034757,43.9974044545],[-71.5743505076,43.9931],[-71.5680263555,43.9920322046],[-71.5665103659,43.9903077181],[-71.5665957867,43.9881598627],[-71.552153451,43.9842891115],[-71.5468018347,43.9842799866],[-71.5352421681,43.9787262065],[-71.526088552,43.9779017576],[-71.5235751049,43.9762135513],[-71.5217581615,43.9774733963],[-71.5197372442,43.9775146892],[-71.5157074693,43.9733568229],[-71.5152108584,43.969395146],[-71.5108006562,43.9684399819],[-71.5097465358,43.9652776207],[-71.51096461918344,43.963584548706606],[-71.5157423793,43.9624065358],[-71.5195252147,43.9651760315],[-71.5214342352,43.9687705983],[-71.5252433208,43.9699279663],[-71.5279681037,43.9720480316],[-71.5364367818,43.9727350381],[-71.5483690404,43.9783634535],[-71.553159548,43.9783365116]]]},"properties":{"flat_pct":29}},{"type":"Feature","geometry":{"type":"Polygon","coordinates":[[[-71.3707792273,43.9915832643],[-71.37458282753714,43.9964751339924],[-71.36678,43.99625],[-71.37461426183229,43.99662306008725],[-71.3745092809,43.9986837257],[-71.3731019392,44.000203036],[-71.3684609842,44.0009962071],[-71.366188717,43.9992927822],[-71.36634837033361,43.993808042872004],[-71.36659,43.99472],[-71.36767,43.9946],[-71.36734,43.99338],[-71.36641067083859,43.99352904335608],[-71.3679510967,43.9915456754],[-71.3707792273,43.9915832643]]]},"properties":{"flat_pct":100}},{"type":"Feature","geometry":{"type":"Polygon","coordinates":[[[-71.5563586554,44.0461412402],[-71.5583238292,44.0442201771],[-71.560887217,44.0443199946],[-71.5638295849,44.0473514735],[-71.5637278896,44.0501603232],[-71.5604518293,44.0523043744],[-71.5581652,44.0520960371],[-71.5562106441,44.0499022051],[-71.5563586554,44.0461412402]]]},"properties":{"flat_pct":32}},{"type":"Feature","geometry":{"type":"Polygon","coordinates":[[[-71.5954322684,44.0603785672],[-71.6011661736,44.0626960524],[-71.6014498961,44.0651870656],[-71.5996614254,44.0674268162],[-71.5943594636,44.0681679492],[-71.5908209989,44.0659365885],[-71.5882718707,44.0668588742],[-71.5859014329,44.0653159029],[-71.5857447567,44.0627553612],[-71.5877840971,44.0607614329],[-71.5897798473,44.0604408191],[-71.5916310552,44.0615972474],[-71.5954322684,44.0603785672]]]},"properties":{"flat_pct":58}},{"type":"Feature","geometry":{"type":"Polygon","coordinates":[[[-71.3558028481,44.0828667984],[-71.3687296251,44.0762761785],[-71.3835969593,44.0667262917],[-71.3858930561,44.0667304402],[-71.3875137083,44.0683569593],[-71.3876092429,44.0703760395],[-71.3864022012,44.0719974161],[-71.3718656476,44.0814177822],[-71.3581310555,44.0884703919],[-71.35255346110468,44.08957867499912],[-71.34939,44.08556],[-71.34889398160396,44.08551490741854],[-71.3502575784,44.0840574992],[-71.3558028481,44.0828667984]],[[-71.37427,44.07544],[-71.37421,44.0749],[-71.373,44.0763],[-71.37427,44.07544]],[[-71.37328,44.07712],[-71.37528,44.07829],[-71.3769,44.0769],[-71.37496,44.07572],[-71.37328,44.07712]]]},"properties":{"flat_pct":18}},{"type":"Feature","geometry":{"type":"Polygon","coordinates":[[[-71.507877773,44.2616281436],[-71.505700123,44.2638166917],[-71.50444002302048,44.26714501151024],[-71.50155,44.26483],[-71.4999,44.2652],[-71.50146,44.26496],[-71.50430689143235,44.26722635493144],[-71.5036527611,44.2675240841],[-71.49726,44.26479],[-71.49595,44.26477],[-71.49519466339146,44.26508822051563],[-71.4959817174,44.2625872143],[-71.4987136825,44.2617036069],[-71.4990367535,44.2579068263],[-71.5007800167,44.254259079],[-71.4991970781,44.2501175926],[-71.493579199,44.2458350509],[-71.4883321457,44.2435995861],[-71.4842756311,44.2378758381],[-71.476866947,44.2323077365],[-71.4753742148,44.2279389694],[-71.4766915164,44.2244974811],[-71.4785777424,44.2237708703],[-71.4804967719,44.2244058017],[-71.4817027522,44.2285832593],[-71.4883756746,44.2333330489],[-71.4921735702,44.238813622],[-71.4964508826,44.2405432264],[-71.5034458747,44.2456182742],[-71.5071853742,44.2533250296],[-71.507877773,44.2616281436]]]},"properties":{"flat_pct":56}},{"type":"Feature","geometry":{"type":"Polygon","coordinates":[[[-71.58062450846892,44.25935647583201],[-71.5765603967,44.2529342538],[-71.57295152038016,44.252079534506166],[-71.57045570215014,44.24921642142845],[-71.5632020846323,44.24676297652289],[-71.56293,44.24484],[-71.55467093699743,44.2454123493735],[-71.55165067790033,44.24428421191216],[-71.54510998495823,44.239970954734495],[-71.54468496432163,44.236422119253966],[-71.5467875302,44.2349523786],[-71.5500700695,44.2354810933],[-71.5546528168,44.2390347055],[-71.56844222697667,44.2419698215663],[-71.5742162035045,44.244315474579196],[-71.5759393141,44.2467461512],[-71.58061592553852,44.24777881651933],[-71.58214466403948,44.2493591050477],[-71.5839140573,44.2541382411],[-71.58628687888641,44.25657115751386],[-71.58314,44.25925],[-71.58062450846892,44.25935647583201]]]},"properties":{"flat_pct":61}},{"type":"Feature","geometry":{"type":"Polygon","coordinates":[[[-71.5870388265,44.258058255],[-71.58638722034988,44.26053945035286],[-71.58404951653277,44.26160942189677],[-71.5834,44.25924],[-71.58639347920973,44.25669149742955],[-71.5870388265,44.258058255]]]},"properties":{"flat_pct":100}},{"type":"Feature","geometry":{"type":"Polygon","coordinates":[[[-71.4953139501,44.2655986833],[-71.49597,44.26491],[-71.49722,44.26493],[-71.49837416292716,44.265509496030376],[-71.4953139501,44.2655986833]]]},"properties":{}},{"type":"Feature","geometry":{"type":"Polygon","coordinates":[[[-71.4682792547,44.2838489684],[-71.467215737,44.2871773458],[-71.4584480049,44.2990129877],[-71.4589151074,44.3072433459],[-71.4601820458,44.3121616845],[-71.4595417181,44.3173668231],[-71.4623270747,44.3212675489],[-71.461328688,44.328175148],[-71.45869321517283,44.33001342996632],[-71.45882,44.32681],[-71.46016,44.32579],[-71.45845,44.32534],[-71.45939,44.32124],[-71.45712,44.31938],[-71.45658,44.31761],[-71.45728,44.31237],[-71.45605,44.30652],[-71.45541,44.30536],[-71.45634,44.30341],[-71.45597,44.3007],[-71.45494,44.29901],[-71.45616,44.30338],[-71.45522,44.30537],[-71.4571,44.31247],[-71.45639,44.31763],[-71.45704,44.31955],[-71.45923,44.3214],[-71.45824,44.32537],[-71.45513238617133,44.3256935323986],[-71.4559500824,44.3224365284],[-71.4535346084,44.3181897967],[-71.4541539636,44.3124436391],[-71.4523441057,44.3057495437],[-71.4531442647,44.302945653],[-71.4520147474,44.2976244946],[-71.461602359,44.2845164943],[-71.4634354091,44.2792980467],[-71.46869202976367,44.276740800181194],[-71.47239,44.27629],[-71.47011,44.28001],[-71.46541,44.28156],[-71.46441,44.28358],[-71.46469,44.28541],[-71.46115,44.28973],[-71.45914,44.2941],[-71.46484,44.28549],[-71.4646,44.28361],[-71.4657,44.28148],[-71.47024,44.28011],[-71.47259,44.27627],[-71.47549530955634,44.27602589656116],[-71.4726334542,44.2817529184],[-71.4682792547,44.2838489684]]]},"properties":{"flat_pct":50}},{"type":"Feature","geometry":{"type":"Polygon","coordinates":[[[-71.4492634894,44.3390503944],[-71.4428487447,44.3373129552],[-71.438953811,44.3342458046],[-71.4370593438,44.3309774516],[-71.4357667056,44.3252721468],[-71.4383165974,44.3183809314],[-71.4379392517,44.3156665896],[-71.439742109,44.3138415891],[-71.442868425,44.314342649],[-71.4442988694,44.3163784845],[-71.44422842,44.3196805738],[-71.4420683955,44.3253999494],[-71.4432064442,44.3296952364],[-71.4459183298,44.3305325908],[-71.4472735034,44.332419048],[-71.4503749611,44.333148122],[-71.45734143158678,44.33272243978139],[-71.45751,44.33449],[-71.45924,44.3343],[-71.46042086857932,44.338527058226646],[-71.4562061453,44.3394469091],[-71.4492634894,44.3390503944]]]},"properties":{"flat_pct":73}},{"type":"Feature","geometry":{"type":"Polygon","coordinates":[[[-71.4077116507,44.55677997],[-71.40572129173418,44.56061342167293],[-71.39765540851185,44.56098716954923],[-71.3988587985,44.5601741211],[-71.3993167302,44.5558366276],[-71.4046948062,44.551181043],[-71.4120231943,44.550709077],[-71.414055723,44.5517336584],[-71.4147839656,44.5538901841],[-71.4137887019,44.5559372284],[-71.4114542587,44.5571198493],[-71.4077116507,44.55677997]]]},"properties":{"flat_pct":42}},{"type":"Feature","geometry":{"type":"Polygon","coordinates":[[[-71.3988375781,44.5693829428],[-71.4006095477,44.5801311171],[-71.399651852,44.583092802],[-71.3975487546,44.5844546761],[-71.3975741772,44.5865377865],[-71.4021867904,44.5887081994],[-71.4031320695,44.5926833862],[-71.4072593582,44.5971205409],[-71.40759411172957,44.598516775266624],[-71.40606,44.6009],[-71.40697,44.60123],[-71.4058,44.60238],[-71.40065501305845,44.6017986102241],[-71.4017014727,44.6000625641],[-71.4012620786,44.5988326422],[-71.3977659332,44.5957172226],[-71.3971097495,44.5927893486],[-71.3934747488,44.5912531525],[-71.391059858,44.5876836366],[-71.3915804712,44.5818711866],[-71.3943398146,44.5792870189],[-71.3927806007179,44.56860227327714],[-71.4000580596279,44.568373134142696],[-71.3988375781,44.5693829428]]]},"properties":{"flat_pct":35}},{"type":"Feature","geometry":{"type":"Polygon","coordinates":[[[-71.2317277247,43.9399381389],[-71.23103953522678,43.942401323650735],[-71.22837,43.9405],[-71.22819,43.93919],[-71.22683,43.93837],[-71.22801,43.93806],[-71.2268527667638,43.937372673593046],[-71.2296284168,43.9374752706],[-71.2317277247,43.9399381389]]]},"properties":{"flat_pct":89}},{"type":"Feature","geometry":{"type":"Polygon","coordinates":[[[-71.3292603788,43.992838462],[-71.3360806854,43.9917692113],[-71.3377945292,43.9928409162],[-71.33908873980374,43.99530117241796],[-71.3292603788,43.992838462]]]},"properties":{"flat_pct":64}},{"type":"Feature","geometry":{"type":"Polygon","coordinates":[[[-71.3576105468,44.00100346],[-71.3536253711,44.0024955755],[-71.3518077025,44.0010926647],[-71.3514947159,43.9989053917],[-71.3482714946,43.9984074039],[-71.3472747598,43.9963389268],[-71.3481225961,43.9920214946],[-71.3498983018,43.9910557404],[-71.3521295781,43.991597482],[-71.3533552402,43.9938510732],[-71.35321328851614,43.996731593386066],[-71.35236,43.99636],[-71.35543,43.99778],[-71.35815,43.99755],[-71.35321759454959,43.99673346859418],[-71.3541556004,43.9954056825],[-71.35635814,43.9947569165],[-71.3581783736,43.9956358712],[-71.3590230835,43.99805814],[-71.3576105468,44.00100346]]]},"properties":{"flat_pct":100}},{"type":"Feature","geometry":{"type":"Polygon","coordinates":[[[-71.3386832863,43.9979266691],[-71.3360342764,44.0008950143],[-71.3325477438,44.001759341],[-71.3294708835,44.0001825785],[-71.32812103814436,43.996730163219446],[-71.3292,43.99605],[-71.32799757377285,43.99636079660956],[-71.3280062258,43.9948187537],[-71.32892601568001,43.99318159977452],[-71.33907,43.99542],[-71.3386832863,43.9979266691]]]},"properties":{"flat_pct":93}},{"type":"Feature","geometry":{"type":"Polygon","coordinates":[[[-71.2283624773,44.0007871375],[-71.230542498,44.000042302],[-71.2358328763,44.0006987298],[-71.2374299498,44.0019377488],[-71.23814775268667,44.00440778120257],[-71.23471,44.00295],[-71.23054,44.00196],[-71.2283624773,44.0007871375]]]},"properties":{"flat_pct":87}},{"type":"Feature","geometry":{"type":"Polygon","coordinates":[[[-71.27786,44.00077],[-71.27787,43.99922],[-71.2792742385,43.9992263511],[-71.2808281294,44.0029359241],[-71.2800813279,44.0048128068],[-71.27828192060676,44.00579434690195],[-71.27876,44.00282],[-71.2777273241,44.0058282424],[-71.275638429,44.0048786621],[-71.2741116887,44.0015693542],[-71.2748561231,43.9996900912],[-71.2766237704,43.9987096654],[-71.2783244276661,43.99877348270869],[-71.27769,43.99917],[-71.27786,44.00077]]]},"properties":{"flat_pct":52}},{"type":"Feature","geometry":{"type":"Polygon","coordinates":[[[-71.237001378,44.006800593],[-71.2339509845,44.0076645358],[-71.2294108461,44.0070911812],[-71.2269543891,44.0049344763],[-71.22680896,44.0024199566],[-71.22816173892512,44.00088995047302],[-71.23044,44.00208],[-71.2381438158882,44.00456723915991],[-71.237001378,44.006800593]]]},"properties":{"flat_pct":48}},{"type":"Feature","geometry":{"type":"Polygon","coordinates":[[[-71.2445970955,44.0029900278],[-71.2485285061,44.0057950166],[-71.248670314,44.0078589227],[-71.24763921285003,44.00949486927143],[-71.24675,44.00771],[-71.24196,44.00547],[-71.24020191575468,44.005278850351665],[-71.2445970955,44.0029900278]]]},"properties":{"flat_pct":73}},{"type":"Feature","geometry":{"type":"Polygon","coordinates":[[[-71.2457276708,44.011107634],[-71.2418919673,44.0105145867],[-71.2398959595,44.0078739788],[-71.24012370460265,44.00541087098635],[-71.24662,44.00781],[-71.24751258923659,44.0096354456568],[-71.2457276708,44.011107634]]]},"properties":{"flat_pct":78}},{"type":"Feature","geometry":{"type":"Polygon","coordinates":[[[-71.3170181317,44.0450645549],[-71.3158826897,44.0480104301],[-71.3076361358,44.0519024412],[-71.310599053,44.0525138827],[-71.3118969789,44.0544584707],[-71.3111048012,44.0573088479],[-71.3127164291,44.0618153259],[-71.3101463452538,44.06764608718044],[-71.3039106998,44.064384543],[-71.30378541249729,44.06508453288489],[-71.2950056251,44.0646142188],[-71.29257,44.06497],[-71.29294930795916,44.06650630318655],[-71.2904996662,44.067974191],[-71.2854915307,44.068084188],[-71.2831487435,44.0699865487],[-71.28087619595752,44.06945454715975],[-71.28034,44.06500539720381],[-71.2811924363,44.0636416736],[-71.2834773455,44.0622254057],[-71.2871711754,44.0619173535],[-71.2845861713,44.0602745894],[-71.2797543445,44.0530686761],[-71.2786097154,44.0560974982],[-71.2761757765,44.057828084],[-71.2738809314,44.057752162],[-71.2722219535,44.0557954523],[-71.2733004639,44.0506177993],[-71.2778012582,44.0464644045],[-71.2884700463,44.0465259227],[-71.3006986009,44.0525391727],[-71.3025772633,44.047133348],[-71.308662524,44.0448012101],[-71.3115798004,44.04137752],[-71.31440353,44.0415396535],[-71.3163326401,44.0431202284],[-71.3170181317,44.0450645549]],[[-71.2871945218,44.052572534],[-71.2894344597,44.0563001522],[-71.2922377092,44.0583029335],[-71.2930785145,44.0552526593],[-71.2871945218,44.052572534]],[[-71.29188,44.06057],[-71.29277,44.06144],[-71.29394,44.06084],[-71.29306,44.05996],[-71.29188,44.06057]]]},"properties":{"flat_pct":50}},{"type":"Feature","geometry":{"type":"Polygon","coordinates":[[[-71.288487071,44.0721753335],[-71.2918931799,44.0728409686],[-71.2925,44.07532],[-71.29023,44.07503],[-71.29023,44.07647],[-71.2888,44.07673],[-71.28887,44.07481],[-71.28638,44.07424],[-71.2866188153,44.0730897447],[-71.288487071,44.0721753335]]]},"properties":{"flat_pct":100}},{"type":"Feature","geometry":{"type":"Polygon","coordinates":[[[-71.2252206451,44.0936187605],[-71.21493504883179,44.09454254090546],[-71.2126,44.08989],[-71.21886,44.09093],[-71.22743,44.08725],[-71.23105,44.08855],[-71.23154774275493,44.091721822796885],[-71.2276877375,44.0920897633],[-71.2252206451,44.0936187605]]]},"properties":{"flat_pct":63}},{"type":"Feature","geometry":{"type":"Polygon","coordinates":[[[-71.2643908454,44.1329227741],[-71.2626816512,44.1360618075],[-71.2586217911,44.1355608623],[-71.256697472,44.1323573701],[-71.25702455,44.1294293728],[-71.2547012558,44.1278670038],[-71.2516474782,44.1230251531],[-71.2478375898,44.1199853796],[-71.23618458917146,44.11608217516247],[-71.23666,44.11312],[-71.23808,44.11329],[-71.23834,44.11171],[-71.2344659097,44.1114163739],[-71.2375886533,44.1102501102],[-71.24230150254412,44.111361631248144],[-71.24132,44.11324],[-71.24474,44.11427],[-71.24604,44.1157],[-71.24989,44.11666],[-71.25160239436897,44.11529008450482],[-71.2623113803,44.1259106259],[-71.2630565528,44.1308293614],[-71.2643908454,44.1329227741]]]},"properties":{"flat_pct":28}},{"type":"Feature","geometry":{"type":"Polygon","coordinates":[[[-71.2570635451,44.2481234367],[-71.25425676343635,44.25043421733286],[-71.25324,44.24649],[-71.25368,44.24396],[-71.25352598546944,44.24280722457431],[-71.2568345533,44.2445739498],[-71.2570635451,44.2481234367]]]},"properties":{"flat_pct":13}},{"type":"Feature","geometry":{"type":"Polygon","coordinates":[[[-71.2515406817,44.249872195],[-71.2504986221,44.2481401662],[-71.2505826789,44.2457236533],[-71.2514234842,44.2438461638],[-71.25328626049847,44.242832048281564],[-71.25299,44.24649],[-71.25400880756834,44.25049458248117],[-71.2515406817,44.249872195]]]},"properties":{"flat_pct":36}},{"type":"Feature","geometry":{"type":"Polygon","coordinates":[[[-71.2222755265,44.3060629016],[-71.223144741,44.3078878064],[-71.2226589456,44.3098499009],[-71.21872696114686,44.3119997052387],[-71.22053,44.30747],[-71.22028831211472,44.30519634359769],[-71.2222755265,44.3060629016]]]},"properties":{"flat_pct":30}},{"type":"Feature","geometry":{"type":"Polygon","coordinates":[[[-71.2260242535,44.3318390408],[-71.2211875493,44.3374997704],[-71.22102686090358,44.340474518065285],[-71.21833,44.33806],[-71.21808,44.33667],[-71.21671,44.33635],[-71.21896,44.33536],[-71.21955,44.33294],[-71.22003,44.33096],[-71.22023,44.32744],[-71.21962,44.32414],[-71.21698,44.32333],[-71.21731,44.3216],[-71.21719951889875,44.32039452842865],[-71.2204039385,44.3205341021],[-71.2221960054,44.3216434671],[-71.2244350789,44.3276609988],[-71.2261161974,44.3292753584],[-71.2260242535,44.3318390408]],[[-71.22112,44.32825],[-71.22128,44.32831],[-71.22124,44.32823],[-71.22112,44.32825]]]},"properties":{"flat_pct":50}},{"type":"Feature","geometry":{"type":"Polygon","coordinates":[[[-71.3332913017,44.4048526126],[-71.3173843847,44.4122636157],[-71.3146794399,44.4100250663],[-71.3108788293,44.4100728271],[-71.3116772589,44.4126745985],[-71.3099573554,44.4152710192],[-71.3065264124,44.4162108923],[-71.3044305285,44.4151058173],[-71.2956241126,44.4194662513],[-71.2924194729,44.4187673831],[-71.2910940556,44.4168924573],[-71.2922882589,44.4137802913],[-71.2957939311,44.4132292255],[-71.301752133,44.4097199853],[-71.3083877373,44.4041351458],[-71.3213257416,44.4031685801],[-71.3327487609163,44.39798935906311],[-71.33788852255744,44.401351387230875],[-71.3332913017,44.4048526126]]]},"properties":{"flat_pct":37}},{"type":"Feature","geometry":{"type":"Polygon","coordinates":[[[-71.3428879338,44.4099841895],[-71.3388140761,44.4106225655],[-71.3373042178,44.4153965106],[-71.3327423522,44.4178725689],[-71.3304498972,44.4180019069],[-71.3287374311,44.4164723522],[-71.3288556669,44.4136464441],[-71.3314687229,44.4118259938],[-71.3306242179,44.4098990267],[-71.3311208798,44.4075342459],[-71.3346881185,44.4042883531],[-71.34008005556451,44.40257921679836],[-71.34586206399634,44.40635769876007],[-71.3437937621,44.4077014743],[-71.3428879338,44.4099841895]]]},"properties":{"flat_pct":79}},{"type":"Feature","geometry":{"type":"Polygon","coordinates":[[[-71.3589815151,44.4935363025],[-71.3634446149,44.4952994077],[-71.3638511042,44.4975592405],[-71.3627802443,44.4992736124],[-71.3552556136,44.5018299594],[-71.3437547107,44.4998723337],[-71.3422596247,44.5006043389],[-71.3419236604,44.5063676225],[-71.3384374611,44.5088375083],[-71.3350077846,44.5082728953],[-71.3311617717,44.5052929311],[-71.3224474893,44.5081394491],[-71.3172221385,44.5076463649],[-71.312703137,44.5054188454],[-71.3114266213,44.507439976],[-71.3090944104,44.5082787715],[-71.3085877561,44.510543963],[-71.3040910795,44.5162316024],[-71.2980027333,44.5186167102],[-71.3028137788,44.5226874891],[-71.305321331,44.5285318006],[-71.304999723,44.5320744325],[-71.302390259,44.5356801523],[-71.3003691194,44.5357085544],[-71.30072,44.53446],[-71.29878804657373,44.53444705868519],[-71.2983665783,44.5324715491],[-71.2993451548,44.5296820655],[-71.2978007037,44.5260833444],[-71.2947593221,44.5236651704],[-71.29160460238275,44.52551074309781],[-71.28250121305844,44.5256232940931],[-71.2833888724,44.5241965689],[-71.28233525055953,44.52317181339528],[-71.28479,44.51806],[-71.28176568,44.5179664028],[-71.2883090758,44.5112756742],[-71.2903789866,44.507744281],[-71.2909540922,44.5040613621],[-71.2936177399,44.5024526462],[-71.294956968,44.4994840498],[-71.2981584699,44.4966858826],[-71.2988112611,44.4927939018],[-71.2972673929,44.4907210092],[-71.2974477935,44.4877091747],[-71.3023448704,44.4825975617],[-71.3081194583,44.480011408],[-71.3113168345,44.4767063316],[-71.3033682168,44.4727383376],[-71.3012418762,44.4680660835],[-71.305754704,44.4609958277],[-71.3021787831,44.4548835056],[-71.3023183136,44.4467021168],[-71.3009892891,44.4423448374],[-71.3020829838,44.4396922732],[-71.3082356282,44.4341796573],[-71.3085784869,44.4321654591],[-71.310025521,44.4307448794],[-71.3166545386,44.4298332062],[-71.3189219063,44.4318423405],[-71.3251655612,44.4345319925],[-71.3311796199,44.4407828174],[-71.3409436221,44.4450557243],[-71.3412447795,44.4482907998],[-71.345384806,44.4530454921],[-71.3461190341,44.4554977254],[-71.3526417052,44.460274432],[-71.3545991481,44.4670614878],[-71.3496879712,44.4766489126],[-71.340598056,44.4786403493],[-71.3428565634,44.4842128443],[-71.3461097281,44.4885596118],[-71.3451666575,44.4918453845],[-71.3405517581,44.4947599725],[-71.3467995368,44.4930373266],[-71.3496301643,44.4948366134],[-71.3549032909,44.4955980145],[-71.3589815151,44.4935363025]],[[-71.2964021332,44.5087683504],[-71.2938216257,44.5138244323],[-71.2998450441,44.5115945892],[-71.3031095788,44.5078522409],[-71.3040305916,44.5039115287],[-71.3073861991,44.5025244295],[-71.3097847043,44.4997042233],[-71.3132052766,44.4994333936],[-71.3157336806,44.4975639907],[-71.3223380122,44.4970891536],[-71.3246153955,44.4947098292],[-71.335539119,44.4911948071],[-71.3388270739,44.488661088],[-71.3338118413,44.4781657597],[-71.3337642034,44.4758267447],[-71.3372532291,44.4731856109],[-71.3452594225,44.4717817033],[-71.3484115624,44.4667527448],[-71.3474997903,44.4635678744],[-71.3410427114,44.4592098904],[-71.3401327842,44.4561293068],[-71.3360624589,44.4514588263],[-71.3351950681,44.4487509842],[-71.32791539,44.4459057723],[-71.3217170852,44.4395220595],[-71.3143949487,44.4358104881],[-71.313334642,44.4385227017],[-71.3072199435,44.4430226972],[-71.3083342688,44.4458946507],[-71.308107332,44.453323305],[-71.3118758983,44.4602031767],[-71.3112193703,44.4642652059],[-71.3077612475,44.4684670219],[-71.3169491792,44.4727667427],[-71.3184524561,44.4773687809],[-71.3169049891,44.4803367336],[-71.3118237614,44.4849135925],[-71.3061266443,44.4872893492],[-71.3039721719,44.4894695313],[-71.305412235,44.4919442932],[-71.3041472612,44.4955472956],[-71.3043799525,44.4982036543],[-71.2995467774,44.5035094448],[-71.2990957558,44.506136588],[-71.2964021332,44.5087683504]],[[-71.2925231006,44.5155967807],[-71.2881746874,44.5199083732],[-71.2905149402,44.5193276976],[-71.2925231006,44.5155967807]],[[-71.335444651,44.5005844826],[-71.3365168734,44.4971788577],[-71.3290186917,44.4995535087],[-71.3318846597,44.4992210377],[-71.335444651,44.5005844826]]]},"properties":{"flat_pct":68}},{"type":"Feature","geometry":{"type":"Polygon","coordinates":[[[-71.3635945542,44.5996047587],[-71.36537,44.60045],[-71.36439,44.60047],[-71.36526,44.60192],[-71.36438262242491,44.60190190974072],[-71.3635945542,44.5996047587]]]},"properties":{}},{"type":"Feature","geometry":{"type":"Polygon","coordinates":[[[-71.3702844405,44.6057488055],[-71.3672021767,44.6128018827],[-71.36117095392859,44.61675162329122],[-71.36112,44.61594],[-71.35954,44.61601],[-71.35922,44.61126],[-71.35843416442613,44.61125060005295],[-71.363147962224,44.606814047164],[-71.36569,44.60787],[-71.36667,44.60511],[-71.36688,44.60044],[-71.36559,44.59869],[-71.36681,44.59849],[-71.36803,44.59642],[-71.36695958291573,44.59442554765493],[-71.3695462893,44.5949506407],[-71.3712608143,44.5976827971],[-71.3702844405,44.6057488055]]]},"properties":{"flat_pct":36}},{"type":"Feature","geometry":{"type":"Polygon","coordinates":[[[-71.2176926876,43.9568631391],[-71.2161185022,43.9581489562],[-71.2132102821,43.9582748103],[-71.21194,43.9552],[-71.21332,43.95483],[-71.21295,43.95348],[-71.21558,43.95194],[-71.21631090858821,43.95042063096624],[-71.2182058772,43.9525345499],[-71.2176926876,43.9568631391]]]},"properties":{"flat_pct":64}},{"type":"Feature","geometry":{"type":"Polygon","coordinates":[[[-71.13104,43.98082],[-71.13275,43.97913],[-71.13433,43.97961],[-71.13439,43.9808],[-71.1318161260554,43.98225066028582],[-71.13104,43.98082]]]},"properties":{"flat_pct":100}},{"type":"Feature","geometry":{"type":"Polygon","coordinates":[[[-71.1678677645,44.0154971965],[-71.1702465481,44.0186324352],[-71.1741016443,44.0211437499],[-71.1743805778,44.0234228449],[-71.1729662501,44.0252316443],[-71.1706871551,44.0255105778],[-71.1668286578,44.0236284089],[-71.1642001275,44.0203577173],[-71.1568929418,44.0164988923],[-71.1560528073,44.0130602457],[-71.1569668518,44.0077016819],[-71.15838,44.0094],[-71.16245466128314,44.00890709742543],[-71.1628413195,44.0129898995],[-71.1678677645,44.0154971965]]]},"properties":{"flat_pct":73}},{"type":"Feature","geometry":{"type":"Polygon","coordinates":[[[-71.03470902499154,44.087380635564344],[-71.03187229251172,44.08859216665145],[-71.02861206488286,44.08660112629838],[-71.03024,44.0865],[-71.03024,44.08483],[-71.03518865224547,44.08489115739129],[-71.03470902499154,44.087380635564344]]]},"properties":{"flat_pct":100}},{"type":"Feature","geometry":{"type":"Polygon","coordinates":[[[-71.02468942667049,44.09708566652629],[-71.02062333733743,44.089642195779525],[-71.0220221175439,44.08635237794836],[-71.02203,44.08701],[-71.0256250157422,44.086786679899085],[-71.02691125402397,44.08821581334875],[-71.03494754095851,44.10169365006487],[-71.02799321413468,44.10186119216425],[-71.0276014418426,44.1002064036328],[-71.02468942667049,44.09708566652629]]]},"properties":{"flat_pct":100}},{"type":"Feature","geometry":{"type":"Polygon","coordinates":[[[-71.03351275631213,44.122778505926306],[-71.03069032705865,44.12296188780854],[-71.02896979291808,44.12071700516645],[-71.02937587025352,44.118225279574396],[-71.03230110057363,44.1135647732931],[-71.03310484426548,44.1092738190673],[-71.03129,44.10775214980554],[-71.03129,44.10669],[-71.03906379329405,44.106672877107286],[-71.0379534855677,44.115717927278276],[-71.036244623159,44.11958594817756],[-71.03351275631213,44.122778505926306]]]},"properties":{"flat_pct":47}},{"type":"Feature","geometry":{"type":"Polygon","coordinates":[[[-71.03752706127425,44.15926069027831],[-71.03524,44.15869],[-71.03525401881144,44.16010589995525],[-71.02853957456374,44.16119994235054],[-71.02843,44.15869],[-71.01643576904999,44.15950778847386],[-71.01746540239778,44.157511468550304],[-71.0210144655274,44.15561560411359],[-71.03416375478474,44.154160599773384],[-71.04144432433523,44.14783970267225],[-71.04452472264877,44.14800096322854],[-71.04579422252128,44.14991419296184],[-71.04533903677147,44.15216472264878],[-71.03752706127425,44.15926069027831]]]},"properties":{"flat_pct":67}},{"type":"Feature","geometry":{"type":"Polygon","coordinates":[[[-71.1307050763,44.1928627243],[-71.1286894774,44.1927104971],[-71.1272279703,44.1913141416],[-71.1269840486,44.1893075739],[-71.1285926961,44.186227507],[-71.1264109924,44.184108694],[-71.1216969092,44.1831337647],[-71.1168098252,44.1801902385],[-71.1111854227,44.178488926],[-71.106450016,44.1746115138],[-71.1053370677,44.1672854006],[-71.1033226228,44.1648704937],[-71.0945217411,44.1660923864],[-71.0906324659,44.1710621868],[-71.0886150649,44.1709360713],[-71.0870132877,44.169290961],[-71.0883939287,44.1638550649],[-71.0915546503,44.1594834166],[-71.0970698228,44.1559512159],[-71.1015803861,44.1545270082],[-71.1070139135,44.1503293348],[-71.1078135541,44.1486231248],[-71.1057602632,44.1446102644],[-71.1066412004,44.1345484573],[-71.1095716139,44.1312976753],[-71.11256468499174,44.13089063788173],[-71.11269,44.13385],[-71.11576709713064,44.13378184723963],[-71.1149394795,44.1359520421],[-71.1128237213,44.1368956089],[-71.1121060931,44.1393468336],[-71.1120653054,44.1441914812],[-71.1142248973,44.1487472807],[-71.1117240608,44.1540759954],[-71.1053980634,44.1591763639],[-71.1108956883,44.1646609272],[-71.1115476193,44.1710959041],[-71.1138076837,44.1730278946],[-71.1293115614,44.1788018883],[-71.1338442409,44.182832783],[-71.1345827998,44.1877803406],[-71.1323597271,44.1917017151],[-71.1307050763,44.1928627243]]]},"properties":{"flat_pct":35}},{"type":"Feature","geometry":{"type":"Polygon","coordinates":[[[-71.0229748552,44.2645865204],[-71.0253562624,44.2659477024],[-71.026302859,44.2677573722],[-71.0258717172,44.2697536354],[-71.0239365305,44.2713166156],[-71.0196212763,44.2723393901],[-71.0143979892,44.269801409],[-71.00946469103583,44.269027027209574],[-71.0094550279,44.2626494164],[-71.0134033813,44.2620292415],[-71.0185152154,44.2654068229],[-71.0229748552,44.2645865204]]]},"properties":{"flat_pct":76}},{"type":"Feature","geometry":{"type":"Polygon","coordinates":[[[-71.2184968010127,44.3119734454565],[-71.2155851981,44.3117115755],[-71.2140958502,44.3099640285],[-71.2145473331,44.3067771777],[-71.2164757907,44.3050854413],[-71.22010029811759,44.305192683058245],[-71.22035,44.30744],[-71.2184968010127,44.3119734454565]]]},"properties":{"flat_pct":36}},{"type":"Feature","geometry":{"type":"Polygon","coordinates":[[[-71.2130301053,44.3256889004],[-71.2146133271,44.3214618603],[-71.21702795357972,44.32038498725237],[-71.21658,44.32392],[-71.21426941330729,44.32765585962295],[-71.2130301053,44.3256889004]]]},"properties":{"flat_pct":36}},{"type":"Feature","geometry":{"type":"Polygon","coordinates":[[[-71.0683722274,44.3045337957],[-71.0681363595,44.3068316454],[-71.0615603533,44.3166851985],[-71.0558704577,44.3204554219],[-71.049682145,44.3272999913],[-71.0442866635,44.3293298423],[-71.0357755042,44.3283764293],[-71.0305968733,44.3319770946],[-71.0300094419,44.3347218223],[-71.0275433215,44.3374696465],[-71.0178441538,44.3448826651],[-71.01323530667146,44.3467667420117],[-71.01285995634375,44.34047025666258],[-71.023697547,44.3328146435],[-71.025964023,44.327655181],[-71.0354717067,44.3222053987],[-71.0408375255,44.3233136494],[-71.0461663611,44.3223564027],[-71.0517602265,44.3160373494],[-71.0571158238,44.3125384019],[-71.0623628057,44.3025860693],[-71.0656945603,44.3021064774],[-71.0683722274,44.3045337957]]]},"properties":{"flat_pct":56}},{"type":"Feature","geometry":{"type":"Polygon","coordinates":[[[-71.2195869652,44.3422634637],[-71.2169869651,44.3426156541],[-71.2151644654,44.3417570904],[-71.2136232086,44.3366912063],[-71.2143225342,44.3344363931],[-71.2137575637,44.3313505438],[-71.2159818442,44.3293571389],[-71.2157400978,44.3281929762],[-71.21435302658618,44.32770976198375],[-71.21694,44.32347],[-71.21938,44.32407],[-71.22004,44.32784],[-71.21881,44.33528],[-71.21652,44.33641],[-71.21793,44.33675],[-71.21816,44.33812],[-71.22102547904562,44.340478659622576],[-71.2195869652,44.3422634637]]]},"properties":{"flat_pct":92}},{"type":"Feature","geometry":{"type":"Polygon","coordinates":[[[-71.1959273788,44.3517373069],[-71.1964178106,44.3544926438],[-71.1946955966,44.3563567644],[-71.1911994612,44.3564394445],[-71.1891951657,44.3548382823],[-71.18903788322402,44.35259650636556],[-71.19117,44.35105],[-71.1939577212,44.3506064806],[-71.1959273788,44.3517373069]]]},"properties":{"flat_pct":77}},{"type":"Feature","geometry":{"type":"Polygon","coordinates":[[[-71.0237460837,44.3716721486],[-71.0270015895,44.3709556428],[-71.02890452131855,44.37385789270985],[-71.02057058669332,44.37421252822582],[-71.0237460837,44.3716721486]]]},"properties":{"flat_pct":58}}]}