{"type":"FeatureCollection","attribution":"Derived from USFS MVUM roads + USFS Basic Ownership (public domain); terrain from Mapzen tiles (USGS 3DEP). Heuristic beta \u2014 not a statement of legality. Generated 2026-07-23.","features":[{"type":"Feature","geometry":{"type":"Polygon","coordinates":[[[-84.4907195533,34.9886828314],[-84.4906845409,34.9934684853],[-84.4892106866,34.9951581067],[-84.4863579143,34.996290053],[-84.4755875999,34.9977215282],[-84.46723613028362,34.994400713437464],[-84.4690692933,34.9909087669],[-84.4707779715,34.989831714],[-84.4736746442,34.990286838],[-84.4754113474,34.9916647058],[-84.4840723402,34.9904699804],[-84.48412215688397,34.98824337252],[-84.4907195533,34.9886828314]]]},"properties":{"flat_pct":11}},{"type":"Feature","geometry":{"type":"Polygon","coordinates":[[[-84.65147740238599,35.08580096523101],[-84.64718,35.09312],[-84.64565,35.09254],[-84.64569,35.09099],[-84.64412,35.09012],[-84.64486,35.08924],[-84.64409,35.08812],[-84.64596,35.08715],[-84.64531,35.08621],[-84.64745,35.08342],[-84.64638,35.08323],[-84.64824,35.08328],[-84.64613277525092,35.081711832744865],[-84.6501,35.08258],[-84.65134,35.08199],[-84.6482905069403,35.08065224464226],[-84.64989990550443,35.07960486744086],[-84.65312,35.08102],[-84.6506,35.08546],[-84.65147740238599,35.08580096523101]]]},"properties":{"flat_pct":11}},{"type":"Feature","geometry":{"type":"Polygon","coordinates":[[[-84.6225211925,35.0986198719],[-84.62656,35.09942],[-84.6301042716,35.101293313],[-84.6277388618,35.1032731349],[-84.6242398719,35.1024988075],[-84.6225771783,35.1009152898],[-84.6225211925,35.0986198719]]]},"properties":{"flat_pct":13}},{"type":"Feature","geometry":{"type":"Polygon","coordinates":[[[-84.5995726064,35.1103640851],[-84.5944215863,35.1143482853],[-84.5912864707,35.1140538557],[-84.588252471,35.1158941537],[-84.5860105407,35.1153983449],[-84.5847758463,35.113462471],[-84.58525656177187,35.111244547601565],[-84.58756,35.11266],[-84.58905,35.11167],[-84.58956,35.11268],[-84.59043,35.11073],[-84.59116,35.11082],[-84.59092,35.112],[-84.59186,35.11034],[-84.59386,35.11057],[-84.59382,35.10935],[-84.59553,35.10873],[-84.59494,35.10792],[-84.59739,35.10799],[-84.59913974760498,35.10617891438859],[-84.6002116512,35.1081587054],[-84.5995726064,35.1103640851]]]},"properties":{"flat_pct":20}},{"type":"Feature","geometry":{"type":"Polygon","coordinates":[[[-84.57114,35.11356],[-84.56934526100099,35.11406556028141],[-84.57021692423031,35.11257424624595],[-84.57114,35.11356]]]},"properties":{}},{"type":"Feature","geometry":{"type":"Polygon","coordinates":[[[-84.5820977429,35.1154547561],[-84.5782720903,35.1208133165],[-84.5746848499,35.1210785313],[-84.5719739765,35.1191560399],[-84.56932092830915,35.115355774092954],[-84.57361,35.11804],[-84.57411,35.11709],[-84.56986,35.11455],[-84.57388,35.11471],[-84.57435,35.11262],[-84.57142577263545,35.111890584865975],[-84.576549200187,35.111911536082964],[-84.57889,35.11295],[-84.5806362894506,35.11202804594223],[-84.5820977429,35.1154547561]]]},"properties":{"flat_pct":14}},{"type":"Feature","geometry":{"type":"Polygon","coordinates":[[[-84.5512800144,35.1234981481],[-84.5511183632,35.1210045898],[-84.54707982,35.1192937211],[-84.5457662921,35.1177573434],[-84.5458327533,35.1154622049],[-84.5475026566,35.1138862921],[-84.5510711184,35.1136233349],[-84.5562626346,35.1165071439],[-84.5595857687,35.1199413832],[-84.5593420548,35.1228052105],[-84.5561814124,35.1252221555],[-84.55379106654705,35.12516089992758],[-84.5512800144,35.1234981481]]]},"properties":{"flat_pct":13}},{"type":"Feature","geometry":{"type":"Polygon","coordinates":[[[-84.5077740578,35.1402638761],[-84.5095868571,35.1393696891],[-84.51190786514125,35.139905752678025],[-84.51192,35.1424],[-84.51267,35.1428],[-84.51079205131553,35.146584788887154],[-84.5071776294,35.1435435058],[-84.5077740578,35.1402638761]]]},"properties":{"flat_pct":12}},{"type":"Feature","geometry":{"type":"Polygon","coordinates":[[[-84.611642123,35.1089385775],[-84.605133293,35.1052510116],[-84.6039426194,35.1025192069],[-84.60411156803086,35.100527096255306],[-84.6073,35.09845],[-84.60767,35.09897],[-84.60905,35.09697],[-84.61155837029095,35.097239178097226],[-84.6120901165,35.1011510782],[-84.6147047899,35.1009617449],[-84.6172944379,35.102214074],[-84.6214601405,35.1070195522],[-84.6246160008,35.1060947152],[-84.6269388026,35.1070131773],[-84.62799248,35.108682423],[-84.6274782303,35.1120456739],[-84.6290894294,35.1186985068],[-84.6282016056,35.1214561157],[-84.6248228967,35.1227121139],[-84.6186208588,35.1204450335],[-84.6208285806,35.1239867631],[-84.6237752972,35.1246303902],[-84.6266268506,35.1283694225],[-84.6225085798,35.1394738297],[-84.6223998625,35.1447560778],[-84.61899,35.14828],[-84.62009231912448,35.14871409912424],[-84.6130900294,35.1569399206],[-84.6119826964,35.1594777928],[-84.5906250677,35.1759821493],[-84.5813550484,35.1805971606],[-84.5712105212,35.1831751241],[-84.5670314448,35.1831841445],[-84.5631782243,35.185406638],[-84.5602489543,35.1852452613],[-84.5587792418,35.1841662431],[-84.5567803126,35.1850243693],[-84.5585416685,35.1918389145],[-84.556722416,35.1936475718],[-84.5539258725,35.1932243932],[-84.55128846,35.1902044851],[-84.5500494868,35.1841916076],[-84.551063913,35.1797060803],[-84.5545047594,35.1747295596],[-84.5512882031,35.1740206442],[-84.5493301634,35.1712711033],[-84.5493681714,35.1690807229],[-84.547554052,35.1675349697],[-84.54924,35.16333],[-84.53355810186498,35.15750861594864],[-84.5411239337,35.156400524],[-84.5464933632,35.1578975277],[-84.5498648777,35.1564515007],[-84.5544384277,35.1580711275],[-84.5581301096,35.1570050487],[-84.5626068813,35.1595849839],[-84.5653890629,35.1579976761],[-84.5686572942,35.1541634879],[-84.5716752103,35.1524704599],[-84.5753628615,35.1518559258],[-84.5783935411,35.1553262863],[-84.5791842075,35.1588936623],[-84.5784880542,35.1640893932],[-84.581011934,35.169529918],[-84.5837079901,35.1703312935],[-84.5888676842,35.1697246053],[-84.6053306593,35.1570408883],[-84.5996614403,35.1543804816],[-84.5990755238,35.1514954917],[-84.6004587211,35.1489902914],[-84.6056434811,35.1469313738],[-84.609326635,35.1477728508],[-84.6127904844,35.1449190546],[-84.6154614717,35.144891561],[-84.6166200996,35.1430141445],[-84.6165876209,35.1378436691],[-84.6200558098,35.129991758],[-84.6166013916,35.1291038903],[-84.6120589485,35.1216342953],[-84.6110276371,35.1154339265],[-84.6116784674,35.1129760026],[-84.6147414918,35.1112023619],[-84.6173591796,35.1119139717],[-84.6144422343,35.1080288377],[-84.611642123,35.1089385775]],[[-84.6219758476,35.1147291641],[-84.6201934582,35.1143081075],[-84.6194075967,35.1141708063],[-84.6219758476,35.1147291641]],[[-84.572861643,35.1596503733],[-84.5721668534,35.1590647417],[-84.5693530672,35.1625785606],[-84.5641266441,35.1656257416],[-84.5610074674,35.1657041961],[-84.5603643621,35.1673081522],[-84.5647031149,35.1662560262],[-84.5663348747,35.1674998124],[-84.566785654,35.1695014223],[-84.5651725641,35.1732131249],[-84.5597068366,35.1781380084],[-84.5627002867,35.1788467587],[-84.5653267704,35.1772880339],[-84.5701283316,35.1772323305],[-84.5780871362,35.1749199967],[-84.576269344,35.1735327793],[-84.5725594581,35.1655339983],[-84.572861643,35.1596503733]],[[-84.5526704866,35.1638728726],[-84.5527226781,35.1640458955],[-84.5529803919,35.1639194249],[-84.5526704866,35.1638728726]]]},"properties":{"flat_pct":12}},{"type":"Feature","geometry":{"type":"Polygon","coordinates":[[[-84.487438425,35.1874756917],[-84.48923600444161,35.18635561132431],[-84.4895,35.18828],[-84.49367,35.18908],[-84.49415,35.19024],[-84.49181,35.18929],[-84.4902,35.19205],[-84.48763577709248,35.19135176089843],[-84.4868216887,35.1894006458],[-84.487438425,35.1874756917]]]},"properties":{"flat_pct":15}},{"type":"Feature","geometry":{"type":"Polygon","coordinates":[[[-84.5380458827,35.2489751577],[-84.5372523799,35.2468205275],[-84.5382148423,35.2447358827],[-84.5433632386,35.24211484],[-84.5452881993,35.2420678978],[-84.544480336,35.2367467447],[-84.5386095409,35.2311489915],[-84.5256059,35.2262274085],[-84.5159312567,35.2247807133],[-84.5147891276,35.2263715542],[-84.5119242512,35.2273965645],[-84.5002140724,35.2267915698],[-84.498739394,35.2279055182],[-84.4990138461,35.2304265357],[-84.4976065475,35.2343140485],[-84.493812872,35.2382398637],[-84.4909492731,35.2387605097],[-84.4904901172,35.2406619885],[-84.4855651988,35.2471914996],[-84.47893597561354,35.24765414708294],[-84.48022,35.24381],[-84.47507,35.24478],[-84.47439,35.24601],[-84.4715834195,35.2445468035],[-84.4738471691,35.2417808835],[-84.4796649408,35.2403740099],[-84.4821468277,35.2414425068],[-84.4833875884,35.2394409382],[-84.4815608672,35.2376359093],[-84.4819607613,35.2348359414],[-84.4839237887,35.233644891],[-84.4867091085,35.2340915107],[-84.4901035591,35.2306963569],[-84.4928142842,35.2301334851],[-84.4926649752,35.2252227564],[-84.4970495785,35.2212713028],[-84.4998051508,35.2206700367],[-84.5061421266,35.2215964186],[-84.5081553739,35.2206222411],[-84.5101580235,35.220935376],[-84.5132723931,35.2179195725],[-84.5176830326,35.2190041936],[-84.520294293,35.2176314822],[-84.5235024096,35.218567973],[-84.5248825123,35.2201037513],[-84.5418484262,35.2260978792],[-84.5437004932,35.2250185691],[-84.5462893779,35.2257997049],[-84.5483952748,35.2252861544],[-84.5509435175,35.2271282453],[-84.54939451303234,35.23187537301706],[-84.5484401145,35.2322062141],[-84.54923088614404,35.23303298836444],[-84.54513,35.23136],[-84.54439,35.23274],[-84.55032,35.23883],[-84.54650775075987,35.24249443768997],[-84.54545,35.24223],[-84.54557,35.24324],[-84.54467,35.24277],[-84.54522,35.24368],[-84.54427,35.24479],[-84.54638499744728,35.24717606542829],[-84.5410058352,35.2498432246],[-84.5380458827,35.2489751577]]]},"properties":{"flat_pct":29}},{"type":"Feature","geometry":{"type":"Polygon","coordinates":[[[-84.54593,35.24362],[-84.54987,35.23944],[-84.55059,35.2395],[-84.54737,35.24269],[-84.54593,35.24362]]]},"properties":{}},{"type":"Feature","geometry":{"type":"Polygon","coordinates":[[[-88.0440901292,36.4515897562],[-88.04094100666434,36.44901539682573],[-88.04727,36.44739],[-88.0465,36.44785],[-88.04654,36.45216],[-88.0440901292,36.4515897562]]]},"properties":{"flat_pct":10}},{"type":"Feature","geometry":{"type":"Polygon","coordinates":[[[-88.0421900898,36.4793586741],[-88.04268,36.48094],[-88.03912640207689,36.47926683158029],[-88.0408067136,36.4788985788],[-88.0421900898,36.4793586741]]]},"properties":{}},{"type":"Feature","geometry":{"type":"Polygon","coordinates":[[[-88.0393,36.48143],[-88.03672,36.48106],[-88.03729,36.4824],[-88.03592,36.48353],[-88.03601,36.48391],[-88.0406,36.48181],[-88.04229,36.48221],[-88.04204,36.48381],[-88.04068,36.48375],[-88.04139,36.4842],[-88.04071,36.48494],[-88.04199,36.48431],[-88.04225,36.4852],[-88.04092,36.48882],[-88.03939,36.48985],[-88.03772,36.48836],[-88.03756,36.49009],[-88.0411,36.48993],[-88.03752,36.49353],[-88.03776,36.49273],[-88.03512,36.49144],[-88.03281,36.49119],[-88.03249,36.49035],[-88.03179,36.49097],[-88.03016181948686,36.48982069610837],[-88.03028176154926,36.48867507671812],[-88.02787,36.48886],[-88.02849241520187,36.4892901243265],[-88.0252189604,36.4918216326],[-88.02921427268477,36.490853568724276],[-88.02692,36.49286],[-88.02557,36.49266],[-88.02637,36.4933],[-88.0249,36.49391],[-88.03146,36.49365],[-88.03193,36.49429],[-88.0299997569,36.4977239632],[-88.02445591483952,36.49833088958449],[-88.02269642912123,36.50365377819688],[-88.0244820415,36.5025396604],[-88.0267089895,36.5026280095],[-88.03043279964919,36.50496535491127],[-88.02804,36.50482],[-88.02949,36.50652],[-88.02771,36.5083],[-88.02832,36.50881],[-88.02719,36.5091],[-88.02924625697851,36.50889938956307],[-88.0282896567,36.509247478],[-88.02863751254985,36.51095030100204],[-88.02635,36.51132],[-88.02811,36.51295],[-88.02737658721958,36.5158948833703],[-88.0264257563,36.5162300684],[-88.02744326180276,36.51806829910824],[-88.02496,36.52077],[-88.02484,36.51988],[-88.02226,36.51865],[-88.0221,36.52001],[-88.02124441033332,36.52013082754835],[-88.0193503447,36.5151754731],[-88.0210508528,36.51218984],[-88.01898644,36.5100629849],[-88.0163989942988,36.51008988139897],[-88.0111354865,36.5125852204],[-88.0019832153,36.5112413559],[-87.99147868143271,36.513136655028916],[-88.00007142141328,36.51743056128852],[-87.99671,36.51706],[-88.00054,36.51751],[-87.99984179763632,36.51787929711798],[-88.00039,36.51864],[-87.99924,36.51843],[-88.0002,36.52028],[-88.00692852315544,36.52257764305031],[-88.001828567,36.5273378344],[-87.996629692,36.5271963523],[-87.9968299583,36.5311990253],[-88.0033730752,36.529430127],[-88.01081,36.52936],[-88.01077114583559,36.52791268237582],[-88.01521,36.52658],[-88.01471,36.52562],[-88.01647,36.52447],[-88.01907534478569,36.52517008445384],[-88.022469774,36.5278732695],[-88.0237266977,36.5320131371],[-88.02576735367957,36.53187706283194],[-88.02411,36.53394],[-88.02577,36.5334],[-88.02643,36.53506],[-88.02262,36.53661],[-88.02494,36.53609],[-88.02564111124438,36.53770172673664],[-88.024127018,36.5382561178],[-88.0238996534512,36.54057202380143],[-88.0209062582,36.5444367363],[-88.028886646,36.540330998],[-88.0293,36.54155],[-88.02834,36.54073],[-88.02858,36.542],[-88.02741,36.54343],[-88.02929,36.54251],[-88.0295,36.54497],[-88.02826,36.54689],[-88.02697,36.54712],[-88.02828061748863,36.5476507385431],[-88.0265802651,36.5489338272],[-88.0198019892,36.5506128907],[-88.0180950774,36.5532092427],[-88.01847449764892,36.5550196481164],[-88.01647,36.55402],[-88.01757,36.55484],[-88.01666,36.5565],[-88.01511,36.55663],[-88.01598,36.55701],[-88.01539,36.55844],[-88.01422,36.55857],[-88.01556,36.55869],[-88.01617,36.55748],[-88.0185574648,36.5594496603],[-88.01832889976923,36.55808707519485],[-88.02014,36.55839],[-88.01949,36.55746],[-88.02414546849944,36.556881901646406],[-88.0272811467,36.5624639416],[-88.0266511583,36.5673419189],[-88.0231344524,36.5693660093],[-88.0185541671,36.5700012686],[-88.01985375903028,36.57366519333495],[-88.01774,36.57425],[-88.01703,36.57315],[-88.01609,36.57344],[-88.01624,36.57482],[-88.01479095025029,36.57515949165565],[-88.0129173906,36.5723013942],[-88.0123328135,36.5751955299],[-88.01328545771389,36.576737268802184],[-88.01124,36.5775],[-88.01262,36.57779],[-88.01162,36.57845],[-88.01199,36.5791],[-88.01059,36.57935],[-88.01074,36.58012],[-88.01188622139827,36.580060456031255],[-88.0104635043,36.5804656851],[-88.009210469,36.5835908596],[-88.0024791765,36.5893685427],[-87.996996399,36.5915958781],[-87.9937449406,36.5954806371],[-87.9924929163,36.6009180327],[-87.9907174462,36.6035900599],[-87.9911564617,36.6074756613],[-87.9903923543,36.6093941738],[-87.9917357474,36.6111831086],[-87.9933648806,36.6112967691],[-87.9964605663,36.6050514672],[-88.0039158699,36.6013600969],[-88.0033337046,36.5991009563],[-88.004070428,36.5972765932],[-88.0142138177,36.5898235676],[-88.0137163683,36.5871246302],[-88.01473133,36.5850650354],[-88.0166110018,36.5843216339],[-88.0186569936,36.58504235],[-88.0224280056,36.579983089],[-88.0256675593,36.5807685763],[-88.0264574136,36.5829245467],[-88.0246966759,36.5866110269],[-88.0253695464,36.588552166],[-88.024794603,36.5913889411],[-88.0218539788,36.5937419958],[-88.0163361485,36.5954508467],[-88.0156514095,36.5961808993],[-88.0246583974,36.5953264893],[-88.0262260182,36.5976806985],[-88.0251559306,36.6011045178],[-88.0218191327,36.6027527017],[-88.018212593,36.6016108343],[-88.0141293383,36.6045128785],[-88.0077794562,36.605997261],[-88.0012391589,36.6089384375],[-88.0009882295,36.6101409728],[-88.0046694668,36.6113499375],[-88.0109220753,36.6107931628],[-88.018377877,36.6125741644],[-88.0300067805,36.6094293588],[-88.03720274926232,36.61035718312867],[-88.0319,36.61053],[-88.03151,36.60983],[-88.02926974338227,36.610571725812044],[-88.03041,36.61041],[-88.03072,36.61224],[-88.03219,36.61199],[-88.03191,36.61265],[-88.03256,36.6121],[-88.03626,36.61332],[-88.03880331400246,36.61185014355007],[-88.0393840182,36.6148523839],[-88.0372018828,36.6168377607],[-88.0294814962,36.6155315664],[-88.0321728501,36.618644824],[-88.0403570231,36.620673554],[-88.0419346714,36.6219372145],[-88.0425,36.62425],[-88.03994,36.62299],[-88.04032,36.62527],[-88.03866,36.62462],[-88.03847,36.626],[-88.03727,36.62515],[-88.03812,36.62717],[-88.03667,36.62715],[-88.03677965305711,36.628216625191946],[-88.0352077454,36.6255070048],[-88.0291897708,36.6245883461],[-88.0269655385,36.6226697282],[-88.0230128435,36.6226997159],[-88.0214853926,36.6195021272],[-88.0182302523,36.6246350067],[-88.0234034192,36.6285912717],[-88.026531841,36.6325150945],[-88.0262758644,36.6361016733],[-88.03039406029387,36.63352759258896],[-88.03221,36.63461],[-88.029,36.63665],[-88.03105,36.63644],[-88.03138,36.63517],[-88.03279,36.63556],[-88.03643080539717,36.63162131052487],[-88.03936,36.63153],[-88.0413023953,36.6303459838],[-88.04127488796142,36.62937315259619],[-88.04264,36.62993],[-88.04309,36.62901],[-88.04721,36.6279],[-88.04619034715748,36.63440297628143],[-88.0380112409,36.6374097635],[-88.0366884285,36.63877542],[-88.0354707259,36.6433899056],[-88.0396037153,36.6448562745],[-88.0415820637,36.6507726025],[-88.04659143717963,36.655738013052186],[-88.04411,36.65538],[-88.04447,36.65653],[-88.04223,36.65764],[-88.03931,36.65657],[-88.03997,36.65797],[-88.03837,36.65865],[-88.03909,36.65894],[-88.03866,36.65989],[-88.03585269282011,36.662969606352206],[-88.0341631319,36.6617579413],[-88.0337177283,36.6594563406],[-88.0312368376,36.6577238177],[-88.0306483372,36.6589701774],[-88.032344448,36.6609654032],[-88.0322734163,36.6654813714],[-88.0344482343,36.6671523889],[-88.0406497968,36.6697437812],[-88.0438029602,36.669892608],[-88.0464724192,36.6729747483],[-88.0523137703,36.6761218496],[-88.05469135855061,36.67543382395731],[-88.05066,36.6767],[-88.0505,36.67769],[-88.05135,36.6777],[-88.05054,36.67784],[-88.05132664883443,36.678017350838225],[-88.04306016049622,36.677933274643884],[-88.0404833875,36.6758017721],[-88.0384917005,36.6757008839],[-88.030391061,36.6715871925],[-88.0241701612,36.6735322239],[-88.0170234240937,36.67717696192486],[-87.98402066552374,36.674652730563096],[-87.9873925923,36.6732800264],[-87.9911695674,36.6743694847],[-87.9930771127,36.6717449888],[-87.9932394741,36.6698146854],[-87.9920307107,36.6685962131],[-87.9878086987,36.6665494365],[-87.984168295,36.6700491148],[-87.9789058914,36.6711988154],[-87.97657377,36.6707773888],[-87.96891462765521,36.673362349937754],[-87.9611460127452,36.672698743090415],[-87.9635,36.67116],[-87.96344072165608,36.66931656848653],[-87.9646035999,36.6684302749],[-87.9754323769,36.6645742647],[-87.9786411043,36.6651272354],[-87.9817584819,36.6644372726],[-87.9830739053,36.6626201528],[-87.9706871991,36.657204202],[-87.9704232239,36.6548790246],[-87.9714513062,36.6529161966],[-87.9730837176,36.6520665127],[-87.9744276703,36.645551961],[-87.9698693879,36.6471536649],[-87.9642278954,36.6518101103],[-87.9507706456,36.6571336589],[-87.9463421641,36.6615499073],[-87.9496791148,36.6637766868],[-87.9507622537,36.6662543513],[-87.9530081601,36.6676345543],[-87.9558512774,36.6676471066],[-87.9599549914,36.6659074644],[-87.9619326807,36.6663252641],[-87.9633325356,36.6684749914],[-87.96333264084542,36.66925995472855],[-87.96256,36.6683],[-87.96335,36.66969],[-87.96252,36.67105],[-87.9601,36.67186],[-87.95868,36.67021],[-87.95628964144124,36.672283904501064],[-87.94237467118602,36.67109526667453],[-87.9442231685,36.6672574299],[-87.9407693859,36.6655982958],[-87.9354375697,36.6698001141],[-87.91716705082372,36.66894199357871],[-87.9195121772,36.6668338389],[-87.9220771593,36.6667241672],[-87.9240999287,36.6679763806],[-87.9257300544,36.6658619718],[-87.9295980442,36.6642605712],[-87.9333572811,36.663939316],[-87.9341455685,36.6628648053],[-87.9314836029,36.6607139536],[-87.9303281322,36.6579134404],[-87.9285531416972,36.65902171119249],[-87.92751,36.65624],[-87.92472218266762,36.65916896389153],[-87.9241743746,36.6586892628],[-87.9236070463,36.6556572672],[-87.9260868424,36.6535518811],[-87.9249799796,36.6517658129],[-87.9236369184,36.654137069],[-87.9187668148,36.6574402152],[-87.9167643997,36.6577161601],[-87.9148685261,36.6564208836],[-87.9143976389,36.654455158],[-87.9161441737,36.6516031998],[-87.9182772947,36.6502800018],[-87.9180368394,36.6480423815],[-87.9091896317,36.649407166],[-87.9067555188,36.647966739],[-87.9064058573,36.6456974187],[-87.9080221203,36.6437052804],[-87.9183098896,36.6418514363],[-87.9165376453,36.6392306548],[-87.9128059075,36.6397049444],[-87.9093435111,36.6389585372],[-87.90866932279621,36.63839351363895],[-87.91152,36.63892],[-87.91195,36.63795],[-87.90971,36.63752],[-87.9068035811,36.6352396389],[-87.90718,36.63368],[-87.90841,36.63455],[-87.90802,36.63344],[-87.90876,36.63309],[-87.91088,36.63373],[-87.911,36.63299],[-87.91422,36.63274],[-87.9148,36.63358],[-87.91843,36.63185],[-87.91768,36.63108],[-87.91245,36.63061],[-87.91226,36.62806],[-87.91005216191692,36.62937090386183],[-87.9109594158,36.6254313935],[-87.9099735795,36.6205743424],[-87.9122530855,36.6185278952],[-87.91244,36.61328],[-87.91396,36.61424],[-87.9164,36.61349],[-87.91797,36.61458],[-87.91776,36.61293],[-87.92696,36.61117],[-87.92706,36.61004],[-87.92895,36.61059],[-87.9277,36.60989],[-87.92893,36.60914],[-87.92474,36.61057],[-87.92200185474829,36.60989783399805],[-87.9258717257,36.6092009284],[-87.9369427126,36.6037039481],[-87.9365169095,36.6016779495],[-87.9321054391,36.6035545859],[-87.92849101,36.6067421046],[-87.9220095011,36.6091594895],[-87.9121403797,36.6083969712],[-87.9101116955,36.6052991525],[-87.9115280829,36.6028509731],[-87.914115929,36.6025755527],[-87.91306559081578,36.59478146964196],[-87.91715,36.59506],[-87.91418631529238,36.59333563464201],[-87.9244857224,36.5921855565],[-87.9270277113,36.5906878652],[-87.9250993955,36.5911106021],[-87.9194243215,36.5898903519],[-87.9152879104,36.586410002],[-87.90907550073575,36.584224588508995],[-87.90932,36.5826],[-87.91176,36.58353],[-87.91092,36.58229],[-87.91398,36.58109],[-87.91471431899383,36.579783564934466],[-87.9187620537,36.5814366616],[-87.921619619,36.5842419912],[-87.9250267059,36.5849730394],[-87.9276770173,36.5838790605],[-87.9322216236,36.5843171787],[-87.9315369329,36.5748653652],[-87.9233334835,36.5719498685],[-87.9193395792,36.5725260674],[-87.9155023499,36.5677087181],[-87.91593282139984,36.56603933959926],[-87.91777,36.5674],[-87.92174,36.56635],[-87.92414,36.56799],[-87.9243448231912,36.5660130268823],[-87.9314458761,36.5681184933],[-87.9314180125,36.5660539326],[-87.9289686558,36.5599703342],[-87.928982017,36.5559878756],[-87.9269493596,36.5572199712],[-87.9240901385,36.5614238283],[-87.91699793563015,36.56298231166555],[-87.91454,36.56169],[-87.91555,36.56153],[-87.91446,36.56056],[-87.91459,36.55731],[-87.9208503867,36.5560330473],[-87.9243899585,36.5514104022],[-87.9272634359,36.5502391843],[-87.9275380144,36.5483342955],[-87.9239761358,36.537449951],[-87.9179674473,36.5390413126],[-87.9110595504,36.5457573841],[-87.9025764798,36.548328205],[-87.9051739303,36.5539280023],[-87.907732008,36.5563655387],[-87.90794658997271,36.55793818083672],[-87.90498,36.5589],[-87.90371,36.55846],[-87.90063,36.55429],[-87.90063,36.55294],[-87.89643,36.54844],[-87.89798,36.54801],[-87.89576,36.54761],[-87.89678,36.5463],[-87.89443352282343,36.54547092740914],[-87.89624,36.5438],[-87.8943981167587,36.543721202855984],[-87.89502,36.54204],[-87.89157,36.53855],[-87.8903615614966,36.535357861214834],[-87.8924192915,36.5340284504],[-87.8925570628553,36.53089797848081],[-87.89887,36.52885],[-87.8992,36.52714],[-87.90006,36.52837],[-87.90108,36.52844],[-87.90103,36.52773],[-87.90253,36.5274],[-87.90502,36.52589],[-87.90458769207729,36.52458632142056],[-87.9078001667,36.5222121794],[-87.9147119144,36.5199495115],[-87.91308626792157,36.51158156292788],[-87.91692,36.51196],[-87.91887340929627,36.510918616604755],[-87.92030296009202,36.51737918476309],[-87.9294783291,36.5119855777],[-87.934458602,36.5112317429],[-87.93827357352842,36.50779419398037],[-87.9360197832,36.5069393041],[-87.9348834192,36.5049441213],[-87.9353217319,36.5029708768],[-87.9371959243,36.5016444225],[-87.9424691154,36.5028644376],[-87.9456935904,36.5069118165],[-87.9511890789,36.5083685572],[-87.954822994,36.5080141772],[-87.959898737,36.5108154264],[-87.9691045806,36.5096018234],[-87.9841739778,36.5113412891],[-87.98694027169316,36.50909337249926],[-87.9811664249,36.5083409276],[-87.9793923692,36.5061380971],[-87.9800386279,36.5036555036],[-87.9820735086,36.5025918597],[-87.9906543007,36.5035163963],[-87.99379863328295,36.506593720079],[-88.001719578,36.5051828363],[-88.0102010862,36.5065022675],[-88.0131800846,36.5050021543],[-88.0171007808,36.5014645614],[-88.0179497053,36.4988963504],[-88.0157951,36.4970342066],[-88.0156336597,36.4931102025],[-88.0113296736,36.4930552572],[-88.0101344597,36.491425142],[-88.0102446809,36.4894068102],[-88.0145586439,36.4868497246],[-88.0202640934,36.4883997127],[-88.0232319248,36.4848849948],[-88.0259032378,36.4838148168],[-88.0245920856,36.4803680324],[-88.0220895921,36.4795376056],[-88.018717795,36.4801897473],[-88.0154517388,36.4743866219],[-88.0089454229,36.4726650137],[-88.0037593969,36.4791626503],[-87.9987269552,36.4801764972],[-87.9971789678,36.478480675],[-87.9972835028,36.4761869552],[-88.002854195,36.4713149951],[-87.9872349677,36.4685611437],[-87.9856313949,36.4656387726],[-87.987717653,36.4630389216],[-87.99158958475121,36.46288344984988],[-87.9914,36.46426],[-87.99383315216534,36.46336561410999],[-88.001647621,36.4644652369],[-88.0074463322,36.4666316258],[-88.0128739119,36.4668549453],[-88.0100467296,36.4614353674],[-88.01021320593198,36.45734458132168],[-88.01610434915465,36.45517909596921],[-88.0160043754,36.4597406732],[-88.0182307751,36.4640231242],[-88.0211887965,36.4672004672],[-88.0215174642577,36.469386011308],[-88.0233566939,36.4696410172],[-88.0259299161,36.4679820204],[-88.0286320887,36.4694696769],[-88.0288118505,36.4726369081],[-88.02754062111853,36.474634785487936],[-88.0315728091,36.473223315],[-88.03161790232166,36.47100635801498],[-88.03482,36.47151],[-88.03631,36.47399],[-88.03794,36.47383],[-88.036640239,36.4776665578],[-88.0307990359,36.4798094136],[-88.03197679950492,36.48290554340181],[-88.03376861940542,36.483541587678346],[-88.0347802454,36.4819919404],[-88.03855483235624,36.47968102507519],[-88.0393,36.48143]],[[-87.99975,36.51785],[-87.99940352878467,36.518111108742],[-87.99984179763632,36.51787929711798],[-87.99975,36.51785]],[[-87.99933,36.51815],[-87.99847,36.51799],[-87.99906,36.51837],[-87.99933,36.51815]],[[-88.02916,36.61048],[-88.02799,36.61041],[-88.02926974338227,36.610571725812044],[-88.02916,36.61048]],[[-87.9876144713,36.5179814071],[-87.9690235655,36.5156246433],[-87.9592348087,36.5168538567],[-87.9537601663,36.5140391329],[-87.9505653255,36.5143937945],[-87.9425550445,36.5125719888],[-87.9403091948,36.5134399794],[-87.9375929539,36.5166463685],[-87.9317997881,36.5176139414],[-87.92312697780582,36.52268054761054],[-87.9257785733,36.5274831824],[-87.9288538613,36.5306230597],[-87.9332360836,36.5464541546],[-87.9398670931,36.5414034403],[-87.9425055209,36.5418146646],[-87.9439385816,36.5432401993],[-87.9432505221,36.5467475416],[-87.9412182546,36.5476054565],[-87.9395690065,36.5501126993],[-87.9341236591,36.552784453],[-87.9358369848,36.5553883461],[-87.9352531586,36.5596173062],[-87.9425946247,36.557892241],[-87.9451853827,36.5603545263],[-87.9438372116,36.5634031543],[-87.9374010638,36.5652570118],[-87.9374941457,36.5716545543],[-87.9427732743,36.5740713759],[-87.9494281241,36.5799428525],[-87.9552290572,36.5798644824],[-87.9733959308,36.5765977482],[-87.9745384124,36.5746610713],[-87.970543219,36.5721692025],[-87.9695502896,36.5694916801],[-87.9708776751,36.566545563],[-87.9728891534,36.5654382991],[-87.9753149991,36.566272681],[-87.9762070244,36.5686914206],[-87.9791335163,36.5705213718],[-87.9812714414,36.5736436853],[-87.987245623,36.5745149201],[-87.9990079837,36.5731800007],[-88.0054521248,36.5745907638],[-88.0065708675,36.5734170653],[-88.0073174089,36.5697210735],[-88.0060037067,36.5673224227],[-87.9974551914,36.5712590576],[-87.9949281489,36.5699887065],[-87.9944882539,36.5674613732],[-87.9956512935,36.5658081489],[-88.0005831717,36.5629386827],[-88.0058368947,36.5610311909],[-88.0092640089,36.5567109761],[-88.0100164205,36.5541223756],[-88.0119270072,36.5530522102],[-88.01210732,36.5508173231],[-88.0138792492,36.5489315125],[-88.0155682153,36.541204119],[-88.0180080631,36.5382485543],[-88.0185271634,36.5355174692],[-88.0175393127,36.5321191376],[-88.0079988618,36.5349572389],[-88.0096511726,36.5399255736],[-88.0088668667,36.5434130833],[-88.007222833,36.5450159653],[-88.0052028338,36.5450895541],[-88.0035946692,36.5438649651],[-88.0035814227,36.5396928977],[-88.0019185085,36.5362199406],[-87.9979086007,36.5373339836],[-87.9961433137,36.5390764273],[-87.9910400718,36.5391125857],[-87.9861092358,36.5412155594],[-87.9835445176,36.5430715488],[-87.9800488659,36.5480675127],[-87.9752265624,36.5486455998],[-87.9736663957,36.5469609758],[-87.9737544002,36.5446665624],[-87.9765123113,36.542877006],[-87.9793127926,36.5386846866],[-87.9828659252,36.5360895434],[-87.9906539908,36.5330943669],[-87.9905352958,36.5260095773],[-87.9890306184,36.5228980037],[-87.9902452951,36.5209495073],[-87.9925587962,36.5204212605],[-87.989110535,36.5195288319],[-87.9876144713,36.5179814071]],[[-87.9586408419,36.6318819842],[-87.9407513005,36.6219178065],[-87.9408652268,36.6242606954],[-87.9380613754,36.6312167256],[-87.9349504387,36.6328033597],[-87.9347258809,36.6354625264],[-87.9319721755,36.6384411236],[-87.9356718659,36.641301981],[-87.935571797,36.6443849739],[-87.9330999189,36.6457595847],[-87.9282581658,36.6435545738],[-87.9273536352,36.6445868066],[-87.930460869,36.6492700147],[-87.9328257642,36.6463832724],[-87.9360201286,36.6473360235],[-87.9367099674,36.6492360062],[-87.93625714,36.6567723437],[-87.9394688523,36.6589160444],[-87.9439342661,36.6555128792],[-87.9410838036,36.6511890866],[-87.9424999839,36.6481714498],[-87.9473990151,36.6478978138],[-87.949454082,36.6512627135],[-87.9612407456,36.6464578831],[-87.9670843575,36.641796814],[-87.9708417726,36.6406000046],[-87.968110649,36.6369459842],[-87.9622839013,36.632421404],[-87.9586408419,36.6318819842]],[[-87.9184750367,36.6174224541],[-87.9217677141,36.6200080501],[-87.9261963291,36.6211301122],[-87.9321580478,36.619704932],[-87.934856677,36.6206839074],[-87.9351206598,36.6198075713],[-87.9273407678,36.6150339768],[-87.9184750367,36.6174224541]],[[-87.9200058206,36.5991033949],[-87.9218039091,36.6030460645],[-87.9257737186,36.6012716112],[-87.9291751843,36.5982287436],[-87.9322824406,36.5972263171],[-87.9337388642,36.5949688317],[-87.9315635506,36.5946154813],[-87.9264040946,36.5978934043],[-87.9200058206,36.5991033949]],[[-87.920114645,36.532550046],[-87.9210162663,36.5312037272],[-87.9177177227,36.5252968435],[-87.9107950929,36.5274573126],[-87.9084676283,36.5292234475],[-87.9131802555,36.5323680416],[-87.9162216951,36.5332608747],[-87.920114645,36.532550046]],[[-87.9743684088,36.5827812854],[-87.9655061768,36.5842617698],[-87.9695178551,36.5851335793],[-87.9715887479,36.5883342067],[-87.9709059781,36.5927328383],[-87.967288806,36.5944302855],[-87.9651467357,36.5930187418],[-87.9649699142,36.5902438025],[-87.9554947788,36.585877256],[-87.9506517004,36.5866052755],[-87.9464795644,36.5852523707],[-87.9375833421,36.5782635826],[-87.9384014661,36.584483598],[-87.9414800314,36.590330109],[-87.9501379186,36.5932609734],[-87.9534714859,36.5980003725],[-87.9528518472,36.6004897436],[-87.9502403701,36.6015759864],[-87.9477214232,36.6004309392],[-87.9466378861,36.5985555107],[-87.9436496038,36.5980721188],[-87.9415859823,36.5966248421],[-87.9429772984,36.6032448136],[-87.9472985135,36.6034322221],[-87.9559242409,36.6057840041],[-87.9580472333,36.6079063303],[-87.9596934279,36.6133292608],[-87.962507588,36.6151492612],[-87.9684020443,36.6137666109],[-87.9754256158,36.6104844275],[-87.9837460503,36.6104633721],[-87.9851839458,36.6063935282],[-87.9849062457,36.6017086807],[-87.9868615292,36.5986928603],[-87.9885077572,36.5924105838],[-87.9933201237,36.5867340327],[-87.9993356965,36.5842452625],[-88.0040223799,36.5804184732],[-87.9988386379,36.5792195596],[-87.9872844796,36.5805388103],[-87.9787356953,36.5793373554],[-87.9775498505,36.5810868842],[-87.9743684088,36.5827812854]],[[-87.9348553713,36.6122541683],[-87.9597119357,36.6259443657],[-87.9617155103,36.6260911244],[-87.9609046914,36.6224261986],[-87.9572403546,36.6226150534],[-87.9524715384,36.6198386848],[-87.9497453307,36.6152611247],[-87.9437553345,36.6152604639],[-87.9416251126,36.6139458893],[-87.9410080849,36.6116326216],[-87.9348553713,36.6122541683]],[[-87.9722397077,36.6325525707],[-87.9743347613,36.6357215427],[-87.9772124979,36.6377958087],[-87.9854967027,36.6346739117],[-87.9924747878,36.6342337077],[-88.0002433002,36.632163589],[-88.0102037561,36.632720079],[-88.0195596976,36.6348705968],[-88.0199659862,36.6338811663],[-88.014918218,36.6298598753],[-88.0128775416,36.6299261628],[-88.0106981414,36.628558606],[-88.0033337858,36.6296873438],[-87.9993304502,36.6280725392],[-87.9980552515,36.6265958744],[-87.9967902668,36.6219838653],[-87.9939717014,36.6195875033],[-87.9929138567,36.617279887],[-87.981672768,36.6161259025],[-87.9763301556,36.6164935639],[-87.9665953942,36.6203532492],[-87.9678386216,36.6255889623],[-87.9672655307,36.6287243644],[-87.9722397077,36.6325525707]],[[-88.002696547,36.6187406463],[-88.003596493,36.6234485551],[-88.0123385191,36.6227221567],[-88.0153269393,36.6180098559],[-88.0103430982,36.6168062752],[-88.0037220135,36.6174141488],[-87.9996248719,36.6159842792],[-88.002696547,36.6187406463]],[[-87.9813383311,36.642166146],[-87.9788166069,36.6538748808],[-87.9837276001,36.6557807242],[-87.9908475467,36.6613547475],[-87.9956787485,36.6637811319],[-87.9987867574,36.6669668095],[-87.9997079677,36.6695468846],[-88.0062155075,36.6748791245],[-88.0098660279,36.6763311359],[-88.0132453541,36.6723413602],[-88.0190200977,36.6697519878],[-88.0109055621,36.6667067169],[-88.0100131858,36.6640228017],[-88.0114862865,36.6619225886],[-88.0137645744,36.6616371378],[-88.0246841243,36.6648973526],[-88.0263303575,36.6632897351],[-88.0240966702,36.6596799413],[-88.0256700905,36.6554609382],[-88.0228899251,36.6543502495],[-88.0219463605,36.6519647503],[-88.023701003,36.6494278056],[-88.026877922,36.6495730369],[-88.0274732457,36.6449764035],[-88.0268213523,36.6425286538],[-88.009354696,36.6386707695],[-88.0008612467,36.6381913735],[-87.9933547738,36.6401719514],[-87.9868602146,36.6405278764],[-87.9813383311,36.642166146]],[[-88.0359287904,36.6536821787],[-88.0346969391,36.6497117261],[-88.0328708519,36.648964587],[-88.0332613951,36.6518194109],[-88.0359287904,36.6536821787]],[[-88.0190558111,36.5614735519],[-88.0185451271,36.5631504402],[-88.0205307794,36.5633571804],[-88.0190558111,36.5614735519]],[[-87.9008709305,36.5364546561],[-87.8998832534,36.5408787182],[-87.9022059603,36.542258174],[-87.9079180728,36.5405969208],[-87.910289956,36.5376551696],[-87.9053310413,36.5347525072],[-87.9031599261,36.5364550065],[-87.9008709305,36.5364546561]],[[-87.928193404,36.6293691467],[-87.9297671815,36.6270977908],[-87.9331712448,36.6266207392],[-87.9321873139,36.6260677302],[-87.9260361024,36.627175464],[-87.9188480397,36.6255357513],[-87.9173677035,36.624319595],[-87.9165194422,36.6277416551],[-87.9198132276,36.6281329616],[-87.921442928,36.6293613442],[-87.9218709739,36.6344744838],[-87.9233444313,36.6385425177],[-87.9262103974,36.6349371208],[-87.928889632,36.6331906696],[-87.928193404,36.6293691467]],[[-87.9137256913,36.6334783346],[-87.9131251499,36.633302962],[-87.9123724582,36.6329188564],[-87.9127905157,36.6336481683],[-87.9137256913,36.6334783346]]]},"properties":{"flat_pct":53}},{"type":"Feature","geometry":{"type":"Polygon","coordinates":[[[-88.05565302092347,36.678040023983876],[-88.05731,36.67729],[-88.05657,36.67608],[-88.0573170035,36.6768774238],[-88.05772322315809,36.67805087325801],[-88.05565302092347,36.678040023983876]]]},"properties":{}},{"type":"Feature","geometry":{"type":"Polygon","coordinates":[[[-87.89236951,36.5234216946],[-87.88572013643932,36.52434090959541],[-87.88391,36.52179],[-87.88396,36.5192],[-87.88150445557497,36.51966367732572],[-87.8833276768,36.5185412818],[-87.8894572401,36.5179922262],[-87.8908289503,36.5150620967],[-87.89293,36.51499],[-87.89344,36.51985],[-87.89531786892647,36.51965956822154],[-87.89236951,36.5234216946]]]},"properties":{"flat_pct":28}},{"type":"Feature","geometry":{"type":"Polygon","coordinates":[[[-87.89966,36.52699],[-87.899,36.52698],[-87.89838,36.52765],[-87.89741301420817,36.52633419511314],[-87.90433734566885,36.52464731006832],[-87.90474,36.52568],[-87.90076,36.52761],[-87.90076,36.52841803921569],[-87.89966,36.52699]]]},"properties":{"flat_pct":100}},{"type":"Feature","geometry":{"type":"Polygon","coordinates":[[[-87.91048291015404,36.56315050178979],[-87.9095637373,36.5654878592],[-87.90755631690179,36.56647590464951],[-87.90709,36.56357],[-87.90901,36.56277],[-87.91048291015404,36.56315050178979]]]},"properties":{"flat_pct":29}},{"type":"Feature","geometry":{"type":"Polygon","coordinates":[[[-87.9099061583,36.5794478924],[-87.91311054473898,36.57961137322587],[-87.90894,36.5805],[-87.9099061583,36.5794478924]]]},"properties":{}},{"type":"Feature","geometry":{"type":"Polygon","coordinates":[[[-88.03797,36.66145],[-88.0389617886842,36.662240805692406],[-88.03722056483825,36.66302396446319],[-88.03704,36.66225],[-88.03797,36.66145]]]},"properties":{}},{"type":"Feature","geometry":{"type":"Polygon","coordinates":[[[-84.4604045753,35.0069400813],[-84.461550651,35.0035546144],[-84.465014191834,35.00359073646024],[-84.46192,35.00903],[-84.46404411751823,35.00987536666972],[-84.4616869709,35.0092714086],[-84.4604045753,35.0069400813]]]},"properties":{"flat_pct":33}},{"type":"Feature","geometry":{"type":"Polygon","coordinates":[[[-84.4760406349,35.0701953808],[-84.473611809,35.0720968705],[-84.4633006596,35.072267469],[-84.4599845327,35.0705206714],[-84.4580485218,35.0660503342],[-84.4590902866,35.0643181281],[-84.4609944816,35.0636400033],[-84.4674382807,35.0662703286],[-84.4740356923,35.0662274451],[-84.4758479846,35.0676372943],[-84.4760406349,35.0701953808]],[[-84.46256,35.06589],[-84.46178,35.06749],[-84.46351,35.06907],[-84.47066,35.06896],[-84.46368,35.06839],[-84.46274,35.06783],[-84.46256,35.06589]]]},"properties":{"flat_pct":12}},{"type":"Feature","geometry":{"type":"Polygon","coordinates":[[[-84.4803708123,35.0731671753],[-84.48104,35.07523],[-84.48995,35.07869],[-84.48134719202004,35.07713673915189],[-84.4801035814,35.0754476721],[-84.4803708123,35.0731671753]]]},"properties":{"flat_pct":38}},{"type":"Feature","geometry":{"type":"Polygon","coordinates":[[[-84.503298126,35.1577604238],[-84.50068912374786,35.1608643687683],[-84.49362,35.1581],[-84.49254336819612,35.16015454665153],[-84.4879109146,35.1613654053],[-84.4874220905,35.164139467],[-84.4833099677,35.1667490865],[-84.4809458578,35.1668761232],[-84.478406179,35.164762644],[-84.4758891662,35.1663030015],[-84.4744449014,35.1693158006],[-84.4722925029,35.1699789288],[-84.4702852343,35.1689574441],[-84.468860959,35.1654816357],[-84.4662468028,35.1638620006],[-84.465493246,35.1618503235],[-84.4626905812,35.1616406479],[-84.4569986056,35.1633246786],[-84.4516257361,35.1614815973],[-84.4461470711,35.1630410037],[-84.4415020305,35.1625798548],[-84.4376576065,35.1589632743],[-84.436695112,35.156343799],[-84.4347074603,35.1562955319],[-84.4313295972,35.1542999111],[-84.4303013273,35.1510874881],[-84.4280238373,35.1521708035],[-84.4267915635,35.1547210665],[-84.4233421708,35.1559132104],[-84.4166976226,35.1616287846],[-84.4179122465,35.1626867841],[-84.4218884016,35.1633111502],[-84.4254266584,35.1662892912],[-84.4260215387,35.1685322592],[-84.4243446784,35.1735059221],[-84.4280516524,35.1767221003],[-84.4324239169,35.1774473095],[-84.434998655,35.1750415145],[-84.438008393,35.1757170411],[-84.4389318946,35.1781103788],[-84.43778855359476,35.18087939993191],[-84.43615,35.17927],[-84.43616,35.1773],[-84.434,35.18103],[-84.41773795341581,35.17437640533658],[-84.4192612569,35.1698660417],[-84.4186045201,35.1687866022],[-84.4142242377,35.1674543733],[-84.4097189258,35.1675717029],[-84.407280606,35.1655288905],[-84.4045004442,35.1657916974],[-84.40056725409082,35.16955334304756],[-84.39029882563901,35.16765425982683],[-84.395156179,35.1637203568],[-84.4017315546,35.1604524365],[-84.4064534941,35.1549596238],[-84.4087624525,35.1547653404],[-84.4127908848,35.1568886221],[-84.4155122996,35.155494564],[-84.4197260288,35.1507747878],[-84.4220798736,35.1499629991],[-84.4231697751,35.1478385467],[-84.4265258286,35.1462911177],[-84.4271279057,35.1442544556],[-84.425629535,35.1401089958],[-84.4265011547,35.1374158118],[-84.4215800518,35.1391519803],[-84.4128991927,35.1468454046],[-84.4091276254,35.1469039827],[-84.4029972028,35.1425570388],[-84.4012878399,35.1401093781],[-84.4005883688,35.1363484315],[-84.3944765889,35.1301112027],[-84.3935858905,35.1239918289],[-84.3907128351,35.1201401064],[-84.3907911133,35.1170500341],[-84.394156221,35.1135859068],[-84.3935436123,35.1107085519],[-84.3833131174,35.1162749443],[-84.3826964104,35.1190366987],[-84.3803338021,35.1203801041],[-84.3795636433,35.1245602894],[-84.373036283,35.1296757588],[-84.3709675884,35.1367670939],[-84.3689079416,35.1396665607],[-84.3700921316,35.1426028634],[-84.3693444546,35.1455458057],[-84.3716994352,35.1461378845],[-84.3734437214,35.1490500317],[-84.3756633498,35.1495604657],[-84.3797684267,35.1530483264],[-84.3804288872,35.155197979],[-84.379399804,35.1572114193],[-84.3805477827,35.1603671743],[-84.3837297523,35.162263077],[-84.38534915401006,35.16673884824435],[-84.37339302640045,35.165875055879475],[-84.3718643193,35.1638819423],[-84.3706986171,35.1644647935],[-84.3712484132272,35.16578692109153],[-84.36455313966934,35.16551177286313],[-84.3649545605,35.1615899433],[-84.3720310457,35.1551189481],[-84.3687868454,35.1547382585],[-84.3670332846,35.1516815762],[-84.3627937619,35.1498349426],[-84.3619985221,35.147357303],[-84.3634964902,35.142747319],[-84.3594470989,35.1425001546],[-84.3581422085,35.1394327519],[-84.35841770357509,35.13862965061125],[-84.36211,35.13993],[-84.36846,35.13523],[-84.36987,35.13275],[-84.36864,35.13108],[-84.36709,35.13163],[-84.37132292848132,35.12344692740354],[-84.37263114352176,35.12245622075444],[-84.37702,35.12296],[-84.37681,35.11824],[-84.37908,35.11649],[-84.38097,35.11289],[-84.38556,35.11123],[-84.38823,35.10883],[-84.38713584927527,35.10683535354607],[-84.3922179431,35.1039709542],[-84.39317259609588,35.099636524739076],[-84.39425,35.09999],[-84.39561596204094,35.09752842257206],[-84.3992235819,35.0977857618],[-84.4022954328,35.0947881695],[-84.4057518651,35.0942823269],[-84.4079946715,35.0951620361],[-84.4091971346,35.0974334289],[-84.4131117082,35.0972944711],[-84.4168551871,35.0947738762],[-84.4232132334,35.09286598],[-84.4287718256,35.0973728285],[-84.4319905669,35.0978914969],[-84.4337015601,35.1001080781],[-84.4403210706,35.0982963898],[-84.4471392623,35.0978011621],[-84.4497213398,35.0994785106],[-84.4551399565,35.1089776407],[-84.4608678939,35.1085165341],[-84.4630275829,35.1096604955],[-84.4659277416,35.1091910923],[-84.4679572113,35.110239862],[-84.4699343166,35.1082435887],[-84.4732391563,35.1084211116],[-84.4781006133,35.1124077862],[-84.4813022218,35.11738809],[-84.4846188083,35.1188683637],[-84.4876894788,35.1186557118],[-84.4915401457,35.1234050494],[-84.49448883069128,35.124135545042805],[-84.4909302691,35.1295819027],[-84.4879084832,35.1284607976],[-84.4851226269,35.125762781],[-84.4816603315,35.1254150462],[-84.4799816036,35.1241060457],[-84.4792218197,35.1264322483],[-84.4763597405,35.1278976094],[-84.4669268049,35.1267247321],[-84.4646986089,35.1255618419],[-84.4553828443,35.1248836275],[-84.45303839401454,35.126389766360866],[-84.44643396398936,35.12395246346164],[-84.4480189402,35.1216685651],[-84.4527495715,35.1190520326],[-84.4627140944,35.119898492],[-84.4653170673,35.1192778633],[-84.4683756526,35.1207865476],[-84.4715544182,35.1208142565],[-84.4717240093,35.1186286723],[-84.4734084207,35.1165013687],[-84.4722044204,35.1158429717],[-84.469293984,35.1174649507],[-84.4655328528,35.1159764662],[-84.4606657989,35.1168192109],[-84.4577229638,35.1152628214],[-84.4521575848,35.1146472885],[-84.4487144437,35.112059099],[-84.44844881,35.1088426904],[-84.4445047768,35.1049650739],[-84.4293990969,35.1069197365],[-84.4250998327,35.1038194273],[-84.4220317372,35.0994749659],[-84.4194279148,35.1003807341],[-84.4164094916,35.1036142534],[-84.4122912451,35.1043199414],[-84.4064680334,35.1032180354],[-84.4002035817,35.1114283561],[-84.4004268034,35.1167196547],[-84.3973534206,35.1192406242],[-84.4025088992,35.1234508666],[-84.4026335076,35.1257255124],[-84.4007422839,35.1279607722],[-84.4037883104,35.1310975591],[-84.4066244086,35.1323449266],[-84.4073350431,35.1379148182],[-84.4102776905,35.1389295876],[-84.4116635099,35.1405017871],[-84.4156759133,35.1358235358],[-84.4184211451,35.1337513226],[-84.4218340249,35.1329592971],[-84.4234294808,35.1308957427],[-84.4289906431,35.1309547723],[-84.43011240821953,35.131267835641744],[-84.42892,35.13339],[-84.43717813499273,35.13655396015384],[-84.4362223179,35.139125904],[-84.432262206,35.1411227124],[-84.4330406682,35.1454555186],[-84.4361403431,35.1476974764],[-84.4368670932,35.1499107269],[-84.4392311027,35.1481369901],[-84.4425466358,35.1488440055],[-84.4434100769,35.1506248312],[-84.4431998087,35.155588868],[-84.4445831709,35.1569809951],[-84.4490827577,35.1559745338],[-84.4498943714,35.1520286437],[-84.4525224507,35.1505503004],[-84.4551311448,35.1517085526],[-84.4560889683,35.1542400055],[-84.4583535576,35.1564784883],[-84.4658029534,35.1553214404],[-84.4703466394,35.1562522405],[-84.4719764857,35.1577328875],[-84.482650009,35.1575732275],[-84.4923020863,35.1520943259],[-84.4957668003,35.1523878481],[-84.4976411443,35.1542580046],[-84.4979888359,35.1504440444],[-84.5007418155,35.1490789698],[-84.5095341444,35.1535737488],[-84.5131977231,35.1597331398],[-84.5124023429,35.1618870777],[-84.5103168602,35.1628477231],[-84.51082,35.15904],[-84.50768886772751,35.16171138649771],[-84.503298126,35.1577604238]]]},"properties":{"flat_pct":10}},{"type":"Feature","geometry":{"type":"Polygon","coordinates":[[[-84.3256524193,35.1493772126],[-84.327392669,35.1493059529],[-84.32889997034759,35.15023923872082],[-84.32757,35.15012],[-84.3256524193,35.1493772126]]]},"properties":{}},{"type":"Feature","geometry":{"type":"Polygon","coordinates":[[[-84.3394271882,35.162726133],[-84.3367809321,35.163724664],[-84.328563867,35.1614671882],[-84.32982,35.15809],[-84.32609,35.1537],[-84.32662,35.1522],[-84.32798,35.15279],[-84.32898252566127,35.15034152386573],[-84.3370326887,35.1576382395],[-84.339146133,35.1584928118],[-84.3401634101,35.1605512639],[-84.3394271882,35.162726133]]]},"properties":{"flat_pct":20}},{"type":"Feature","geometry":{"type":"Polygon","coordinates":[[[-84.3641516941,35.1714292236],[-84.3630477563,35.1694159181],[-84.3636907764,35.1672116941],[-84.36801,35.16688],[-84.36677,35.16945],[-84.3691253886003,35.1704093376062],[-84.3666466597,35.1720259378],[-84.3641516941,35.1714292236]]]},"properties":{"flat_pct":14}},{"type":"Feature","geometry":{"type":"Polygon","coordinates":[[[-84.3983621111,35.1749906657],[-84.3961314027,35.1755347409],[-84.3912244706,35.1736682153],[-84.3867993836,35.1760969918],[-84.38174064648747,35.17609027736232],[-84.38319,35.17409],[-84.38889,35.17205],[-84.39055,35.16904],[-84.39913727301098,35.17098993933892],[-84.3995547409,35.1730285973],[-84.3983621111,35.1749906657]]]},"properties":{"flat_pct":11}},{"type":"Feature","geometry":{"type":"Polygon","coordinates":[[[-84.430617207,35.1850045495],[-84.4286152539,35.1828025093],[-84.4253686623,35.1823914547],[-84.41789243338098,35.175893990090955],[-84.43325,35.18225],[-84.43263,35.18334],[-84.4346388841448,35.18552193408986],[-84.430617207,35.1850045495]]]},"properties":{"flat_pct":11}},{"type":"Feature","geometry":{"type":"Polygon","coordinates":[[[-84.457329436,35.2000637169],[-84.4533027575,35.1980896836],[-84.4503338925,35.1987706944],[-84.4479083065,35.1976977871],[-84.4438635248,35.190361301],[-84.443774733,35.1845295805],[-84.44031477821493,35.185055596844286],[-84.44312,35.1801],[-84.43912,35.18124],[-84.43805166712158,35.18095065984543],[-84.438862209,35.1798268844],[-84.4412896199,35.1784814675],[-84.4443652719,35.1783208804],[-84.4488997944,35.1806071548],[-84.4497662699,35.1824433084],[-84.4497615593,35.1890503065],[-84.4504936901,35.1910419504],[-84.4520424886,35.1920501771],[-84.4550663821,35.1922910392],[-84.4595682327,35.1944790448],[-84.463499462,35.1945311753],[-84.4680984567,35.1977982911],[-84.47249907,35.1960334247],[-84.47535963663205,35.19602095183752],[-84.47282,35.19968],[-84.46832,35.20288],[-84.46584,35.20342],[-84.4616901731,35.200715595],[-84.457329436,35.2000637169]]]},"properties":{"flat_pct":30}},{"type":"Feature","geometry":{"type":"Polygon","coordinates":[[[-84.3939671403,35.1930089419],[-84.39399376305887,35.19912093781941],[-84.39294,35.19874],[-84.39086397608402,35.20261698190165],[-84.3888328516,35.2024774799],[-84.3869015716,35.2040777376],[-84.3847375911,35.204236597],[-84.3826667231,35.2068551741],[-84.3802911043,35.2067211865],[-84.374767163,35.2096850876],[-84.3677769257,35.2092463782],[-84.36544381503724,35.21201487409013],[-84.36061,35.21021],[-84.35697,35.21683],[-84.35959732049523,35.21782265622837],[-84.351776005199,35.22303513513767],[-84.34597001783416,35.22080923252188],[-84.3485699047,35.2177106015],[-84.3595517626,35.2103155967],[-84.3636887976,35.2045190803],[-84.3631167643,35.2021723647],[-84.364441673,35.1986895693],[-84.3676567647,35.1949400642],[-84.3696220484,35.1944673359],[-84.3716367846,35.1955686606],[-84.3722826641,35.1977720484],[-84.3709769932,35.200120913],[-84.3741653868,35.203446214],[-84.3794535725,35.198757362],[-84.382633364,35.1974363356],[-84.3849289142,35.197915623],[-84.3876846799,35.1957498439],[-84.3876709002,35.1920485914],[-84.3892760033,35.1892240584],[-84.3874266894,35.1837722495],[-84.3888015257,35.1771934688],[-84.3912513957,35.1753191701],[-84.3934583357,35.1759528055],[-84.3945708299,35.1779613957],[-84.3940259376,35.1841990044],[-84.395599483,35.187334307],[-84.3953741846,35.1906255175],[-84.3939671403,35.1930089419]],[[-84.3816,35.2043],[-84.3817,35.20348],[-84.3813,35.20427],[-84.3816,35.2043]]]},"properties":{"flat_pct":11}},{"type":"Feature","geometry":{"type":"Polygon","coordinates":[[[-84.293483054,35.2309084159],[-84.2907379123,35.238203492],[-84.2879113414,35.2383046502],[-84.2840421836,35.2312582533],[-84.2846035875,35.2290285819],[-84.2864929195,35.2278679637],[-84.28696813094948,35.22491329993873],[-84.2888263,35.2244572],[-84.29021,35.22545],[-84.2905670179975,35.22242774347951],[-84.2923659085,35.223581409],[-84.2934308553,35.2261428442],[-84.293483054,35.2309084159]]]},"properties":{"flat_pct":12}},{"type":"Feature","geometry":{"type":"Polygon","coordinates":[[[-84.2049605637,35.2578307246],[-84.2030750038,35.2585590623],[-84.2011553938,35.2579258884],[-84.2000731964,35.2562186506],[-84.20025549932575,35.25433889213112],[-84.20302090361444,35.25534605421686],[-84.2024222418794,35.25298493365701],[-84.2049605637,35.2578307246]]]},"properties":{"flat_pct":10}},{"type":"Feature","geometry":{"type":"Polygon","coordinates":[[[-84.2922010514,35.2510518056],[-84.29255,35.25264],[-84.29007008758084,35.256990984064736],[-84.287001557,35.2560431268],[-84.28617379984779,35.25401687744166],[-84.28752,35.25348],[-84.28836972877056,35.25107900864378],[-84.2922010514,35.2510518056]]]},"properties":{"flat_pct":89}},{"type":"Feature","geometry":{"type":"Polygon","coordinates":[[[-84.4458070778,35.2581893987],[-84.4439761232,35.2531715763],[-84.445138817,35.2504872969],[-84.44743,35.25133],[-84.44866846237035,35.24904153692436],[-84.45322,35.24936],[-84.45136,35.2528],[-84.4555,35.25434],[-84.4518761207,35.2559327827],[-84.45351209710897,35.257722922463685],[-84.45004514180692,35.26362282885487],[-84.4458070778,35.2581893987]]]},"properties":{"flat_pct":17}},{"type":"Feature","geometry":{"type":"Polygon","coordinates":[[[-84.3283865616,35.2729491643],[-84.3248128653,35.2728894073],[-84.3237546844,35.2696946329],[-84.3202058022,35.2679791367],[-84.31942,35.26661],[-84.32724,35.26974],[-84.32949155773957,35.26624900302399],[-84.3303687192,35.2694459645],[-84.3283865616,35.2729491643]]]},"properties":{"flat_pct":10}},{"type":"Feature","geometry":{"type":"Polygon","coordinates":[[[-84.2685161072,35.2913648622],[-84.27755,35.29393],[-84.27622,35.29562],[-84.27683,35.29764],[-84.27583,35.2985],[-84.26734333439106,35.29548060181639],[-84.2670727608,35.2931505915],[-84.2685161072,35.2913648622]]]},"properties":{"flat_pct":42}},{"type":"Feature","geometry":{"type":"Polygon","coordinates":[[[-84.4726444582,35.2709303748],[-84.4671952523,35.2666972731],[-84.4637024400032,35.26253965890732],[-84.46604,35.25836],[-84.4687954067,35.2587858256],[-84.4714126717,35.2623331358],[-84.4748443957,35.2648410992],[-84.4780633106,35.2649309677],[-84.4800074118,35.2663394736],[-84.4848233156,35.2672367279],[-84.492830273,35.2642700176],[-84.4964159212,35.2648551622],[-84.4979807866,35.2671610148],[-84.4975369973,35.2691011385],[-84.4952452064,35.2716110243],[-84.4874939159,35.2754458461],[-84.4841472217,35.2781633618],[-84.4857519597,35.2795256479],[-84.4876686378,35.2835637765],[-84.4910903634,35.2845260987],[-84.4917943702,35.2870312451],[-84.4812120977,35.2972072576],[-84.4735251987,35.2987540508],[-84.4691715567,35.3010510985],[-84.4661417262,35.3006980803],[-84.4613490526,35.3017880173],[-84.4584169486,35.3009281901],[-84.4538080198,35.3033751607],[-84.4511935005,35.3022962608],[-84.450585724,35.2997329397],[-84.4475462667,35.3013044598],[-84.4470152279,35.3033980623],[-84.4404538926,35.3113795054],[-84.4381760136,35.3118022451],[-84.4346826851,35.3102298324],[-84.4286832223,35.3206443811],[-84.4255731921,35.3208856443],[-84.4230109674,35.3180436301],[-84.4211547261,35.3206159435],[-84.4166491545,35.3234839499],[-84.4184385886,35.3276765763],[-84.4182409598,35.3298020757],[-84.4213117017,35.3273623333],[-84.4249921863,35.3290091442],[-84.4282048784,35.329044294],[-84.436705557,35.3262138852],[-84.4362549018,35.3232963158],[-84.4394904091,35.3192942528],[-84.4490874907,35.3187618183],[-84.4563404509,35.3141301545],[-84.4590931489,35.3160101418],[-84.458409679,35.3192727431],[-84.4521833649,35.3240357528],[-84.4444645846,35.3250392835],[-84.4442119235,35.3283454089],[-84.4404044627,35.3317731219],[-84.4357086667,35.3323252562],[-84.4292071906,35.3350085134],[-84.4224067149,35.3344576448],[-84.4204292593,35.3373604359],[-84.4133766712,35.3427617733],[-84.4123978796,35.3454468499],[-84.409665987631,35.346104946526935],[-84.41048,35.3443],[-84.41,35.34223],[-84.40781,35.34163],[-84.40757,35.33999],[-84.40556,35.33971],[-84.40605,35.33878],[-84.41056,35.33883],[-84.41049,35.33071],[-84.40897485945456,35.33019390525171],[-84.4112556108,35.3288478639],[-84.4100404314,35.3232750278],[-84.412643323,35.3185040464],[-84.4171818888,35.3159892571],[-84.4195988957,35.3127574659],[-84.41936655,35.3108431337],[-84.4203657721,35.3090424443],[-84.4234629398,35.3085321506],[-84.4268331618,35.3115081427],[-84.4298289552,35.3058632638],[-84.4338926221,35.3009572127],[-84.4371025822,35.3002407544],[-84.4395931851,35.3023546999],[-84.4410900479,35.3007974612],[-84.4403691507,35.2973000461],[-84.4422459429,35.2955863202],[-84.44675061681991,35.29482502539518],[-84.44612,35.29593],[-84.45391,35.29965],[-84.45633849504715,35.29529775593512],[-84.4682623281,35.2949948863],[-84.471332421,35.292957212],[-84.4780541732,35.2920429663],[-84.4807333676,35.2897903103],[-84.4825530398,35.2867845336],[-84.4808647439,35.2831959234],[-84.4784106793,35.2816316889],[-84.4775901753,35.2795375676],[-84.4782341317,35.2755274504],[-84.4811909726,35.2728349044],[-84.4726444582,35.2709303748]],[[-84.4139607107,35.3345241881],[-84.4116852781,35.3357902174],[-84.4119348066,35.3366579806],[-84.4139607107,35.3345241881]]]},"properties":{"flat_pct":21}},{"type":"Feature","geometry":{"type":"Polygon","coordinates":[[[-84.36345825756166,35.30600349129275],[-84.3637584933,35.3036986785],[-84.3665069784,35.3011619353],[-84.37284926967033,35.30368501243053],[-84.36990787746846,35.3064514551301],[-84.36443,35.30434],[-84.36345825756166,35.30600349129275]]]},"properties":{"flat_pct":16}},{"type":"Feature","geometry":{"type":"Polygon","coordinates":[[[-84.2699899632,35.3060956162],[-84.26891246,35.3106035186],[-84.2660837413,35.3138215833],[-84.2631746162,35.3142162419],[-84.2584668097,35.312018449],[-84.2567891593,35.3122607255],[-84.2560377583,35.3148224961],[-84.2534693622,35.3160439997],[-84.2512071884,35.3229193178],[-84.247628727,35.3261003238],[-84.2497468049,35.3348245346],[-84.2522046615,35.336285695],[-84.2560638393,35.3417222371],[-84.2556441686,35.3452790897],[-84.2521748828,35.3461387008],[-84.2435727473,35.3364925875],[-84.2428742339,35.3298772969],[-84.2401202361,35.3258594992],[-84.2401990495,35.3232939752],[-84.2455560618,35.3196687448],[-84.2455763207,35.3168719169],[-84.2475277347,35.3149681418],[-84.2487817896,35.3115780602],[-84.2509376421,35.3104417764],[-84.2522968154,35.3079566062],[-84.2547876891,35.3065058602],[-84.2590617486,35.3058836653],[-84.2629017355,35.3073083418],[-84.2608201211,35.3059781575],[-84.2592603674,35.3028569481],[-84.26309964127942,35.29993060460282],[-84.2649495671,35.3014250486],[-84.26672281742755,35.30062276187284],[-84.27553350090055,35.30283726798754],[-84.2699899632,35.3060956162]]]},"properties":{"flat_pct":12}},{"type":"Feature","geometry":{"type":"Polygon","coordinates":[[[-84.2005034093,35.3480280353],[-84.202815209,35.3463033339],[-84.2048207914,35.3460514388],[-84.2067009845,35.3473693735],[-84.2070985612,35.3496307914],[-84.20479486307312,35.35213828849893],[-84.20231,35.35012],[-84.20161784561566,35.35242898376653],[-84.2000704587,35.3505565674],[-84.2005034093,35.3480280353]]]},"properties":{"flat_pct":22}},{"type":"Feature","geometry":{"type":"Polygon","coordinates":[[[-84.1781665855,35.3535101512],[-84.1815129639,35.3551239573],[-84.1803,35.35741],[-84.17734,35.35495],[-84.1781665855,35.3535101512]]]},"properties":{"flat_pct":60}},{"type":"Feature","geometry":{"type":"Polygon","coordinates":[[[-84.17480451310556,35.356136202220796],[-84.1733052035,35.3575244711],[-84.17237208283102,35.35774812761385],[-84.17334,35.35537],[-84.17480451310556,35.356136202220796]]]},"properties":{}},{"type":"Feature","geometry":{"type":"Polygon","coordinates":[[[-84.17493481369237,35.35620437272648],[-84.17922,35.35942],[-84.1757650133811,35.36566154617838],[-84.1744866647,35.3633925222],[-84.1740021068,35.3593728102],[-84.17493481369237,35.35620437272648]]]},"properties":{"flat_pct":28}},{"type":"Feature","geometry":{"type":"Polygon","coordinates":[[[-84.19321,35.35999],[-84.19460069192,35.35965355796866],[-84.19568,35.36054],[-84.19591,35.36557],[-84.19802234131801,35.365653163044016],[-84.1970297254,35.3664296768],[-84.19228383107227,35.36643048080125],[-84.19219,35.36312],[-84.19364,35.3626],[-84.19321,35.35999]]]},"properties":{"flat_pct":12}},{"type":"Feature","geometry":{"type":"Polygon","coordinates":[[[-84.0856474618,35.3544730433],[-84.087603015,35.3539615517],[-84.0905691648,35.3551367532],[-84.0914698381,35.3572488293],[-84.0906132468,35.3593791648],[-84.088206985,35.3602684483],[-84.0852408352,35.3590932468],[-84.0843515517,35.356686985],[-84.0856474618,35.3544730433]]]},"properties":{"flat_pct":18}},{"type":"Feature","geometry":{"type":"Polygon","coordinates":[[[-84.1464022122,35.3740584823],[-84.1458954246,35.3717360001],[-84.1486644388,35.3675577752],[-84.14844014676582,35.36569794129367],[-84.1542082193164,35.364262325368955],[-84.1546828554,35.3685827541],[-84.1526403029,35.3724611781],[-84.1554642092,35.3726830646],[-84.1574921254335,35.374257093307556],[-84.15651,35.37434],[-84.15608,35.37718],[-84.15385,35.37758],[-84.15354435547046,35.37904030740175],[-84.1514877028,35.3788747098],[-84.1488351951,35.3773672178],[-84.1464022122,35.3740584823]]]},"properties":{"flat_pct":25}},{"type":"Feature","geometry":{"type":"Polygon","coordinates":[[[-84.1533914943596,35.39538302370933],[-84.15322208445832,35.39793674993507],[-84.15228,35.39574],[-84.1533914943596,35.39538302370933]]]},"properties":{}},{"type":"Feature","geometry":{"type":"Polygon","coordinates":[[[-84.13518725370403,35.38592291465213],[-84.1281013749,35.3848875046],[-84.1279075193,35.3876195518],[-84.13124865525211,35.392765837691954],[-84.12621,35.40152],[-84.1278,35.40197],[-84.12756,35.40014],[-84.12961,35.39879],[-84.13126,35.39896],[-84.13275,35.39724],[-84.13271,35.39587],[-84.13667,35.39478],[-84.13719,35.39348],[-84.14103886195717,35.39181282828159],[-84.1416581509,35.3937453156],[-84.1407425993,35.3967154097],[-84.14287605082228,35.39633031871705],[-84.14428,35.39737],[-84.15055,35.39779],[-84.15100760104535,35.39954718801413],[-84.1427910671,35.4026958466],[-84.1371982306,35.4021843788],[-84.1353817034,35.399758146],[-84.1316251621,35.4018883314],[-84.1341812013,35.4115287951],[-84.1310370643,35.4146874248],[-84.1289149079,35.4151819401],[-84.1285995495,35.4198015856],[-84.1342028703,35.4189673281],[-84.1371449714,35.4168917092],[-84.140294195,35.4185820542],[-84.1407550205,35.4219767861],[-84.1395627615,35.424043273],[-84.1404828188,35.4275208552],[-84.1381889451,35.4306320556],[-84.138337868,35.4327172756],[-84.1370837259,35.4345116679],[-84.1408249088,35.446294703],[-84.1401480814,35.4491357829],[-84.1371859816,35.4506705187],[-84.1324567478,35.4495088588],[-84.1277984621,35.450882063],[-84.1224215624,35.4506233379],[-84.1231999413,35.4528587675],[-84.1224140262,35.4548590506],[-84.125215078,35.4572098154],[-84.1265656597,35.4633836582],[-84.1289434028,35.4688188455],[-84.1277781023,35.471444287],[-84.11991374360305,35.47768476129779],[-84.12875259892445,35.48460005750266],[-84.12841601313326,35.48793484559572],[-84.12610369299482,35.489863940481165],[-84.12805831089646,35.49153195391754],[-84.12876874833175,35.49507429091139],[-84.1260925733153,35.498396883861076],[-84.12244491682327,35.49900874060338],[-84.12066560086991,35.50104517171619],[-84.11615323893795,35.50274983420697],[-84.11093215974722,35.50825494198428],[-84.10808229876382,35.50957241353792],[-84.1035267791455,35.513122491770375],[-84.09991689419486,35.51761988243874],[-84.0976853191619,35.51853574715944],[-84.09886,35.51497],[-84.09745,35.51378],[-84.09564,35.51686],[-84.09597571301626,35.51805803468548],[-84.09462868074968,35.51512616197293],[-84.09919555619774,35.50882373997881],[-84.10712677159759,35.503483429919655],[-84.11285881035245,35.49771371203877],[-84.11723060265608,35.4959717529047],[-84.11905673838932,35.493702449674466],[-84.12101456545611,35.49308495770176],[-84.11725046147386,35.488847925618],[-84.11771446874769,35.48597838773648],[-84.11911131848942,35.48452624536669],[-84.11320823246555,35.48014646327875],[-84.111012807,35.4853327963],[-84.1090969618,35.48772954],[-84.10689599442466,35.48874199751987],[-84.1041351141,35.4884095051],[-84.1026418216,35.4872137584],[-84.0956633984,35.489587264],[-84.09381481340019,35.48831046663102],[-84.0931371512,35.4860512886],[-84.09104928995546,35.48656715112803],[-84.0872364358,35.4856806943],[-84.085324369,35.483596531],[-84.0858096109,35.4810775111],[-84.08777186538548,35.47988518758182],[-84.0939771058,35.4798606222],[-84.0979264598,35.4817686579],[-84.10605804098577,35.47996636669332],[-84.1055691241,35.4772393231],[-84.1068681674,35.4752757138],[-84.1115148710092,35.473508002188765],[-84.11502688711984,35.4738144942968],[-84.1224324537,35.4682803997],[-84.1204206909,35.464578849],[-84.1199579443,35.4603943794],[-84.1165221176,35.4579757422],[-84.1151183978,35.4539425623],[-84.1103300754,35.4534910868],[-84.1070086356,35.4503989203],[-84.1059645497,35.4456248955],[-84.1074797681,35.4432321613],[-84.1046838686,35.4411104115],[-84.1034758859,35.4360155343],[-84.101138882,35.4398882984],[-84.0980617164,35.4404333528],[-84.0957191136,35.4430294684],[-84.0913665693,35.4441705563],[-84.0907943871,35.4454523081],[-84.0935791191,35.4479519216],[-84.0924345266,35.4520261033],[-84.0931585285,35.4543243366],[-84.0967921124,35.4541488476],[-84.0987842014,35.4562203175],[-84.0984741139,35.4585339276],[-84.0957961828,35.4608426535],[-84.089661506,35.4596458227],[-84.0868352349,35.4564590058],[-84.0842410253,35.4556918853],[-84.0833028886,35.4536416185],[-84.0846588085,35.4504397488],[-84.0838321058,35.4493930691],[-84.0821123153,35.449603445],[-84.0778790401,35.4526111753],[-84.0714722032,35.451472946],[-84.0697874189,35.4593083094],[-84.063154993,35.4668056764],[-84.0601506755,35.4688162156],[-84.0550163279,35.4691490797],[-84.0529293669,35.4679720075],[-84.0461998084,35.4697995865],[-84.0403205883,35.4687320276],[-84.0334951714,35.4689854951],[-84.0257747591,35.4659580421],[-84.024491443,35.4626564578],[-84.0261241561,35.4607101398],[-84.0317011387,35.459413042],[-84.032910852,35.4564079929],[-84.0314064874,35.4547503921],[-84.0311905057,35.4527596716],[-84.0333605523,35.4471314722],[-84.035973432,35.4444300335],[-84.0366058787,35.4413128288],[-84.0492642895,35.4369378993],[-84.0506139666,35.4339411978],[-84.0553250588,35.429614433],[-84.0593141656,35.4281910043],[-84.0589862401,35.4257787015],[-84.0607864903,35.4232758259],[-84.0662656119,35.421644489],[-84.0682421379,35.4199153025],[-84.0743682964,35.4202361797],[-84.0759211419,35.4185505005],[-84.0794711725,35.4175355052],[-84.0839535261,35.4184958104],[-84.0856000554,35.4151503857],[-84.0852800218,35.4130840334],[-84.0807730556,35.4118169529],[-84.0759977131,35.4071198821],[-84.0755486482,35.4048597038],[-84.0770381782,35.4014719433],[-84.0801002107,35.401099364],[-84.0821834777,35.4037414943],[-84.0856041701,35.4024335465],[-84.0881496313,35.4036308221],[-84.0890050821,35.4018831922],[-84.092691791,35.3996798049],[-84.0968576441,35.3950237714],[-84.0988593526,35.3945866992],[-84.1017634577,35.3957800917],[-84.1031186785,35.3950981926],[-84.1062542507,35.3905075127],[-84.1104920052,35.3868805267],[-84.119324593,35.3827450508],[-84.1211277302,35.3808439797],[-84.1278562405,35.3784146465],[-84.1351130924,35.378529178],[-84.13818317305858,35.374391432415514],[-84.14073,35.37602],[-84.14277148714955,35.374951190268696],[-84.1430518962,35.3776420904],[-84.13974844998884,35.3826968200721],[-84.13752,35.38187],[-84.13518725370403,35.38592291465213]],[[-84.1207141834,35.3919860166],[-84.1205168021,35.3895931053],[-84.1181615266,35.3908092107],[-84.116268516,35.3906447999],[-84.1131088466,35.3930882119],[-84.1150878941,35.3942439708],[-84.1157280678,35.3966576531],[-84.1145458098,35.3989362659],[-84.11516437,35.4021954436],[-84.1125083208,35.4052804727],[-84.1092913455,35.4064891515],[-84.102071892,35.4059046566],[-84.1002911264,35.4044570061],[-84.1002388968,35.4016844468],[-84.0992621907,35.401233883],[-84.0937303019,35.4059684216],[-84.0925374948,35.4084147217],[-84.0902658539,35.4095736361],[-84.0925775201,35.4138125831],[-84.0924693035,35.4172017717],[-84.0964230573,35.4190174064],[-84.1001430545,35.4192404395],[-84.1017343229,35.4208061153],[-84.1040699755,35.4209115017],[-84.1111351018,35.4258303137],[-84.1113826742,35.4300111708],[-84.1084648642,35.4317402388],[-84.1113304096,35.4339514057],[-84.110466101,35.4375431444],[-84.1146730491,35.4410252405],[-84.1210628533,35.438528785],[-84.123562376,35.4360759262],[-84.1211890251,35.4354616036],[-84.1176860552,35.4372073505],[-84.1155296876,35.4364185813],[-84.1141684764,35.4336216888],[-84.1144229656,35.4299283058],[-84.1129813188,35.4256189445],[-84.1138106176,35.4234578561],[-84.1174021019,35.4208804923],[-84.1164473715,35.4180479488],[-84.1191215917,35.4116658397],[-84.1218363158,35.4088870164],[-84.1264435944,35.4072138205],[-84.1257412968,35.4039739661],[-84.1206981987,35.4028716809],[-84.119088608,35.4012342147],[-84.1190067607,35.3992145333],[-84.1202247642,35.3976013751],[-84.1248871138,35.3976729951],[-84.1254184065,35.3966642324],[-84.1246645046,35.3945398961],[-84.1222909071,35.393866959],[-84.1207141834,35.3919860166]],[[-84.1232115207,35.4240227847],[-84.1239496862,35.4239237628],[-84.1233802994,35.4228592891],[-84.1232115207,35.4240227847]],[[-84.1246675936,35.4436296676],[-84.1324024999,35.4431748503],[-84.1330244566,35.4423352568],[-84.132220529,35.4396308961],[-84.1299273178,35.4383228683],[-84.1246675936,35.4436296676]],[[-84.0978936743,35.4268597568],[-84.0891103414,35.4223959256],[-84.0865513598,35.4250436839],[-84.08035745,35.4236661661],[-84.0759250763,35.4260535315],[-84.0708748442,35.4261243398],[-84.0672040015,35.429142914],[-84.0653164123,35.4294992774],[-84.0637917479,35.4325207139],[-84.0618790853,35.433927042],[-84.0591778973,35.4343518228],[-84.0528505463,35.4418085168],[-84.0417595587,35.4462707101],[-84.0418397544,35.449898672],[-84.0390875109,35.4515553463],[-84.0385363716,35.4542422515],[-84.0393262602,35.4575686649],[-84.0375249372,35.4624985539],[-84.0405776355,35.4621313935],[-84.0454682057,35.4636284974],[-84.048973511,35.4626841502],[-84.0498683621,35.4599075452],[-84.0526866305,35.4587401182],[-84.054877901,35.4596145374],[-84.0577894089,35.4628939186],[-84.062803661,35.4568899982],[-84.0631985722,35.4511172964],[-84.065549254,35.4470383355],[-84.0688003173,35.4455895006],[-84.0755574114,35.4459717077],[-84.0784126903,35.4448746717],[-84.0848011842,35.4418321801],[-84.0867430095,35.4387018076],[-84.0930043214,35.4371247532],[-84.0950953795,35.4348515616],[-84.0970572053,35.4343910003],[-84.0976259853,35.4303525423],[-84.1008279494,35.4272782147],[-84.0978936743,35.4268597568]],[[-84.1022493599,35.4269566834],[-84.1015707562,35.4271722677],[-84.1024519723,35.4271061764],[-84.1022493599,35.4269566834]],[[-84.13926,35.39945],[-84.13983,35.39884],[-84.13914,35.39878],[-84.13926,35.39945]]]},"properties":{"flat_pct":16}},{"type":"Feature","geometry":{"type":"Polygon","coordinates":[[[-82.9655099761,35.9253516919],[-82.9632981623,35.925968099],[-82.961405423,35.9249636982],[-82.9560778237,35.9275861863],[-82.9552541296465,35.93371816019139],[-82.94563,35.93312],[-82.95525055864263,35.93373578714874],[-82.9538991323,35.935637872],[-82.9500479883,35.9376851384],[-82.948539655,35.9412442085],[-82.9413439951,35.945677312],[-82.9364274941,35.9455877312],[-82.9379846535,35.9518708512],[-82.9375149179,35.9569154999],[-82.9387033871,35.9586247891],[-82.9382330128,35.9614790718],[-82.9390216299,35.9627767963],[-82.9412630901,35.9608559934],[-82.94771194287702,35.96129477611779],[-82.94609,35.9618],[-82.94686,35.96574],[-82.948166076,35.965467123],[-82.9428204351,35.9681345689],[-82.94147,35.9637],[-82.93616,35.96459],[-82.93429,35.96115],[-82.93105,35.95955],[-82.930081578,35.956905868],[-82.9319823697,35.9526560793],[-82.9303892247,35.9454299914],[-82.9285765036,35.944676267],[-82.9242402837,35.9452994056],[-82.919045273,35.9446873656],[-82.9081533009,35.9369757594],[-82.9063706303,35.9379796084],[-82.9041033841,35.9377257881],[-82.8995873489,35.9325575714],[-82.89908324850818,35.930324493577594],[-82.90147393142865,35.92788706616058],[-82.9045478881,35.9290754251],[-82.9083226241,35.9274494816],[-82.9104050187,35.928947665],[-82.910597326,35.9314218526],[-82.9209567872,35.9389261457],[-82.9297659377,35.9384835517],[-82.933124693,35.9400438307],[-82.9367327064,35.9391257797],[-82.9397858179,35.9396388293],[-82.9440889867,35.9369501529],[-82.9446069753,35.9334880385],[-82.9477416256,35.9305927289],[-82.94792155704884,35.92856886269812],[-82.95638,35.92351],[-82.9573,35.92151],[-82.96201,35.92076],[-82.96455,35.92158],[-82.96665279029027,35.922814096596575],[-82.9655099761,35.9253516919]]]},"properties":{"flat_pct":24}},{"type":"Feature","geometry":{"type":"Polygon","coordinates":[[[-82.9768616013,35.9515163906],[-82.9783163458,35.9539419739],[-82.9771077598,35.9564991316],[-82.97387447964589,35.95809322088071],[-82.97305,35.95519],[-82.97054,35.95592],[-82.97107,35.95377],[-82.97316,35.95348],[-82.97204454166946,35.95232122289935],[-82.9748789934,35.9511225915],[-82.9768616013,35.9515163906]]]},"properties":{"flat_pct":24}},{"type":"Feature","geometry":{"type":"Polygon","coordinates":[[[-83.0381324747,35.9613249549],[-83.0404070409,35.9583031117],[-83.0421857782,35.9575116582],[-83.045199288,35.9584099988],[-83.0464351852,35.9606701007],[-83.03802529437,35.96419422643799],[-83.0381324747,35.9613249549]]]},"properties":{"flat_pct":23}},{"type":"Feature","geometry":{"type":"Polygon","coordinates":[[[-82.8999834873,35.9422475212],[-82.9007534567,35.9427760413],[-82.90126100349651,35.9433793473429],[-82.89924405135764,35.94306695744934],[-82.8999834873,35.9422475212]]]},"properties":{}},{"type":"Feature","geometry":{"type":"Polygon","coordinates":[[[-82.88005940421128,36.005418119675944],[-82.88336728979003,36.00312639589318],[-82.88609715020512,36.003866394487645],[-82.88700431666413,36.005604802166395],[-82.88652,36.01128],[-82.88062695967302,36.00841600181803],[-82.88005940421128,36.005418119675944]]]},"properties":{"flat_pct":18}},{"type":"Feature","geometry":{"type":"Polygon","coordinates":[[[-82.74690034165185,36.059394080078036],[-82.74246400358209,36.0570441157764],[-82.74521,36.05533],[-82.74625,36.05652],[-82.74764,36.05564],[-82.74528,36.0531],[-82.74339,36.05417],[-82.74147,36.05261],[-82.74041,36.05329],[-82.74226,36.05496],[-82.7408,36.05594],[-82.7413727984,36.0567050449],[-82.739756036,36.0547133119],[-82.7402700033,36.0521999956],[-82.7458663775,36.0503134207],[-82.7481668531,36.050813913],[-82.7495510967,36.053857549],[-82.75529983864222,36.06015555648496],[-82.75497,36.0647],[-82.75054297129938,36.06381330896283],[-82.75078,36.05745],[-82.74690034165185,36.059394080078036]]]},"properties":{"flat_pct":31}},{"type":"Feature","geometry":{"type":"Polygon","coordinates":[[[-82.43189293587425,36.0968279997516],[-82.43778563488102,36.09659190514215],[-82.43804,36.0987],[-82.43189293587425,36.0968279997516]]]},"properties":{"flat_pct":20}},{"type":"Feature","geometry":{"type":"Polygon","coordinates":[[[-82.44818,36.106],[-82.44608,36.1052],[-82.44654,36.10286],[-82.44617,36.10119],[-82.44295,36.09863],[-82.4440321424007,36.09690317702016],[-82.4467493616,36.0977240908],[-82.4501204746,36.1009972175],[-82.44942824196872,36.10605217878124],[-82.44818,36.105],[-82.44818,36.106]]]},"properties":{"flat_pct":32}},{"type":"Feature","geometry":{"type":"Polygon","coordinates":[[[-82.40241,36.2221],[-82.399667654,36.2190470264],[-82.40412528371695,36.22049643974354],[-82.40241,36.2221]]]},"properties":{}},{"type":"Feature","geometry":{"type":"Polygon","coordinates":[[[-82.13101,36.1076],[-82.1293880512,36.1068705166],[-82.1285321330107,36.10520907600611],[-82.130646,36.106417],[-82.13101,36.1076]]]},"properties":{}},{"type":"Feature","geometry":{"type":"Polygon","coordinates":[[[-82.3559271193,36.1346918379],[-82.3569439346,36.1378663906],[-82.3540443652,36.1404471686],[-82.3457769527,36.1423492528],[-82.3431019497,36.1420816386],[-82.3414783614,36.1404580503],[-82.3421286797,36.1371886797],[-82.3447141495,36.1354812557],[-82.3471009772,36.1353584259],[-82.3496110035,36.1328487535],[-82.3516534217,36.1327561219],[-82.3559271193,36.1346918379]]]},"properties":{"flat_pct":15}},{"type":"Feature","geometry":{"type":"Polygon","coordinates":[[[-82.3371852416,36.1454885747],[-82.3385492606,36.1487922587],[-82.3362105094,36.1513697599],[-82.3351508955,36.1546241413],[-82.3319123011,36.1582607248],[-82.3286433397,36.1593140878],[-82.3233791353,36.1634808338],[-82.3207083447,36.1702803968],[-82.31822522759315,36.17285710719009],[-82.31716,36.17244],[-82.31412,36.17424],[-82.31143851810758,36.17252442825163],[-82.31608688197743,36.16566659115787],[-82.3107660864,36.1646910431],[-82.3027630165,36.1657049359],[-82.3004614346,36.1640610208],[-82.3005496098,36.1612340151],[-82.303778253,36.1587583209],[-82.3077895801,36.1593732025],[-82.3105322574,36.1579249495],[-82.3133161284,36.1592156395],[-82.3156997006,36.1580600647],[-82.3185696284,36.1595840413],[-82.3252394796,36.1542129195],[-82.3275543271,36.1534036809],[-82.3266466265,36.151050714],[-82.3278950741,36.1488096653],[-82.3346325523,36.1452342171],[-82.3371852416,36.1454885747]]]},"properties":{"flat_pct":18}},{"type":"Feature","geometry":{"type":"Polygon","coordinates":[[[-82.2972997096,36.1794833065],[-82.29735,36.17792],[-82.29582,36.17819],[-82.29385,36.17276],[-82.29205442199735,36.173283334292236],[-82.2920752671,36.1691993725],[-82.2942241532,36.1673603444],[-82.2971492755,36.1683393839],[-82.2982091327,36.1726472494],[-82.30045,36.17556],[-82.30100977303695,36.17510841839035],[-82.2998356067,36.1783728015],[-82.2972997096,36.1794833065]]]},"properties":{"flat_pct":34}},{"type":"Feature","geometry":{"type":"Polygon","coordinates":[[[-82.34430046036422,36.19553559741982],[-82.3442906569425,36.19177761227053],[-82.34842,36.19506],[-82.34430046036422,36.19553559741982]]]},"properties":{"flat_pct":75}},{"type":"Feature","geometry":{"type":"Polygon","coordinates":[[[-82.31778698063295,36.20245965597249],[-82.3198250778,36.1990723996],[-82.322304881,36.1984459982],[-82.3237780254,36.1953415999],[-82.3273191697,36.1949535247],[-82.3292437559023,36.19615798988638],[-82.32236,36.20069],[-82.31928,36.20387],[-82.31778698063295,36.20245965597249]]]},"properties":{"flat_pct":25}},{"type":"Feature","geometry":{"type":"Polygon","coordinates":[[[-82.13661,36.21724],[-82.13629,36.21987],[-82.13493,36.22115],[-82.1336976147,36.2199117784],[-82.1336498185,36.2157657355],[-82.13568,36.21558],[-82.1339644480885,36.21473514535066],[-82.1364732438,36.2112097666],[-82.1392818307,36.210875737],[-82.1411401321988,36.21421075508807],[-82.1398310877,36.2166725287],[-82.14158790115408,36.21739401847358],[-82.13939,36.21975],[-82.13661,36.21724]]]},"properties":{"flat_pct":13}},{"type":"Feature","geometry":{"type":"Polygon","coordinates":[[[-82.2500233243,36.2270431875],[-82.2427640006,36.230136507],[-82.2383811899,36.2294863627],[-82.2348043465,36.2300865393],[-82.2334890491,36.2326861203],[-82.2296341775,36.2331876957],[-82.2273362034,36.2348250937],[-82.2250727234,36.2344394305],[-82.2237449063,36.2325662034],[-82.22389184795325,36.22942562510904],[-82.22753,36.22952],[-82.23487,36.22496],[-82.23506,36.22345],[-82.24753,36.22377],[-82.24739,36.22166],[-82.24491,36.21782],[-82.24769,36.21918],[-82.24854,36.22125],[-82.25112,36.22116],[-82.25210177362045,36.21926377437878],[-82.2526475501,36.2199419143],[-82.2531391583,36.2231492187],[-82.2500233243,36.2270431875]]]},"properties":{"flat_pct":10}},{"type":"Feature","geometry":{"type":"Polygon","coordinates":[[[-82.26923,36.24661],[-82.26847390375634,36.24456615147171],[-82.2718721418,36.2458958496],[-82.2728684236,36.2482272417],[-82.2717231757,36.250489182],[-82.2690739377,36.2512590356],[-82.2669755774,36.2503268542],[-82.26566512286405,36.247653870530584],[-82.26923,36.24661]]]},"properties":{"flat_pct":21}},{"type":"Feature","geometry":{"type":"Polygon","coordinates":[[[-82.2471219589,36.2554406705],[-82.2453583378,36.2564283204],[-82.24332505164685,36.25611917771051],[-82.24321,36.25331],[-82.24501,36.25379],[-82.24459687993402,36.25321788735713],[-82.24767160363635,36.25242671192905],[-82.2471219589,36.2554406705]]]},"properties":{"flat_pct":30}},{"type":"Feature","geometry":{"type":"Polygon","coordinates":[[[-82.11319460098497,36.2588073031453],[-82.11312,36.25715],[-82.10824751436544,36.259438953627345],[-82.1066693433,36.2568753937],[-82.1072073385,36.254367111],[-82.1094875678,36.2531917492],[-82.1120855806,36.254302709],[-82.1134306567,36.2567846063],[-82.11319460098497,36.2588073031453]]]},"properties":{"flat_pct":17}},{"type":"Feature","geometry":{"type":"Polygon","coordinates":[[[-82.102149464,36.2618425763],[-82.10088,36.2629],[-82.09945581741333,36.26194461084811],[-82.1007162302,36.2615756338],[-82.102149464,36.2618425763]]]},"properties":{}},{"type":"Feature","geometry":{"type":"Polygon","coordinates":[[[-82.15130619965194,36.28204487046451],[-82.15255,36.28549],[-82.15196,36.28582],[-82.15142,36.28362],[-82.14922271503562,36.283833789888426],[-82.15130619965194,36.28204487046451]]]},"properties":{}},{"type":"Feature","geometry":{"type":"Polygon","coordinates":[[[-82.12913,36.30024],[-82.12869,36.29975],[-82.12646,36.30116],[-82.12674,36.30216],[-82.1312580179583,36.30120836994923],[-82.12572,36.30363],[-82.12545,36.30283],[-82.12263417095812,36.3029679434098],[-82.1246989438,36.2998309158],[-82.1286537516,36.2991307509],[-82.12913,36.30024]]]},"properties":{"flat_pct":36}},{"type":"Feature","geometry":{"type":"Polygon","coordinates":[[[-82.0844492055,36.3159301422],[-82.08894896536071,36.31775669625156],[-82.08523,36.31851],[-82.08655,36.32051],[-82.08517,36.32095],[-82.08272,36.32005],[-82.08206985516881,36.32200043449358],[-82.08078450168009,36.31946353472743],[-82.08351,36.31921],[-82.08152147477651,36.31757055948871],[-82.0844492055,36.3159301422]],[[-82.08588,36.31802],[-82.08514,36.31699],[-82.0847,36.31725],[-82.08502,36.31821],[-82.08588,36.31802]]]},"properties":{"flat_pct":13}},{"type":"Feature","geometry":{"type":"Polygon","coordinates":[[[-82.2083120495,36.4123703347],[-82.20703334778722,36.414662762750446],[-82.20339,36.41121],[-82.20212,36.41393],[-82.19873,36.41116],[-82.19741,36.41125],[-82.19603,36.41331],[-82.19712543191592,36.41459594181435],[-82.1937626037,36.4152860028],[-82.19392236901159,36.416564246085436],[-82.19165,36.41815],[-82.1909,36.41682],[-82.18775,36.41632],[-82.18612,36.41845],[-82.18195,36.42034],[-82.1809,36.42234],[-82.18154,36.42488],[-82.17915,36.42575],[-82.17906226156444,36.427764609462685],[-82.177058538,36.4310237489],[-82.1744811489,36.431990815],[-82.1723134703,36.4347173513],[-82.1671733916,36.4357308105],[-82.1639105829,36.4406381329],[-82.1600842313,36.4425186927],[-82.1593156563,36.4449444397],[-82.1569015788,36.4471282457],[-82.1521538931,36.4483728982],[-82.1473843951,36.4524626919],[-82.1454103034,36.4528146446],[-82.1417218913,36.4556670375],[-82.1392358155,36.4560093203],[-82.1364174309,36.4578556996],[-82.1355422739,36.4601933954],[-82.1329949065,36.4625576133],[-82.1297797027,36.4643187077],[-82.1260028474,36.4637586113],[-82.1238320459,36.4642027299],[-82.1271395516,36.4644209123],[-82.1293141163,36.4671733415],[-82.12958820817265,36.468311825416556],[-82.1272,36.47181],[-82.12704,36.47367],[-82.12825,36.47503],[-82.1261782759,36.4746719928],[-82.1237547192,36.4712619453],[-82.1203324364,36.4722096229],[-82.11600047171436,36.47132663649995],[-82.1134559478,36.4763534714],[-82.1135464484,36.4792802271],[-82.1124442731,36.4810016019],[-82.11169,36.47984],[-82.11048,36.47993],[-82.11082909984788,36.48166654796123],[-82.1074478691,36.4824288755],[-82.1034103986,36.4799217623],[-82.0987547837,36.4802652321],[-82.0936221997,36.4860025885],[-82.0921947192,36.4890412601],[-82.0890596026,36.4896257434],[-82.0861300889,36.492238825],[-82.0833984158,36.4918254708],[-82.0825407528,36.4962257949],[-82.0797986827,36.4995214788],[-82.07916347868034,36.49963859630592],[-82.08051,36.49514],[-82.0772614033,36.4991431476],[-82.0759872024,36.4972330456],[-82.0768568657979,36.493488950133],[-82.0761679863,36.4920250812],[-82.0725403629,36.490286647],[-82.0701894522,36.4988338695],[-82.06762380988052,36.49951503469962],[-82.06654,36.49782],[-82.06658,36.49883],[-82.0658212587,36.4988304202],[-82.0638661781,36.4998683024],[-82.0620843402,36.5015934701],[-82.06149596403242,36.50493725899703],[-82.05998,36.50246],[-82.06063,36.50513],[-82.05921,36.50496],[-82.05785,36.50335],[-82.05667,36.50438],[-82.05936385822393,36.50613100784556],[-82.0519506077,36.5090624189],[-82.04810024200674,36.512403274500684],[-82.0491336197263,36.51254790314117],[-82.04739,36.51336],[-82.05198,36.51256],[-82.05125,36.51347],[-82.04868,36.51418],[-82.04579,36.51369],[-82.04956,36.51474],[-82.05238,36.51418],[-82.0541,36.51264],[-82.05498,36.51392],[-82.05508255924505,36.51227905207907],[-82.05800588671273,36.515342091336294],[-82.05718,36.51642],[-82.05851,36.51651],[-82.05715,36.51725],[-82.05789,36.51748],[-82.05699,36.51871],[-82.05985,36.51793],[-82.05897,36.51873],[-82.06053,36.51942],[-82.06184,36.51799],[-82.06154,36.51981],[-82.06335,36.5204],[-82.06289,36.52145],[-82.06191,36.5218],[-82.06075,36.52018],[-82.05953902954258,36.522952313860294],[-82.054471883,36.5214992832],[-82.0537158744672,36.52073316317464],[-82.05475,36.52129],[-82.05482,36.51985],[-82.05585,36.51979],[-82.05549,36.51776],[-82.0534,36.51535],[-82.0523,36.516],[-82.05451,36.51753],[-82.05425,36.51884],[-82.05313049611271,36.519300164174524],[-82.0521848701,36.5178806637],[-82.05120608877341,36.51832599303789],[-82.05016,36.51745],[-82.04980652379243,36.51867634602632],[-82.0417307746,36.5208932704],[-82.03955412825859,36.51982160260228],[-82.04012,36.5182],[-82.03798,36.51725],[-82.04002,36.51364],[-82.03854,36.51498],[-82.03734,36.51405],[-82.03763,36.51574],[-82.03607,36.5172],[-82.03476,36.5146],[-82.03391,36.5148],[-82.03455,36.51697],[-82.03563,36.51752],[-82.03256,36.51894],[-82.03401350844582,36.52002541215111],[-82.0310567025,36.5197711052],[-82.03215564875687,36.52356074962773],[-82.02938,36.52142],[-82.03086,36.52373],[-82.02525,36.52304],[-82.02627,36.52402],[-82.0303,36.52475],[-82.02938,36.52551],[-82.03096323774865,36.52525637453541],[-82.0295245663,36.5257783113],[-82.0260883733,36.5254619404],[-82.0238355322,36.5266517221],[-82.02325164449273,36.53120358671414],[-82.02251,36.53086],[-82.02353,36.53197],[-82.02301,36.53316],[-82.02157,36.53299],[-82.01969,36.53452],[-82.0239688207,36.5342901015],[-82.0205148073,36.5379783191],[-82.0166135132,36.5391601006],[-82.0137469593,36.5386726094],[-82.00703337349648,36.5397688464223],[-82.0062,36.53906],[-82.00519833745889,36.54053438593423],[-81.9974131953,36.5416416858],[-81.99245,36.53961],[-81.99236,36.53879],[-81.9907005624,36.5400472954],[-81.9904814566,36.5377616729],[-81.9919427046,36.5359905624],[-81.9998079714,36.5352154326],[-82.0015868263,36.5319867372],[-81.999055181,36.5260514225],[-82.0005577069,36.5231417808],[-82.00365909,36.5223553503],[-82.005908509,36.5235886528],[-82.0059523083,36.5278669435],[-82.0077402389,36.5301799728],[-82.0082102863,36.5333545749],[-82.0133743721,36.5326694679],[-82.0125284482,36.5295915587],[-82.0155475401,36.5269444115],[-82.0159974134,36.522597752],[-82.0182278009,36.5209357408],[-82.0216770605,36.5210063149],[-82.0242163679,36.5196724956],[-82.0229901577,36.5165792427],[-82.0241362931,36.5142512353],[-82.0309520002,36.5134221437],[-82.0325709235,36.5119469525],[-82.0365838119,36.5110020163],[-82.0368506388,36.5083938961],[-82.0386152847,36.5069503531],[-82.0436538563,36.5082420908],[-82.0489530651,36.5038395929],[-82.0559397964,36.5010329184],[-82.0564618256,36.496929245],[-82.0661865994,36.4915423331],[-82.0670783851,36.4876539738],[-82.0653567422,36.4867657209],[-82.0644090126,36.4891706527],[-82.0627407059,36.4903119522],[-82.0597793009,36.4894488535],[-82.0585457941,36.4847136374],[-82.0588870922,36.4819819419],[-82.0601336196,36.480400006],[-82.0664046297,36.4795010341],[-82.0697244067,36.4812352602],[-82.0718907047,36.480260426],[-82.0755937712,36.4762434943],[-82.0817008613,36.4761033991],[-82.0861361472,36.4730323445],[-82.0934246921,36.4721493791],[-82.1021066303,36.4669056369],[-82.1132835715,36.4656344219],[-82.1216276375,36.4584218203],[-82.1266205925,36.4576818984],[-82.1365846533,36.4504535186],[-82.1400879638,36.4491771941],[-82.1416445741,36.4469148971],[-82.144916082,36.4467333735],[-82.1493328337,36.4429576601],[-82.1525656349,36.4421841948],[-82.1531738088,36.4396233646],[-82.1591077981,36.4360826332],[-82.1628006784,36.4307656587],[-82.1690973327,36.4293104095],[-82.1750377091,36.4222294539],[-82.1787495812,36.4200307143],[-82.1898229395,36.4103658249],[-82.194528894,36.4081225951],[-82.2006914309,36.4084331712],[-82.2027277266,36.4052902833],[-82.20411969772525,36.404807659914866],[-82.20686,36.4061],[-82.20839428767087,36.405393093179605],[-82.2090886476,36.4072199315],[-82.2077852525,36.40978247],[-82.2083120495,36.4123703347]],[[-82.1034502929,36.4731947803],[-82.1073745262,36.4754137483],[-82.1090261059,36.472302672],[-82.1034502929,36.4731947803]],[[-82.0781504962,36.4820443809],[-82.0755795629,36.4850965622],[-82.0768971127,36.4859962107],[-82.079461724,36.4867470952],[-82.0815476496,36.4851763131],[-82.0847881001,36.4854092644],[-82.0880236044,36.4836465209],[-82.0927781041,36.4782595593],[-82.0882088833,36.4787721727],[-82.0834354698,36.4820180419],[-82.0781504962,36.4820443809]]]},"properties":{"flat_pct":12}},{"type":"Feature","geometry":{"type":"Polygon","coordinates":[[[-82.0628152292,36.5153306197],[-82.06344,36.5166],[-82.06007500479805,36.515693200167426],[-82.0613225853,36.5151866365],[-82.0628152292,36.5153306197]]]},"properties":{}},{"type":"Feature","geometry":{"type":"Polygon","coordinates":[[[-82.06819,36.52287],[-82.06838,36.52096],[-82.0687,36.52087],[-82.06945,36.52306],[-82.06819,36.52287]]]},"properties":{}},{"type":"Feature","geometry":{"type":"Polygon","coordinates":[[[-82.06526,36.52179],[-82.06459,36.52218],[-82.06445,36.52373],[-82.06337,36.52265],[-82.06428,36.5208],[-82.06526,36.52179]]]},"properties":{}},{"type":"Feature","geometry":{"type":"Polygon","coordinates":[[[-82.0345509974,36.2348079459],[-82.0300634334,36.2327345923],[-82.02690814,36.234976061],[-82.0214073832,36.2356075964],[-82.0194632598,36.2343859327],[-82.0189524036,36.2321473832],[-82.020684758,36.2299116096],[-82.024768962,36.2292632499],[-82.0272957634,36.2259436285],[-82.0329950206,36.2258201624],[-82.0353256101,36.2276609808],[-82.0385856452,36.2279458525],[-82.039957533,36.2301135344],[-82.0389389337,36.2327521309],[-82.0345509974,36.2348079459]]]},"properties":{"flat_pct":25}},{"type":"Feature","geometry":{"type":"Polygon","coordinates":[[[-82.05068555407506,36.256551826214185],[-82.0544584600491,36.259109334795895],[-82.05404,36.26214],[-82.05033,36.26206],[-82.05068555407506,36.256551826214185]]]},"properties":{"flat_pct":17}},{"type":"Feature","geometry":{"type":"Polygon","coordinates":[[[-82.0079194402,36.3258101554],[-82.002995645,36.327287792],[-82.0011892585,36.32638072],[-82.0003683433,36.3245335844],[-82.0009055776,36.3225849462],[-82.0034058212,36.3211836816],[-82.0044765539,36.3186012995],[-82.00709120468748,36.317124361638186],[-82.0094136049,36.3177631437],[-82.0105043168,36.319783645],[-82.0079194402,36.3258101554]]]},"properties":{"flat_pct":27}},{"type":"Feature","geometry":{"type":"Polygon","coordinates":[[[-81.8669950979,36.5550493614],[-81.8659100968,36.552764102],[-81.8667373993,36.5494594574],[-81.8648155687,36.5444466668],[-81.8619852042,36.5439522294],[-81.8594689615,36.5411964311],[-81.859721352,36.5389142442],[-81.8615135689,36.5374789615],[-81.8693517484,36.5390375772],[-81.8729009238,36.5494861244],[-81.87709594983504,36.548996697120174],[-81.88088,36.55294],[-81.8764,36.55268],[-81.87629,36.5537],[-81.87216,36.55324],[-81.87189625872625,36.55542985178806],[-81.8669950979,36.5550493614]]]},"properties":{"flat_pct":14}},{"type":"Feature","geometry":{"type":"Polygon","coordinates":[[[-82.00795,36.56916],[-82.0041428872,36.566615551],[-82.00110369881503,36.56551031467086],[-82.00257,36.56477],[-82.00795,36.56916]]]},"properties":{}},{"type":"Feature","geometry":{"type":"Polygon","coordinates":[[[-81.95608,36.57558],[-81.9538747514,36.5805189129],[-81.9518150473,36.5815336527],[-81.9485188892,36.5806701542],[-81.9472616152,36.578483735],[-81.9497925676,36.5737862084],[-81.9486262015,36.5716027962],[-81.9492669136,36.5636031126],[-81.9523838284,36.5604548849],[-81.9555450186,36.5621227436],[-81.956656714,36.5661696248],[-81.9555295357,36.5690553055],[-81.9575883175,36.5712332229],[-81.95846492315013,36.57433047026595],[-81.95608,36.57558]]]},"properties":{"flat_pct":16}},{"type":"Feature","geometry":{"type":"Polygon","coordinates":[[[-81.7915159707,36.6138191787],[-81.79278136229138,36.61118226663256],[-81.79273017078522,36.61361189427133],[-81.79806064544415,36.61417461338728],[-81.7915159707,36.6138191787]]]},"properties":{}}]}