{"type":"FeatureCollection","attribution":"OSM (ODbL) via Overpass; Overture Maps Foundation (CDLA-P-2.0/Apache-2.0/CC0); Recreation.gov RIDB (CC-BY 4.0). See data/ATTRIBUTION.md. Generated 2026-07-23.","features":[{"type":"Feature","geometry":{"type":"Point","coordinates":[-75.104071,38.626223]},"properties":{"kind":"campsite","src":"osm","osm":"node/158245077","name":"Massey Landing","elev_ft":10}},{"type":"Feature","geometry":{"type":"Point","coordinates":[-75.702883,39.567504]},"properties":{"kind":"campsite","src":"osm","osm":"node/5282791516","name":"Lums Pond Youth Camping","fee":"yes","elev_ft":75}},{"type":"Feature","geometry":{"type":"Point","coordinates":[-75.617233,39.323419]},"properties":{"kind":"dump","src":"osm","osm":"node/6128898435","elev_ft":56}},{"type":"Feature","geometry":{"type":"Point","coordinates":[-75.138755,38.63265]},"properties":{"kind":"rv_park","src":"osm","osm":"node/6968088869","name":"Lighthouse Beach RV Resort","website":"https://www.lighthousebeachde.com/","elev_ft":13}},{"type":"Feature","geometry":{"type":"Point","coordinates":[-75.233507,38.740194]},"properties":{"kind":"campsite","src":"osm","osm":"node/6968103642","name":"Tall Pines Campground","website":"https://www.tallpines-del.com/","elev_ft":26}},{"type":"Feature","geometry":{"type":"Point","coordinates":[-75.130662,38.739598]},"properties":{"kind":"campsite","src":"osm","osm":"node/6968112329","name":"Big Oaks Campground","website":"https://bigoakscamping.com/index.html","elev_ft":30}},{"type":"Feature","geometry":{"type":"Point","coordinates":[-75.413883,38.739229]},"properties":{"kind":"campsite","src":"osm","osm":"node/8356227080","elev_ft":72}},{"type":"Feature","geometry":{"type":"Point","coordinates":[-75.670801,39.79693]},"properties":{"kind":"campsite","src":"osm","osm":"node/13649630201","name":"Camp Country Center","website":"https://www.gscb.org/en/discover/our-council/reserve-a-property/camp-country-center.html","elev_ft":246}},{"type":"Feature","geometry":{"type":"Point","coordinates":[-75.066112,38.60514]},"properties":{"kind":"campsite","src":"osm","osm":"way/86177632","name":"South Inlet Campground","elev_ft":0}},{"type":"Feature","geometry":{"type":"Point","coordinates":[-75.096946,38.775933]},"properties":{"kind":"campsite","src":"osm","osm":"way/196122181","name":"Cape Henlopen State Park Campground","operator":"Delaware State Parks","elev_ft":33}},{"type":"Feature","geometry":{"type":"Point","coordinates":[-75.066199,38.610045]},"properties":{"kind":"rv_park","src":"osm","osm":"way/225521725","name":"North Inlet Campground","elev_ft":3}},{"type":"Feature","geometry":{"type":"Point","coordinates":[-75.717668,39.550803]},"properties":{"kind":"campsite","src":"osm","osm":"way/372327900","name":"Lums Pond State Park Campground","elev_ft":72}},{"type":"Feature","geometry":{"type":"Point","coordinates":[-75.533736,38.978444]},"properties":{"kind":"campsite","src":"osm","osm":"way/428657876","name":"Killens Pond Campground","drinking_water":"yes","elev_ft":66}},{"type":"Feature","geometry":{"type":"Point","coordinates":[-75.241943,38.797878]},"properties":{"kind":"campsite","src":"osm","osm":"way/471846959","name":"Steamboat Landing Campground","website":"https://sblrvpark.com/","elev_ft":16}},{"type":"Feature","geometry":{"type":"Point","coordinates":[-75.211866,38.666076]},"properties":{"kind":"campsite","src":"osm","osm":"way/476445314","name":"Holly Lake Campground","elev_ft":39}},{"type":"Feature","geometry":{"type":"Point","coordinates":[-75.198286,38.660332]},"properties":{"kind":"campsite","src":"osm","osm":"way/476445316","name":"Holly Lake Campground","elev_ft":26}},{"type":"Feature","geometry":{"type":"Point","coordinates":[-75.223013,38.556047]},"properties":{"kind":"campsite","src":"osm","osm":"way/547314300","name":"Gulls Way Campground","fee":"yes","elev_ft":23}},{"type":"Feature","geometry":{"type":"Point","coordinates":[-75.084304,38.561341]},"properties":{"kind":"campsite","src":"osm","osm":"way/548442004","name":"Pine Tree Campground","elev_ft":10}},{"type":"Feature","geometry":{"type":"Point","coordinates":[-75.304565,38.729504]},"properties":{"kind":"campsite","src":"osm","osm":"way/553100850","name":"Homestead Campground","website":"https://www.homesteadde.com/","elev_ft":43}},{"type":"Feature","geometry":{"type":"Point","coordinates":[-75.358755,38.872702]},"properties":{"kind":"campsite","src":"osm","osm":"way/560486181","name":"Jellystone Park","elev_ft":16}},{"type":"Feature","geometry":{"type":"Point","coordinates":[-75.457221,39.113569]},"properties":{"kind":"campsite","src":"osm","osm":"way/588540706","name":"Fam Camp","operator":"Dover Air Force Base","elev_ft":23}},{"type":"Feature","geometry":{"type":"Point","coordinates":[-75.542147,39.126434]},"properties":{"kind":"campsite","src":"osm","osm":"way/649327872","name":"Akridge Scout Reservation","access":"private","operator":"Del-Mar-Va Council, Boy Scouts of America","website":"https://www.delmarvacouncil.org/akridge-scout-reservation/35361","elev_ft":36}},{"type":"Feature","geometry":{"type":"Point","coordinates":[-75.2733,38.794005]},"properties":{"kind":"campsite","src":"osm","osm":"way/672328547","name":"Smiths Landing","elev_ft":10}},{"type":"Feature","geometry":{"type":"Point","coordinates":[-75.284029,38.806939]},"properties":{"kind":"campsite","src":"osm","osm":"way/672375041","name":"Deep Branch Family Campground","website":"https://www.deepbranchcampground.com/","elev_ft":26}},{"type":"Feature","geometry":{"type":"Point","coordinates":[-75.153482,38.472638]},"properties":{"kind":"rv_park","src":"osm","osm":"way/699519325","name":"Lost Lands RV Park","website":"https://www.lostlandsrvpark.com/","elev_ft":13}},{"type":"Feature","geometry":{"type":"Point","coordinates":[-75.534586,38.911874]},"properties":{"kind":"campsite","src":"osm","osm":"way/744201023","name":"G&R Campground","website":"https://gnrcampground.com/","elev_ft":66}},{"type":"Feature","geometry":{"type":"Point","coordinates":[-75.476153,38.528772]},"properties":{"kind":"campsite","src":"osm","osm":"way/744208484","name":"Trap Pond State Park Campground","fee":"yes","drinking_water":"yes","elev_ft":46}},{"type":"Feature","geometry":{"type":"Point","coordinates":[-75.088426,38.768457]},"properties":{"kind":"campsite","src":"osm","osm":"way/744518071","name":"Primitive Youth Campground","toilets":"yes","elev_ft":30}},{"type":"Feature","geometry":{"type":"Point","coordinates":[-75.104205,38.626573]},"properties":{"kind":"campsite","src":"osm","osm":"way/749452747","name":"Massey's Landing Campground","elev_ft":10}},{"type":"Feature","geometry":{"type":"Point","coordinates":[-75.12115,38.586828]},"properties":{"kind":"rv_park","src":"osm","osm":"way/1091502131","elev_ft":20}},{"type":"Feature","geometry":{"type":"Point","coordinates":[-75.729507,39.332376]},"properties":{"kind":"campsite","src":"osm","osm":"way/1132533036","name":"Peters Scout Camp","access":"permit","operator":"Delaware Forest Service","elev_ft":95}},{"type":"Feature","geometry":{"type":"Point","coordinates":[-75.094707,38.503086]},"properties":{"kind":"campsite","src":"osm","osm":"relation/6362828","name":"Camp Barnes","elev_ft":20}},{"type":"Feature","geometry":{"type":"Point","coordinates":[-75.580733,39.573259]},"properties":{"kind":"trailhead","src":"osm","osm":"node/5849526873","elev_ft":16}},{"type":"Feature","geometry":{"type":"Point","coordinates":[-75.064254,38.565144]},"properties":{"kind":"trailhead","src":"osm","osm":"node/11020507563","elev_ft":10}},{"type":"Feature","geometry":{"type":"Point","coordinates":[-75.189636,38.657906]},"properties":{"kind":"campsite","src":"overture:meta","name":"Holly Lake Campsites","website":"http://www.hollylakecampsites.com/","addr":"32087 Holly Lake Rd, Millsboro","elev_ft":43}},{"type":"Feature","geometry":{"type":"Point","coordinates":[-75.065643,38.610134]},"properties":{"kind":"campsite","src":"overture:meta","name":"Delaware Seashore State Park North Campground","addr":"39345 Inlet Rd, Rehoboth Beach","elev_ft":3}},{"type":"Feature","geometry":{"type":"Point","coordinates":[-75.133911,38.655144]},"properties":{"kind":"campsite","src":"overture:meta","name":"Camp Arrowhead in Lewes, DE","website":"http://www.camparrowhead.net/","addr":"35268 Homestead Way, Lewes","elev_ft":52}},{"type":"Feature","geometry":{"type":"Point","coordinates":[-75.139229,38.630032]},"properties":{"kind":"campsite","src":"overture:meta","name":"Lighthouse Beach RV Resort","website":"http://www.lighthousebeachde.com/","addr":"26162 Bay Blvd, Millsboro","elev_ft":16}},{"type":"Feature","geometry":{"type":"Point","coordinates":[-75.534996,38.974461]},"properties":{"kind":"campsite","src":"overture:meta","name":"Killens Pond State Park Campground Entrance","website":"http://www.destateparks.com/camping/killens-pond/index.asp","addr":"3015 Paradise Alley Rd, Felton","elev_ft":43}},{"type":"Feature","geometry":{"type":"Point","coordinates":[-75.079193,38.463024]},"properties":{"kind":"campsite","src":"overture:meta","name":"Treasure Beach Activity Center","website":"http://www.treasurebeachrvpark.com","addr":"37291 Lighthouse Rd, Selbyville","elev_ft":7}},{"type":"Feature","geometry":{"type":"Point","coordinates":[-75.078888,38.463585]},"properties":{"kind":"rv_park","src":"overture:meta","name":"Treasure Beach RV Park and Campground","website":"http://www.treasurebeachrvpark.com/","addr":"37291 Lighthouse Rd, Selbyville","elev_ft":3}},{"type":"Feature","geometry":{"type":"Point","coordinates":[-75.1203,38.624725]},"properties":{"kind":"rv_park","src":"overture:meta","name":"Paradise Cove Community & Campground","addr":"36085 Long Neck Rd, Millsboro","elev_ft":0}},{"type":"Feature","geometry":{"type":"Point","coordinates":[-75.208199,38.66259]},"properties":{"kind":"campsite","src":"overture:Foursquare","name":"Holly Lake Campsites","website":"https://www.hollylakecampsites.com","addr":"32087 Holly Lake Rd, Millsboro","elev_ft":26}},{"type":"Feature","geometry":{"type":"Point","coordinates":[-75.058136,38.544933]},"properties":{"kind":"rv_park","src":"overture:meta","name":"Bethany Beach Training Site","addr":"163 Scannell Blvd, Bethany Beach","elev_ft":13}},{"type":"Feature","geometry":{"type":"Point","coordinates":[-75.305153,38.821365]},"properties":{"kind":"campsite","src":"overture:meta","name":"Brumbley's Family Park Campground","website":"http://brumbleys-campground.keeq.io","addr":"25601 Amys Ln, Milton","elev_ft":23}},{"type":"Feature","geometry":{"type":"Point","coordinates":[-75.4785,38.532894]},"properties":{"kind":"campsite","src":"overture:meta","name":"Delmarva Christian Service Camp","website":"http://delmarvachristiancamp.com/","addr":"15526 English Ivy Ln, Laurel","elev_ft":56}},{"type":"Feature","geometry":{"type":"Point","coordinates":[-75.53112,39.198601]},"properties":{"kind":"campsite","src":"overture:meta","name":"Camping With Rick","website":"http://www.campingwithrick.com/","addr":"2081 Leipsic Rd, Dover","elev_ft":20}},{"type":"Feature","geometry":{"type":"Point","coordinates":[-75.432884,39.13279]},"properties":{"kind":"campsite","src":"overture:meta","name":"The Retreat at King Cole Farm","website":"https://retreatatkingcolefarm.com/","addr":"765 Pickering Beach Rd, Dover","elev_ft":16}},{"type":"Feature","geometry":{"type":"Point","coordinates":[-75.090302,38.573734]},"properties":{"kind":"campsite","src":"overture:meta","name":"Bayshore Camp Site and Park","website":"http://www.bayshorecampground.com","addr":"30145 Bayshore Rd, Ocean View","elev_ft":10}},{"type":"Feature","geometry":{"type":"Point","coordinates":[-75.122032,38.689323]},"properties":{"kind":"campsite","src":"overture:meta","name":"Port Delmarva","website":"http://www.portdelmarva.com/","addr":"260 Henderson, Rehoboth Beach","elev_ft":20}},{"type":"Feature","geometry":{"type":"Point","coordinates":[-75.157524,38.636692]},"properties":{"kind":"rv_park","src":"overture:meta","name":"Leisure Point Resort","website":"http://leisurepoint.com","addr":"25491 Dogwood Ln, Millsboro","elev_ft":26}},{"type":"Feature","geometry":{"type":"Point","coordinates":[-75.35865,38.870781]},"properties":{"kind":"campsite","src":"overture:meta","name":"Pinehaven Campground","website":"http://www.pinehavencampground.com","addr":"Luella St, Lincoln","elev_ft":26}},{"type":"Feature","geometry":{"type":"Point","coordinates":[-75.161682,38.631104]},"properties":{"kind":"campsite","src":"overture:Microsoft","name":"Sun Retreats Rehoboth Bay","website":"https://www.sunoutdoors.com/delaware/sun-retreats-rehoboth-bay?utm_source=bing&utm_medium=organic&utm_campaign=bing_listing","addr":"25491 Dogwood Ln, Millsboro","elev_ft":36}},{"type":"Feature","geometry":{"type":"Point","coordinates":[-75.524452,39.228821]},"properties":{"kind":"campsite","src":"overture:meta","name":"Burnt Ducks Hunting Club and Campground","website":"http://www.burntducks.com/","addr":"2915 Dyke Branch Rd, Dover","elev_ft":16}},{"type":"Feature","geometry":{"type":"Point","coordinates":[-75.430206,38.874325]},"properties":{"kind":"campsite","src":"overture:Microsoft","name":"Jellystone Park\u2122 Delaware Beaches","website":"https://www.delawarejellystone.com/","addr":"8295 Brick Granary Rd, Lincoln","elev_ft":39}},{"type":"Feature","geometry":{"type":"Point","coordinates":[-75.581261,38.930962]},"properties":{"kind":"campsite","src":"overture:meta","name":"Bo's Family Campground","addr":"103 North St, Harrington","elev_ft":62}},{"type":"Feature","geometry":{"type":"Point","coordinates":[-75.202171,38.740379]},"properties":{"kind":"rv_park","src":"overture:meta","name":"Colonial East","website":"http://www.colonialeast.com","addr":"30769 Lewes Georgetown Hwy, Lewes","elev_ft":23}},{"type":"Feature","geometry":{"type":"Point","coordinates":[-75.563927,38.951763]},"properties":{"kind":"campsite","src":"overture:Foursquare","name":"Killens Pond Campground","website":"http://www.destateparks.com/camping/killens-pond/index.asp","addr":"3015 Paradise Alley Rd, Felton","elev_ft":56}},{"type":"Feature","geometry":{"type":"Point","coordinates":[-75.132835,38.736305]},"properties":{"kind":"campsite","src":"overture:Foursquare","name":"Big Oaks Campground","website":"http://www.bigoakscamping.com","addr":"35511-35535 Wolfe Neck Rd, Rehoboth Beach","elev_ft":30}},{"type":"Feature","geometry":{"type":"Point","coordinates":[-75.703613,39.611069]},"properties":{"kind":"campsite","src":"overture:Foursquare","name":"Reybold Homes","website":"http://www.reybold.com","addr":"100 E Scotland Dr # 19701-1756, Bear","elev_ft":66}},{"type":"Feature","geometry":{"type":"Point","coordinates":[-75.547684,39.822701]},"properties":{"kind":"campsite","src":"overture:Foursquare","name":"Adventure Kids Summer Camp","website":"http://www.adventurekidscamp.com","addr":"4906 Concord Pike, Wilmington","elev_ft":397}},{"type":"Feature","geometry":{"type":"Point","coordinates":[-75.398804,39.058537]},"properties":{"kind":"campsite","src":"overture:meta","name":"Billystone Campground","website":"http://www.delawarejellystone.com/","addr":"170 Cooper Ave, Frederica","elev_ft":7}},{"type":"Feature","geometry":{"type":"Point","coordinates":[-75.69902,39.215683]},"properties":{"kind":"campsite","src":"overture:meta","name":"Cedar Cove Campground Clayton","elev_ft":66}},{"type":"Feature","geometry":{"type":"Point","coordinates":[-75.157112,38.627586]},"properties":{"kind":"rv_park","src":"overture:meta","name":"Rehoboth Shores","website":"http://www.rehobothshores.com/","addr":"57 Long Neck Rd , Millsboro","elev_ft":30}},{"type":"Feature","geometry":{"type":"Point","coordinates":[-75.52298,39.18877]},"properties":{"kind":"campsite","src":"overture:meta","name":"Dover Campground","website":"https://fireflyfestival.com","elev_ft":26}},{"type":"Feature","geometry":{"type":"Point","coordinates":[-75.522453,39.184498]},"properties":{"kind":"campsite","src":"overture:meta","name":"Lot 2","elev_ft":23}},{"type":"Feature","geometry":{"type":"Point","coordinates":[-75.306931,38.915943]},"properties":{"kind":"rv_park","src":"overture:meta","name":"New Waterfront Rental -  Sea Charmer Cottage - Delaware Beach Rental","website":"http://www.SeaCharmerCottage.com/","addr":"Bay Avenue, Milford","elev_ft":115}},{"type":"Feature","geometry":{"type":"Point","coordinates":[-75.476212,39.083576]},"properties":{"kind":"campsite","src":"overture:meta","name":"Big Rob\u2019s Quarantine Campground and Fine Dining","addr":"528 Plaindealing Rd, Magnolia","elev_ft":13}},{"type":"Feature","geometry":{"type":"Point","coordinates":[-75.536446,38.97979]},"properties":{"kind":"campsite","src":"overture:meta","name":"Killens Pond Cabins","elev_ft":43}},{"type":"Feature","geometry":{"type":"Point","coordinates":[-75.406227,38.523216]},"properties":{"kind":"campsite","src":"overture:meta","name":"Carey's Camp Meeting Ground","website":"http://en.wikipedia.org/wiki/Carey's_Camp_Meeting_Ground","elev_ft":69}},{"type":"Feature","geometry":{"type":"Point","coordinates":[-75.312927,38.57325]},"properties":{"kind":"campsite","src":"overture:meta","name":"Mears Baseball Instruction","website":"https://treymears.wixsite.com/mearsbaseball","addr":"24975 Radish Rd, Millsboro","elev_ft":39}},{"type":"Feature","geometry":{"type":"Point","coordinates":[-75.400742,38.526047]},"properties":{"kind":"campsite","src":"overture:meta","name":"Arrowhead Woods","addr":"19958 Careys Camp Rd, Millsboro","elev_ft":56}},{"type":"Feature","geometry":{"type":"Point","coordinates":[-75.48027,38.531422]},"properties":{"kind":"campsite","src":"overture:meta","name":"Trap Pond Camp Store","addr":"14899 Trap Pond Rd, Laurel","elev_ft":59}}]}