{"type":"FeatureCollection","attribution":"OSM (ODbL) via Overpass; Overture Maps Foundation (CDLA-P-2.0/Apache-2.0/CC0); Recreation.gov RIDB (CC-BY 4.0). See data/ATTRIBUTION.md. Generated 2026-07-23.","features":[{"type":"Feature","geometry":{"type":"Point","coordinates":[-71.782222,41.969689]},"properties":{"kind":"campsite","src":"osm","osm":"node/2140964052","name":"Narragansett Council, Boy Scouts of America, Cub World","elev_ft":650}},{"type":"Feature","geometry":{"type":"Point","coordinates":[-71.557445,41.47323]},"properties":{"kind":"campsite","src":"osm","osm":"node/2413697702","name":"Camp Hoffman","operator":"Girl Scouts of Rhode Island","website":"https://www.gsri.org/aboutUs_OurCamps.html","elev_ft":148}},{"type":"Feature","geometry":{"type":"Point","coordinates":[-71.755457,41.921754]},"properties":{"kind":"campsite","src":"osm","osm":"node/3283895170","name":"George Washington State Campground","elev_ft":623}},{"type":"Feature","geometry":{"type":"Point","coordinates":[-71.746674,41.767676]},"properties":{"kind":"campsite","src":"osm","osm":"node/3837336137","name":"Dyer Woods Nudist Campgrounds","access":"private","website":"http://www.dyerwoodscampground.com/","elev_ft":610}},{"type":"Feature","geometry":{"type":"Point","coordinates":[-71.511444,41.409132]},"properties":{"kind":"campsite","src":"osm","osm":"node/4575526444","name":"YMCA Camp Fuller","elev_ft":36}},{"type":"Feature","geometry":{"type":"Point","coordinates":[-71.679129,41.381585]},"properties":{"kind":"campsite","src":"osm","osm":"node/5308439438","name":"Camp Watchaug (Westerly YMCA)","operator":"Westerly (Ocean Community) YMCA","elev_ft":59}},{"type":"Feature","geometry":{"type":"Point","coordinates":[-71.571376,41.167152]},"properties":{"kind":"campsite","src":"osm","osm":"node/8898462872","access":"private","elev_ft":43}},{"type":"Feature","geometry":{"type":"Point","coordinates":[-71.572213,41.166974]},"properties":{"kind":"campsite","src":"osm","osm":"node/8898462873","access":"private","elev_ft":52}},{"type":"Feature","geometry":{"type":"Point","coordinates":[-71.571434,41.166505]},"properties":{"kind":"campsite","src":"osm","osm":"node/8898462874","access":"private","elev_ft":43}},{"type":"Feature","geometry":{"type":"Point","coordinates":[-71.416676,41.643151]},"properties":{"kind":"campsite","src":"osm","osm":"node/9359593383","elev_ft":36}},{"type":"Feature","geometry":{"type":"Point","coordinates":[-71.710103,41.59012]},"properties":{"kind":"campsite","src":"osm","osm":"node/11653461968","name":"Frosty Hollow Shelter Camping Area","fee":"yes","access":"permit","operator":"Arcadia Management Area","website":"https://www.reserveamerica.com/explore/frosty-hollow-shelter-camping-area/RI/254250/overview","toilets":"yes","reservation":"required","elev_ft":240}},{"type":"Feature","geometry":{"type":"Point","coordinates":[-71.489615,41.379875]},"properties":{"kind":"dump","src":"osm","osm":"node/11905534364","elev_ft":69}},{"type":"Feature","geometry":{"type":"Point","coordinates":[-71.700085,41.36305]},"properties":{"kind":"dump","src":"osm","osm":"node/11926024197","elev_ft":121}},{"type":"Feature","geometry":{"type":"Point","coordinates":[-71.697228,41.375282]},"properties":{"kind":"dump","src":"osm","osm":"node/11926024211","elev_ft":98}},{"type":"Feature","geometry":{"type":"Point","coordinates":[-71.512293,41.410584]},"properties":{"kind":"campsite","src":"osm","osm":"node/12175691090","name":"Junior Campsite","elev_ft":39}},{"type":"Feature","geometry":{"type":"Point","coordinates":[-71.510808,41.411165]},"properties":{"kind":"campsite","src":"osm","osm":"node/12175691091","name":"Jungle Campsite","elev_ft":36}},{"type":"Feature","geometry":{"type":"Point","coordinates":[-71.509551,41.408095]},"properties":{"kind":"campsite","src":"osm","osm":"node/12175767404","name":"Senior Hill","elev_ft":10}},{"type":"Feature","geometry":{"type":"Point","coordinates":[-71.509852,41.410424]},"properties":{"kind":"campsite","src":"osm","osm":"node/12175767412","name":"Sherman Campsite","elev_ft":39}},{"type":"Feature","geometry":{"type":"Point","coordinates":[-71.778724,41.519987]},"properties":{"kind":"campsite","src":"osm","osm":"node/12874023358","name":"Frontier","elev_ft":371}},{"type":"Feature","geometry":{"type":"Point","coordinates":[-71.77871,41.519658]},"properties":{"kind":"campsite","src":"osm","osm":"node/12874023359","name":"Santa Fe","elev_ft":367}},{"type":"Feature","geometry":{"type":"Point","coordinates":[-71.778584,41.519322]},"properties":{"kind":"campsite","src":"osm","osm":"node/12874023360","name":"Tuocs","elev_ft":367}},{"type":"Feature","geometry":{"type":"Point","coordinates":[-71.777055,41.51893]},"properties":{"kind":"campsite","src":"osm","osm":"node/12874023373","name":"Sleepy Hollow","elev_ft":381}},{"type":"Feature","geometry":{"type":"Point","coordinates":[-71.781153,41.516852]},"properties":{"kind":"campsite","src":"osm","osm":"node/12874023412","name":"Donald Dewing","elev_ft":348}},{"type":"Feature","geometry":{"type":"Point","coordinates":[-71.780717,41.515759]},"properties":{"kind":"campsite","src":"osm","osm":"node/12874023413","name":"Wells Fargo","elev_ft":381}},{"type":"Feature","geometry":{"type":"Point","coordinates":[-71.778972,41.517066]},"properties":{"kind":"campsite","src":"osm","osm":"node/12874023414","name":"Musketeer","elev_ft":371}},{"type":"Feature","geometry":{"type":"Point","coordinates":[-71.77869,41.516158]},"properties":{"kind":"campsite","src":"osm","osm":"node/12874023415","name":"Forty-Niner","elev_ft":351}},{"type":"Feature","geometry":{"type":"Point","coordinates":[-71.779547,41.516919]},"properties":{"kind":"campsite","src":"osm","osm":"node/12874023416","name":"Edward Bannister","elev_ft":351}},{"type":"Feature","geometry":{"type":"Point","coordinates":[-71.777831,41.517397]},"properties":{"kind":"campsite","src":"osm","osm":"node/12874023421","name":"Oak Ridge","elev_ft":371}},{"type":"Feature","geometry":{"type":"Point","coordinates":[-71.778297,41.516974]},"properties":{"kind":"campsite","src":"osm","osm":"node/12874023422","name":"Pioneer","elev_ft":371}},{"type":"Feature","geometry":{"type":"Point","coordinates":[-71.777816,41.51574]},"properties":{"kind":"campsite","src":"osm","osm":"node/12874023434","name":"Paul Slade","elev_ft":341}},{"type":"Feature","geometry":{"type":"Point","coordinates":[-71.776852,41.515279]},"properties":{"kind":"campsite","src":"osm","osm":"node/12874023435","name":"Zuccolo","elev_ft":354}},{"type":"Feature","geometry":{"type":"Point","coordinates":[-71.777666,41.514813]},"properties":{"kind":"campsite","src":"osm","osm":"node/12874023436","name":"Street","elev_ft":354}},{"type":"Feature","geometry":{"type":"Point","coordinates":[-71.776771,41.51473]},"properties":{"kind":"campsite","src":"osm","osm":"node/12874023437","name":"Scott","elev_ft":348}},{"type":"Feature","geometry":{"type":"Point","coordinates":[-71.777414,41.521752]},"properties":{"kind":"campsite","src":"osm","osm":"node/12874023496","name":"Sequan","elev_ft":404}},{"type":"Feature","geometry":{"type":"Point","coordinates":[-71.779318,41.521087]},"properties":{"kind":"campsite","src":"osm","osm":"node/12874023529","name":"Weemat","elev_ft":348}},{"type":"Feature","geometry":{"type":"Point","coordinates":[-71.779431,41.5213]},"properties":{"kind":"campsite","src":"osm","osm":"node/12874023530","name":"Wuttah","elev_ft":348}},{"type":"Feature","geometry":{"type":"Point","coordinates":[-71.779535,41.52158]},"properties":{"kind":"campsite","src":"osm","osm":"node/12874023531","name":"Netop","elev_ft":348}},{"type":"Feature","geometry":{"type":"Point","coordinates":[-71.77911,41.521892]},"properties":{"kind":"campsite","src":"osm","osm":"node/12875929955","name":"Red Wing","elev_ft":381}},{"type":"Feature","geometry":{"type":"Point","coordinates":[-71.779253,41.522322]},"properties":{"kind":"campsite","src":"osm","osm":"node/12875929956","name":"Wunegin","elev_ft":358}},{"type":"Feature","geometry":{"type":"Point","coordinates":[-71.777788,41.523108]},"properties":{"kind":"campsite","src":"osm","osm":"node/12875929958","name":"Neimpaug","elev_ft":400}},{"type":"Feature","geometry":{"type":"Point","coordinates":[-71.7779,41.523605]},"properties":{"kind":"campsite","src":"osm","osm":"node/12875929959","name":"Cautontowit","elev_ft":404}},{"type":"Feature","geometry":{"type":"Point","coordinates":[-71.778173,41.524035]},"properties":{"kind":"campsite","src":"osm","osm":"node/12875929960","name":"Wetuomuck","elev_ft":407}},{"type":"Feature","geometry":{"type":"Point","coordinates":[-71.778831,41.525129]},"properties":{"kind":"campsite","src":"osm","osm":"node/12875929963","name":"Donald Cady","elev_ft":410}},{"type":"Feature","geometry":{"type":"Point","coordinates":[-71.778763,41.522861]},"properties":{"kind":"campsite","src":"osm","osm":"node/12875929964","name":"Minnikesu","elev_ft":394}},{"type":"Feature","geometry":{"type":"Point","coordinates":[-71.778738,41.52339]},"properties":{"kind":"campsite","src":"osm","osm":"node/12875929965","name":"Manittoo","elev_ft":404}},{"type":"Feature","geometry":{"type":"Point","coordinates":[-71.779254,41.523469]},"properties":{"kind":"campsite","src":"osm","osm":"node/12875929966","name":"Baden Powell","elev_ft":377}},{"type":"Feature","geometry":{"type":"Point","coordinates":[-71.778984,41.524212]},"properties":{"kind":"campsite","src":"osm","osm":"node/12875929967","name":"Abe Lincoln","elev_ft":407}},{"type":"Feature","geometry":{"type":"Point","coordinates":[-71.779678,41.524028]},"properties":{"kind":"campsite","src":"osm","osm":"node/12875929968","name":"Frederick Douglas","elev_ft":394}},{"type":"Feature","geometry":{"type":"Point","coordinates":[-71.779846,41.522702]},"properties":{"kind":"campsite","src":"osm","osm":"node/12875929969","name":"Manchosi","elev_ft":358}},{"type":"Feature","geometry":{"type":"Point","coordinates":[-71.780128,41.523084]},"properties":{"kind":"campsite","src":"osm","osm":"node/12875929970","name":"Waskecke","elev_ft":377}},{"type":"Feature","geometry":{"type":"Point","coordinates":[-71.780514,41.523472]},"properties":{"kind":"campsite","src":"osm","osm":"node/12875929971","name":"Dan Boone","elev_ft":377}},{"type":"Feature","geometry":{"type":"Point","coordinates":[-71.781023,41.524077]},"properties":{"kind":"campsite","src":"osm","osm":"node/12875929998","name":"Neil Armstrong","elev_ft":374}},{"type":"Feature","geometry":{"type":"Point","coordinates":[-71.779829,41.526353]},"properties":{"kind":"campsite","src":"osm","osm":"node/12875966803","name":"Audobon","elev_ft":423}},{"type":"Feature","geometry":{"type":"Point","coordinates":[-71.780766,41.526324]},"properties":{"kind":"campsite","src":"osm","osm":"node/12875966804","name":"Paul Siple","elev_ft":420}},{"type":"Feature","geometry":{"type":"Point","coordinates":[-71.780903,41.526849]},"properties":{"kind":"campsite","src":"osm","osm":"node/12875966805","name":"Richard Byrd","elev_ft":420}},{"type":"Feature","geometry":{"type":"Point","coordinates":[-71.780191,41.526866]},"properties":{"kind":"campsite","src":"osm","osm":"node/12875966806","name":"Backwoods","elev_ft":423}},{"type":"Feature","geometry":{"type":"Point","coordinates":[-71.780426,41.527584]},"properties":{"kind":"campsite","src":"osm","osm":"node/12875966807","name":"Davy Crockett","elev_ft":436}},{"type":"Feature","geometry":{"type":"Point","coordinates":[-71.781208,41.527475]},"properties":{"kind":"campsite","src":"osm","osm":"node/12875966808","name":"Teddy Roosevelt","elev_ft":433}},{"type":"Feature","geometry":{"type":"Point","coordinates":[-71.780693,41.528103]},"properties":{"kind":"campsite","src":"osm","osm":"node/12875966809","name":"Norman Rockwell","elev_ft":433}},{"type":"Feature","geometry":{"type":"Point","coordinates":[-71.781564,41.527706]},"properties":{"kind":"campsite","src":"osm","osm":"node/12875966810","name":"James West","elev_ft":433}},{"type":"Feature","geometry":{"type":"Point","coordinates":[-71.781608,41.528516]},"properties":{"kind":"campsite","src":"osm","osm":"node/12875966815","name":"Silver Buffalo","elev_ft":436}},{"type":"Feature","geometry":{"type":"Point","coordinates":[-71.781388,41.529489]},"properties":{"kind":"campsite","src":"osm","osm":"node/12875966816","name":"Ernest Seton","elev_ft":436}},{"type":"Feature","geometry":{"type":"Point","coordinates":[-71.781604,41.528939]},"properties":{"kind":"campsite","src":"osm","osm":"node/12875966817","name":"Ida Lewis","elev_ft":436}},{"type":"Feature","geometry":{"type":"Point","coordinates":[-71.783796,41.525416]},"properties":{"kind":"campsite","src":"osm","osm":"node/12875966822","name":"Jim Bridger","elev_ft":404}},{"type":"Feature","geometry":{"type":"Point","coordinates":[-71.782656,41.52552]},"properties":{"kind":"campsite","src":"osm","osm":"node/12875966823","name":"George Washington","elev_ft":400}},{"type":"Feature","geometry":{"type":"Point","coordinates":[-71.790787,41.520317]},"properties":{"kind":"campsite","src":"osm","osm":"node/13589420862","name":"Deer Cove","access":"private","operator":"Yawgoog Boy Scout Camp","elev_ft":354}},{"type":"Feature","geometry":{"type":"Point","coordinates":[-71.787294,41.52745]},"properties":{"kind":"campsite","src":"osm","osm":"node/13986014048","name":"Hidden Lake Campsite","elev_ft":381}},{"type":"Feature","geometry":{"type":"Point","coordinates":[-71.274309,41.586818]},"properties":{"kind":"campsite","src":"osm","osm":"way/294894424","name":"Melville Ponds Campground","elev_ft":128}},{"type":"Feature","geometry":{"type":"Point","coordinates":[-71.752675,41.757257]},"properties":{"kind":"rv_park","src":"osm","osm":"way/380396805","name":"Ginny-B Campground","website":"http://ginny-bcampground.com/","elev_ft":476}},{"type":"Feature","geometry":{"type":"Point","coordinates":[-71.627938,41.556378]},"properties":{"kind":"rv_park","src":"osm","osm":"way/410609135","name":"Wawaloam Campground","website":"https://wawaloam.com","elev_ft":466}},{"type":"Feature","geometry":{"type":"Point","coordinates":[-71.638181,41.35776]},"properties":{"kind":"rv_park","src":"osm","osm":"way/617173173","fee":"yes","elev_ft":13}},{"type":"Feature","geometry":{"type":"Point","coordinates":[-71.135442,41.495155]},"properties":{"kind":"campsite","src":"osm","osm":"way/1299113399","access":"permit","operator":"Town of Little Compton","elev_ft":13}},{"type":"Feature","geometry":{"type":"Point","coordinates":[-71.509555,41.409641]},"properties":{"kind":"campsite","src":"osm","osm":"way/1314407535","name":"Camp Fuller - By The Sea","operator":"YMCA","elev_ft":33}},{"type":"Feature","geometry":{"type":"Point","coordinates":[-71.750374,41.417977]},"properties":{"kind":"rv_park","src":"osm","osm":"way/1375032830","elev_ft":144}},{"type":"Feature","geometry":{"type":"Point","coordinates":[-71.740861,41.528934]},"properties":{"kind":"rv_park","src":"osm","osm":"way/1380138837","name":"Whispering Pines Campground","website":"https://whisperingpinescamping.com/","elev_ft":213}},{"type":"Feature","geometry":{"type":"Point","coordinates":[-71.490503,41.419218]},"properties":{"kind":"campsite","src":"osm","osm":"relation/11871002","name":"Long Cove Campground","elev_ft":43}},{"type":"Feature","geometry":{"type":"Point","coordinates":[-71.696631,41.374677]},"properties":{"kind":"campsite","src":"osm","osm":"relation/17625136","name":"Burlingame State Park Campground","elev_ft":95}},{"type":"Feature","geometry":{"type":"Point","coordinates":[-71.750196,41.415436]},"properties":{"kind":"rv_park","src":"osm","osm":"relation/18946706","elev_ft":92}},{"type":"Feature","geometry":{"type":"Point","coordinates":[-71.421551,41.96058]},"properties":{"kind":"trailhead","src":"osm","osm":"node/201213067","name":"Rowbottom Trail Head","operator":"Cumberland Land Trust","elev_ft":312}},{"type":"Feature","geometry":{"type":"Point","coordinates":[-71.564636,41.911491]},"properties":{"kind":"trailhead","src":"osm","osm":"node/201217763","elev_ft":440}},{"type":"Feature","geometry":{"type":"Point","coordinates":[-71.436148,41.977666]},"properties":{"kind":"trailhead","src":"osm","osm":"node/201239410","elev_ft":305}},{"type":"Feature","geometry":{"type":"Point","coordinates":[-71.545682,41.833733]},"properties":{"kind":"trailhead","src":"osm","osm":"node/201312767","elev_ft":436}},{"type":"Feature","geometry":{"type":"Point","coordinates":[-71.556915,41.90953]},"properties":{"kind":"trailhead","src":"osm","osm":"node/201510022","elev_ft":325}},{"type":"Feature","geometry":{"type":"Point","coordinates":[-71.421112,41.937759]},"properties":{"kind":"trailhead","src":"osm","osm":"node/201520325","elev_ft":220}},{"type":"Feature","geometry":{"type":"Point","coordinates":[-71.428113,41.955478]},"properties":{"kind":"trailhead","src":"osm","osm":"node/201577336","name":"High Rock Trailhead","elev_ft":217}},{"type":"Feature","geometry":{"type":"Point","coordinates":[-71.42809,41.961511]},"properties":{"kind":"trailhead","src":"osm","osm":"node/201577430","name":"Otis Smith Trailhead","operator":"Cumberland Land Trust","elev_ft":338}},{"type":"Feature","geometry":{"type":"Point","coordinates":[-71.460953,41.988372]},"properties":{"kind":"trailhead","src":"osm","osm":"node/201771852","elev_ft":354}},{"type":"Feature","geometry":{"type":"Point","coordinates":[-71.459335,41.993446]},"properties":{"kind":"trailhead","src":"osm","osm":"node/201772021","elev_ft":456}},{"type":"Feature","geometry":{"type":"Point","coordinates":[-71.68383,41.558241]},"properties":{"kind":"trailhead","src":"osm","osm":"node/2457566878","fee":"no","elev_ft":269}},{"type":"Feature","geometry":{"type":"Point","coordinates":[-71.713787,41.820066]},"properties":{"kind":"trailhead","src":"osm","osm":"node/3647876780","elev_ft":486}},{"type":"Feature","geometry":{"type":"Point","coordinates":[-71.440531,41.963504]},"properties":{"kind":"trailhead","src":"osm","osm":"node/5264533452","name":"Tucker Field Trailhead","operator":"Cumberland Land Trust","elev_ft":256}},{"type":"Feature","geometry":{"type":"Point","coordinates":[-71.440554,41.971399]},"properties":{"kind":"trailhead","src":"osm","osm":"node/5264533675","elev_ft":328}},{"type":"Feature","geometry":{"type":"Point","coordinates":[-71.466943,41.983507]},"properties":{"kind":"trailhead","src":"osm","osm":"node/5264534357","elev_ft":325}},{"type":"Feature","geometry":{"type":"Point","coordinates":[-71.430253,41.960115]},"properties":{"kind":"trailhead","src":"osm","osm":"node/6869505672","name":"Scott Brook Trailhead","elev_ft":312}},{"type":"Feature","geometry":{"type":"Point","coordinates":[-71.669836,41.48257]},"properties":{"kind":"trailhead","src":"osm","osm":"node/7549997580","name":"Red Trail","fee":"no","access":"yes","elev_ft":138}},{"type":"Feature","geometry":{"type":"Point","coordinates":[-71.728289,41.467373]},"properties":{"kind":"trailhead","src":"osm","osm":"node/7700852040","elev_ft":135}},{"type":"Feature","geometry":{"type":"Point","coordinates":[-71.514785,41.440363]},"properties":{"kind":"trailhead","src":"osm","osm":"node/7703937992","name":"Thewlis - DAR Trailhead","fee":"no","access":"yes","operator":"South Kingstown Land Trust","elev_ft":190}},{"type":"Feature","geometry":{"type":"Point","coordinates":[-71.562519,41.505873]},"properties":{"kind":"trailhead","src":"osm","osm":"node/7703981934","name":"Yawgoo Pond Trail Head","fee":"no","access":"yes","operator":"South Kingstown Land Trust","elev_ft":174}},{"type":"Feature","geometry":{"type":"Point","coordinates":[-71.554924,41.583521]},"properties":{"kind":"trailhead","src":"osm","osm":"node/7706181500","name":"Cuttyhunk Brook Preserve","fee":"no","operator":"The Nature Conservancy","elev_ft":361}},{"type":"Feature","geometry":{"type":"Point","coordinates":[-71.198334,41.59253]},"properties":{"kind":"trailhead","src":"osm","osm":"node/8267890760","elev_ft":39}},{"type":"Feature","geometry":{"type":"Point","coordinates":[-71.199053,41.591858]},"properties":{"kind":"trailhead","src":"osm","osm":"node/8267890768","elev_ft":39}},{"type":"Feature","geometry":{"type":"Point","coordinates":[-71.520363,41.881511]},"properties":{"kind":"trailhead","src":"osm","osm":"node/8285114210","fee":"no","elev_ft":361}},{"type":"Feature","geometry":{"type":"Point","coordinates":[-71.567556,41.901152]},"properties":{"kind":"trailhead","src":"osm","osm":"node/8309019734","elev_ft":381}},{"type":"Feature","geometry":{"type":"Point","coordinates":[-71.701134,41.411891]},"properties":{"kind":"trailhead","src":"osm","osm":"node/8493788502","name":"Shumankanuc-Burlingame Connector","elev_ft":200}},{"type":"Feature","geometry":{"type":"Point","coordinates":[-71.415361,42.017036]},"properties":{"kind":"trailhead","src":"osm","osm":"node/8620521076","elev_ft":308}},{"type":"Feature","geometry":{"type":"Point","coordinates":[-71.199287,41.591807]},"properties":{"kind":"trailhead","src":"osm","osm":"node/9384837670","elev_ft":30}},{"type":"Feature","geometry":{"type":"Point","coordinates":[-71.199579,41.59299]},"properties":{"kind":"trailhead","src":"osm","osm":"node/9384837671","elev_ft":39}},{"type":"Feature","geometry":{"type":"Point","coordinates":[-71.200018,41.593748]},"properties":{"kind":"trailhead","src":"osm","osm":"node/9384837677","elev_ft":36}},{"type":"Feature","geometry":{"type":"Point","coordinates":[-71.701524,41.482521]},"properties":{"kind":"trailhead","src":"osm","osm":"node/9410852651","name":"Essex Trailhead","access":"yes","elev_ft":121}},{"type":"Feature","geometry":{"type":"Point","coordinates":[-71.495387,41.889982]},"properties":{"kind":"trailhead","src":"osm","osm":"node/9491229456","name":"Olivia's Forest","fee":"no","access":"yes","operator":"Smithfield Land Trust","elev_ft":335}},{"type":"Feature","geometry":{"type":"Point","coordinates":[-71.189973,41.509958]},"properties":{"kind":"trailhead","src":"osm","osm":"node/9817932223","name":"West Main Road Trailhead","elev_ft":82}},{"type":"Feature","geometry":{"type":"Point","coordinates":[-71.395997,41.767499]},"properties":{"kind":"trailhead","src":"osm","osm":"node/10162826758","name":"Pawtuxet River Trail","elev_ft":43}},{"type":"Feature","geometry":{"type":"Point","coordinates":[-71.562694,41.904748]},"properties":{"kind":"trailhead","src":"osm","osm":"node/10560446344","elev_ft":387}},{"type":"Feature","geometry":{"type":"Point","coordinates":[-71.56769,41.739433]},"properties":{"kind":"trailhead","src":"osm","osm":"node/10671202025","name":"Doctors Field","elev_ft":269}},{"type":"Feature","geometry":{"type":"Point","coordinates":[-71.55294,41.960956]},"properties":{"kind":"trailhead","src":"osm","osm":"node/10805921733","elev_ft":285}},{"type":"Feature","geometry":{"type":"Point","coordinates":[-71.43914,41.994451]},"properties":{"kind":"trailhead","src":"osm","osm":"node/11742686452","name":"Catamint Brook Preserve","fee":"no","operator":"Cumberland Land Trust","elev_ft":417}},{"type":"Feature","geometry":{"type":"Point","coordinates":[-71.558703,41.921514]},"properties":{"kind":"trailhead","src":"osm","osm":"node/12161009874","name":"Latham Brook Preserve","elev_ft":292}},{"type":"Feature","geometry":{"type":"Point","coordinates":[-71.527748,41.94766]},"properties":{"kind":"trailhead","src":"osm","osm":"node/12187195280","name":"Rocky Hill Conservation Area","elev_ft":404}},{"type":"Feature","geometry":{"type":"Point","coordinates":[-71.539608,41.898849]},"properties":{"kind":"trailhead","src":"osm","osm":"node/12994734667","fee":"no","access":"yes","elev_ft":253}},{"type":"Feature","geometry":{"type":"Point","coordinates":[-71.540759,41.899608]},"properties":{"kind":"trailhead","src":"osm","osm":"node/12994734668","fee":"no","access":"yes","elev_ft":246}},{"type":"Feature","geometry":{"type":"Point","coordinates":[-71.535518,41.886049]},"properties":{"kind":"trailhead","src":"osm","osm":"node/12994734670","fee":"no","access":"yes","elev_ft":266}},{"type":"Feature","geometry":{"type":"Point","coordinates":[-71.485939,41.775655]},"properties":{"kind":"trailhead","src":"osm","osm":"node/13002317087","name":"Western Hills Trail","fee":"no","elev_ft":243}},{"type":"Feature","geometry":{"type":"Point","coordinates":[-71.479991,41.775503]},"properties":{"kind":"trailhead","src":"osm","osm":"node/13004505957","name":"Western Hills Trail","fee":"no","elev_ft":95}},{"type":"Feature","geometry":{"type":"Point","coordinates":[-71.553293,41.756518]},"properties":{"kind":"trailhead","src":"osm","osm":"node/13087717330","elev_ft":361}},{"type":"Feature","geometry":{"type":"Point","coordinates":[-71.567815,41.741996]},"properties":{"kind":"trailhead","src":"osm","osm":"node/13148321040","name":"Trott-Perry Preserve","elev_ft":328}},{"type":"Feature","geometry":{"type":"Point","coordinates":[-71.729765,41.840165]},"properties":{"kind":"trailhead","src":"osm","osm":"node/13952628298","elev_ft":574}},{"type":"Feature","geometry":{"type":"Point","coordinates":[-71.777306,41.447777]},"properties":{"kind":"campsite","src":"overture:meta","name":"Frontier Camper Park LLC","website":"http://www.rvparkreviews.com/.../rhode-island/ashaway/frontier-camper-park","addr":"180 Maxson Hill Rd, Ashaway","elev_ft":249}},{"type":"Feature","geometry":{"type":"Point","coordinates":[-71.698807,41.711536]},"properties":{"kind":"campsite","src":"overture:meta","name":"Hickory Ridge Family Campground","website":"http://www.hickoryridgecamp.com","addr":"584 Victory Hwy, Coventry","elev_ft":558}},{"type":"Feature","geometry":{"type":"Point","coordinates":[-71.622414,41.557049]},"properties":{"kind":"campsite","src":"overture:meta","name":"Wawaloam Campground","website":"http://www.wawaloam.com/","addr":"510 Gardiner Rd, West Kingston","elev_ft":390}},{"type":"Feature","geometry":{"type":"Point","coordinates":[-71.754936,41.871346]},"properties":{"kind":"campsite","src":"overture:meta","name":"Oakleaf Family Campground","website":"http://oakleafcampground.com/","addr":"43 Oak Leaf Way, Chepachet","elev_ft":814}},{"type":"Feature","geometry":{"type":"Point","coordinates":[-71.701324,41.361748]},"properties":{"kind":"campsite","src":"overture:meta","name":"Burlingame State Campground","website":"http://www.riparks.com/burlgmcamp.htm","addr":"1 Burlingame State Park Rd, Charlestown","elev_ft":128}},{"type":"Feature","geometry":{"type":"Point","coordinates":[-71.596191,41.433483]},"properties":{"kind":"campsite","src":"overture:meta","name":"Camp JORI","website":"http://www.campjori.com/","addr":"1065 Wordens Pond Rd, Wakefield","elev_ft":190}},{"type":"Feature","geometry":{"type":"Point","coordinates":[-71.399338,41.489033]},"properties":{"kind":"campsite","src":"overture:meta","name":"Fort Getty Campground","website":"http://www.jamestownri.net/parks/ftgetty.html","addr":"Fort Getty Rd, Jamestown","elev_ft":10}},{"type":"Feature","geometry":{"type":"Point","coordinates":[-71.795944,41.965797]},"properties":{"kind":"campsite","src":"overture:meta","name":"Buck Hill Scout Reservation","addr":"464 Wakefield Rd, Pascoag","elev_ft":659}},{"type":"Feature","geometry":{"type":"Point","coordinates":[-71.564064,41.438698]},"properties":{"kind":"campsite","src":"overture:meta","name":"Aquapaug Scout Reservation","website":"http://www.narragansettbsa.org","addr":"2850 Ministerial Rd, West Kingston","elev_ft":118}},{"type":"Feature","geometry":{"type":"Point","coordinates":[-71.633461,41.703941]},"properties":{"kind":"campsite","src":"overture:meta","name":"Colwell's Campground","website":"https://www.campendium.com/colwells-campground","addr":"119 Peckham Ln, Coventry","elev_ft":335}},{"type":"Feature","geometry":{"type":"Point","coordinates":[-71.741776,41.529301]},"properties":{"kind":"campsite","src":"overture:Foursquare","name":"Whispering Pines Campground","website":"http://www.camprhody.com","addr":"41 Sawmill Rd, Hope Valley","elev_ft":197}},{"type":"Feature","geometry":{"type":"Point","coordinates":[-71.750412,41.411674]},"properties":{"kind":"campsite","src":"overture:meta","name":"White Caps at Ashaway Pines","addr":"235 Ashaway Rd, Bradford","elev_ft":79}},{"type":"Feature","geometry":{"type":"Point","coordinates":[-71.253914,41.589851]},"properties":{"kind":"campsite","src":"overture:meta","name":"Melville Ponds Campground","website":"http://www.portsmouthri.com/175/Melville-Ponds-Campground","addr":"2200 E Main Rd, Portsmouth","elev_ft":240}},{"type":"Feature","geometry":{"type":"Point","coordinates":[-71.758499,41.917213]},"properties":{"kind":"rv_park","src":"overture:meta","name":"George Washington Memorial Camping Area","website":"http://www.riparks.com/georgewashcamp.htm","addr":"2185 Putnam Pike, Chepachet","elev_ft":646}},{"type":"Feature","geometry":{"type":"Point","coordinates":[-71.766518,41.370461]},"properties":{"kind":"campsite","src":"overture:meta","name":"Timber Creek RV Resort","website":"https://thousandtrails.com/rhode-island/timber-creek-rv-resort/?utm_source=yext&utm_medium=directory&utm_campaign=Yext+Directory+Listing","addr":"118 Dunns Corner Rd, Westerly","elev_ft":56}},{"type":"Feature","geometry":{"type":"Point","coordinates":[-71.767868,41.416729]},"properties":{"kind":"campsite","src":"overture:meta","name":"Holly Tree Camper Park","website":"http://www.hollytreecampground.com/","addr":"109 Ashaway Rd, Hopkinton","elev_ft":89}},{"type":"Feature","geometry":{"type":"Point","coordinates":[-71.745293,41.52]},"properties":{"kind":"campsite","src":"overture:meta","name":"Greenwood Hill Campground Associates","website":"https://www.mapquest.com/.../greenwood-hill-campground-assc-273975451","addr":"13 Newberry Ln, Hope Valley","elev_ft":240}},{"type":"Feature","geometry":{"type":"Point","coordinates":[-71.736755,41.528389]},"properties":{"kind":"campsite","src":"overture:meta","name":"Whispering Pines Campground","website":"http://www.whisperingpinescamping.com/","addr":"41 Sawmill Rd, Hope Valley","elev_ft":167}},{"type":"Feature","geometry":{"type":"Point","coordinates":[-71.574295,41.427792]},"properties":{"kind":"campsite","src":"overture:meta","name":"Worden Pond Family Campground","website":"http://www.wordenpondfamilycampground.com/","addr":"416 Wordens Pond Rd, Wakefield","elev_ft":115}},{"type":"Feature","geometry":{"type":"Point","coordinates":[-71.553947,41.470997]},"properties":{"kind":"campsite","src":"overture:meta","name":"Kingston's Camp","website":"http://www.kingstonscamp.com/","addr":"2795 Ministerial Rd, South Kingstown","elev_ft":128}},{"type":"Feature","geometry":{"type":"Point","coordinates":[-71.76223,41.598251]},"properties":{"kind":"campsite","src":"overture:meta","name":"Oak Embers Campground","website":"http://oakembers.net/","addr":"219 Escoheag Hill Rd, West Greenwich","elev_ft":509}},{"type":"Feature","geometry":{"type":"Point","coordinates":[-71.522026,41.544834]},"properties":{"kind":"campsite","src":"overture:meta","name":"Canonicus Camp & Conference Center","website":"http://www.canonicus.org/","addr":"54 Exeter Rd, Exeter","elev_ft":180}},{"type":"Feature","geometry":{"type":"Point","coordinates":[-71.486382,41.418819]},"properties":{"kind":"campsite","src":"overture:meta","name":"Long Cove Marina and Campground","website":"http://visitrhodeisland.com","addr":"325 Point Judith Rd, Narragansett","elev_ft":75}},{"type":"Feature","geometry":{"type":"Point","coordinates":[-71.421761,41.686577]},"properties":{"kind":"campsite","src":"overture:meta","name":"Buttonwoods Campground","website":"www.warwickhistory.com/...id=244:buttonwoods-5-the-campground...","addr":"28 Budlong Farm Rd, Warwick","elev_ft":39}},{"type":"Feature","geometry":{"type":"Point","coordinates":[-71.315262,41.463814]},"properties":{"kind":"campsite","src":"overture:meta","name":"Camp Rocky Farm","addr":"160 Carroll Ave, Newport","elev_ft":36}},{"type":"Feature","geometry":{"type":"Point","coordinates":[-71.275154,41.585369]},"properties":{"kind":"rv_park","src":"overture:meta","name":"Newport RV Park","website":"http://www.newportrvpark.com/","addr":"181 Bradford Ave, Portsmouth","elev_ft":135}},{"type":"Feature","geometry":{"type":"Point","coordinates":[-71.255859,41.591118]},"properties":{"kind":"campsite","src":"overture:meta","name":"Portsmouth Camp Meeting","website":"http://www.portsmouthcamp.org/","addr":"69 Hedley St, Portsmouth","elev_ft":213}},{"type":"Feature","geometry":{"type":"Point","coordinates":[-71.272713,41.500652]},"properties":{"kind":"rv_park","src":"overture:meta","name":"Meadowlark Mobile Home & RV Park","website":"https://www.meadowlarkrv.com/","addr":"132 Prospect Ave, Middletown","elev_ft":118}},{"type":"Feature","geometry":{"type":"Point","coordinates":[-71.485931,41.779949]},"properties":{"kind":"campsite","src":"overture:meta","name":"Camp Champlin","website":"http://www.narragansettbsa.org/camping-program/weekend-camping/properties/champlin-scout-reservation/39499","addr":"223 Scituate Ave, Cranston","elev_ft":190}},{"type":"Feature","geometry":{"type":"Point","coordinates":[-71.410736,41.747948]},"properties":{"kind":"campsite","src":"overture:meta","name":"Camp Hampson","addr":"144 Everleth Ave, Warwick","elev_ft":66}},{"type":"Feature","geometry":{"type":"Point","coordinates":[-71.388184,41.829025]},"properties":{"kind":"campsite","src":"overture:Microsoft","name":"Steve & Kate's Camp - Providence","website":"https://steveandkatescamp.com/providence","addr":"179 Wayland Ave, Providence","elev_ft":98}},{"type":"Feature","geometry":{"type":"Point","coordinates":[-71.779655,41.92696]},"properties":{"kind":"campsite","src":"overture:meta","name":"Bowdish Lake Camping Area","website":"http://www.bowdishlake.com","addr":"40 Safari Rd, Chepachet","elev_ft":587}},{"type":"Feature","geometry":{"type":"Point","coordinates":[-71.705673,41.918003]},"properties":{"kind":"campsite","src":"overture:meta","name":"Mother of Hope Camp","website":"http://www.motherofhopecamp.com/","addr":"1589 Putnam Pike, Chepachet","elev_ft":541}},{"type":"Feature","geometry":{"type":"Point","coordinates":[-71.683937,41.866871]},"properties":{"kind":"campsite","src":"overture:meta","name":"Camp Ponagansett","website":"https://www.visitrhodeisland.com","addr":"100 Rustic Hill Rd, Glocester","elev_ft":584}},{"type":"Feature","geometry":{"type":"Point","coordinates":[-71.662567,41.877438]},"properties":{"kind":"campsite","src":"overture:meta","name":"Camp Celiac","website":"http://campceliac.org/","addr":"1043 Snake Hill Rd, Glocester","elev_ft":577}},{"type":"Feature","geometry":{"type":"Point","coordinates":[-71.616158,41.927814]},"properties":{"kind":"campsite","src":"overture:Foursquare","name":"Camp Cookie","website":"http://www.gssne.org","addr":"116 Long Entry Rd, Chepachet","elev_ft":436}},{"type":"Feature","geometry":{"type":"Point","coordinates":[-71.394173,42.006073]},"properties":{"kind":"campsite","src":"overture:meta","name":"Camp Ker-Anna","addr":"500 Reservoir Rd, Cumberland","elev_ft":259}},{"type":"Feature","geometry":{"type":"Point","coordinates":[-71.760155,41.91967]},"properties":{"kind":"campsite","src":"overture:Foursquare","name":"George Washington Campground","website":"http://www.riparks.com/Locations/LocationGeorgeWashington.html","addr":"Putnam Pike, Glocester","elev_ft":643}},{"type":"Feature","geometry":{"type":"Point","coordinates":[-71.773811,41.376602]},"properties":{"kind":"campsite","src":"overture:meta","name":"Timber Creek RV Resort","website":"https://www.rvonthego.com/rhode-island/timber-creek-rv-resort/","addr":"118 Dunns Corner Rd, Westerly","elev_ft":66}},{"type":"Feature","geometry":{"type":"Point","coordinates":[-71.63723,41.357033]},"properties":{"kind":"campsite","src":"overture:meta","name":"Charlestown Breachway State Park Campground","addr":"900 Charlestown Beach Rd, Charlestown","elev_ft":3}},{"type":"Feature","geometry":{"type":"Point","coordinates":[-71.317162,41.492329]},"properties":{"kind":"rv_park","src":"overture:meta","name":"The Captain's Quarters","website":"https://www.captainsquarters.com/contact/","addr":"31 Bridge St, Newport","elev_ft":30}},{"type":"Feature","geometry":{"type":"Point","coordinates":[-71.484245,41.451252]},"properties":{"kind":"campsite","src":"overture:meta","name":"Camp Broad Rock at South County YMCA","website":"http://www.ymcagreaterprovidence.org/Branches/SouthCounty/CampBroadRock/tabid/281/Default.aspx","addr":"165 Broad Rock Rd, Wakefield","elev_ft":102}},{"type":"Feature","geometry":{"type":"Point","coordinates":[-71.597481,41.699306]},"properties":{"kind":"campsite","src":"overture:meta","name":"Camp Ayoho","addr":"McManus Road, Coventry","elev_ft":279}},{"type":"Feature","geometry":{"type":"Point","coordinates":[-71.493904,41.379925]},"properties":{"kind":"campsite","src":"overture:meta","name":"Fisherman's Memorial Park Campgrounds","website":"http://riparks.com/Locations/LocationFishermens.html","elev_ft":52}},{"type":"Feature","geometry":{"type":"Point","coordinates":[-71.748909,41.767006]},"properties":{"kind":"campsite","src":"overture:Foursquare","name":"Dryerwoods Nudest Campground","website":"http://www.dyerwoodscamp.com","addr":"114 Johnson Rd, Foster, RI 02825, Foster","elev_ft":597}},{"type":"Feature","geometry":{"type":"Point","coordinates":[-71.754532,41.755512]},"properties":{"kind":"campsite","src":"overture:Foursquare","name":"Ginny-B Campground","website":"http://ginny-bcampground.com","addr":"7 Johnson rd, Foster","elev_ft":509}},{"type":"Feature","geometry":{"type":"Point","coordinates":[-71.519958,41.544369]},"properties":{"kind":"campsite","src":"overture:Foursquare","name":"Canonicus Camp and Conference Center","website":"http://www.canonicus.org","addr":"54 Exeter Rd, Exeter","elev_ft":197}},{"type":"Feature","geometry":{"type":"Point","coordinates":[-71.435211,41.445942]},"properties":{"kind":"campsite","src":"overture:Foursquare","name":"Camp Varnum","website":"http://states.ng.mil/sites/RI/army/243rti/default.aspx","addr":"100 Cormorant Point Road, Narragansett","elev_ft":23}},{"type":"Feature","geometry":{"type":"Point","coordinates":[-71.690079,41.372452]},"properties":{"kind":"campsite","src":"overture:meta","name":"Burlingame State Campground","website":"http://www.bound4burlingame.com","elev_ft":95}},{"type":"Feature","geometry":{"type":"Point","coordinates":[-71.583824,41.882774]},"properties":{"kind":"campsite","src":"overture:meta","name":"Camp Russell RI","website":"http://camprussellri.wix.com/camp-russell-ri","elev_ft":348}},{"type":"Feature","geometry":{"type":"Point","coordinates":[-71.481522,42.00449]},"properties":{"kind":"campsite","src":"overture:meta","name":"Hunting Island State Park Campground","website":"http://www.huntingisland.com/","addr":"972 Cass Ave, Woonsocket","elev_ft":210}},{"type":"Feature","geometry":{"type":"Point","coordinates":[-71.779503,41.975269]},"properties":{"kind":"campsite","src":"overture:meta","name":"Cub World","website":"http://www.cubworld.org","addr":"704 Buck Hill Rd, Pascoag","elev_ft":722}},{"type":"Feature","geometry":{"type":"Point","coordinates":[-71.775787,41.519051]},"properties":{"kind":"rv_park","src":"overture:meta","name":"Yawgoog Scout Reservation","website":"http://www.yawgoog.org","addr":"61 Camp Yawgoog Rd, Rockville","elev_ft":387}},{"type":"Feature","geometry":{"type":"Point","coordinates":[-71.556816,41.470646]},"properties":{"kind":"campsite","src":"overture:meta","name":"Larkin Pond","website":"www.kingstonscamp.com","elev_ft":141}},{"type":"Feature","geometry":{"type":"Point","coordinates":[-71.628883,41.882206]},"properties":{"kind":"campsite","src":"overture:meta","name":"Holiday Acres","elev_ft":413}},{"type":"Feature","geometry":{"type":"Point","coordinates":[-71.248711,41.681896]},"properties":{"kind":"campsite","src":"overture:meta","name":"Hopeworth Beachfront","elev_ft":66}},{"type":"Feature","geometry":{"type":"Point","coordinates":[-71.187309,41.618225]},"properties":{"kind":"rv_park","src":"overture:meta","name":"Dadson States","addr":"301 Bulgarmarsh Rd, Tiverton","elev_ft":167}},{"type":"Feature","geometry":{"type":"Point","coordinates":[-71.621056,41.878513]},"properties":{"kind":"campsite","src":"overture:meta","name":"Holiday Acres Camp Grounds","website":"https://holidayacrescampground.com/","addr":"593 Snake Hill Rd, Glocester","elev_ft":410}},{"type":"Feature","geometry":{"type":"Point","coordinates":[-71.566826,41.895374]},"properties":{"kind":"campsite","src":"overture:meta","name":"Camp Shepard","website":"http://ymcagreaterprovidence.org","addr":"69 Colwell Rd, Greenville","elev_ft":387}},{"type":"Feature","geometry":{"type":"Point","coordinates":[-71.691811,41.37561]},"properties":{"kind":"campsite","src":"overture:meta","name":"Camping","elev_ft":118}},{"type":"Feature","geometry":{"type":"Point","coordinates":[-71.268303,41.588699]},"properties":{"kind":"campsite","src":"overture:meta","name":"Twin Lanterns","addr":"1172 W Main Rd, Portsmouth","elev_ft":190}}]}