{"type":"FeatureCollection","attribution":"OSM (ODbL) via Overpass; Overture Maps Foundation (CDLA-P-2.0/Apache-2.0/CC0); Recreation.gov RIDB (CC-BY 4.0). See data/ATTRIBUTION.md. Generated 2026-07-23.","features":[{"type":"Feature","geometry":{"type":"Point","coordinates":[-72.105632,41.820098]},"properties":{"kind":"campsite","src":"osm","osm":"node/359278503","name":"Nickerson Park","elev_ft":390}},{"type":"Feature","geometry":{"type":"Point","coordinates":[-73.385249,41.337741]},"properties":{"kind":"campsite","src":"osm","osm":"node/2369594493","name":"Youth Camp I","elev_ft":751}},{"type":"Feature","geometry":{"type":"Point","coordinates":[-73.384601,41.335835]},"properties":{"kind":"campsite","src":"osm","osm":"node/2369594502","name":"Youth Camp II","elev_ft":758}},{"type":"Feature","geometry":{"type":"Point","coordinates":[-73.383196,41.336286]},"properties":{"kind":"campsite","src":"osm","osm":"node/2369594509","name":"Youth Camp III","elev_ft":758}},{"type":"Feature","geometry":{"type":"Point","coordinates":[-73.262987,41.715271]},"properties":{"kind":"campsite","src":"osm","osm":"node/3545198705","name":"Cozy Hill Campground","elev_ft":873}},{"type":"Feature","geometry":{"type":"Point","coordinates":[-73.10037,41.653849]},"properties":{"kind":"campsite","src":"osm","osm":"node/3645292999","elev_ft":489}},{"type":"Feature","geometry":{"type":"Point","coordinates":[-72.952136,41.725678]},"properties":{"kind":"campsite","src":"osm","osm":"node/3756079280","elev_ft":561}},{"type":"Feature","geometry":{"type":"Point","coordinates":[-72.652081,41.480855]},"properties":{"kind":"campsite","src":"osm","osm":"node/4046028289","name":"Camp Farnam","elev_ft":453}},{"type":"Feature","geometry":{"type":"Point","coordinates":[-73.325185,41.61386]},"properties":{"kind":"campsite","src":"osm","osm":"node/4128171745","name":"SR1","elev_ft":479}},{"type":"Feature","geometry":{"type":"Point","coordinates":[-73.327528,41.61332]},"properties":{"kind":"campsite","src":"osm","osm":"node/4128171746","name":"SR2","elev_ft":453}},{"type":"Feature","geometry":{"type":"Point","coordinates":[-72.333367,41.477967]},"properties":{"kind":"campsite","src":"osm","osm":"node/4128278395","name":"Youth Site 1","elev_ft":482}},{"type":"Feature","geometry":{"type":"Point","coordinates":[-73.334967,41.604994]},"properties":{"kind":"campsite","src":"osm","osm":"node/4137480108","name":"SR3","elev_ft":469}},{"type":"Feature","geometry":{"type":"Point","coordinates":[-73.33731,41.609371]},"properties":{"kind":"campsite","src":"osm","osm":"node/4137480109","name":"SR4","elev_ft":466}},{"type":"Feature","geometry":{"type":"Point","coordinates":[-72.59508,41.343491]},"properties":{"kind":"campsite","src":"osm","osm":"node/4169935879","name":"Boy Scout Camp","elev_ft":210}},{"type":"Feature","geometry":{"type":"Point","coordinates":[-72.930251,41.954397]},"properties":{"kind":"campsite","src":"osm","osm":"node/4224657735","name":"Roaring Brook Camp Area","elev_ft":1073}},{"type":"Feature","geometry":{"type":"Point","coordinates":[-72.963283,41.84531]},"properties":{"kind":"campsite","src":"osm","osm":"node/4353950901","name":"DEEP campsite","elev_ft":784}},{"type":"Feature","geometry":{"type":"Point","coordinates":[-72.940043,41.458146]},"properties":{"kind":"campsite","src":"osm","osm":"node/4411463105","elev_ft":364}},{"type":"Feature","geometry":{"type":"Point","coordinates":[-73.491154,41.781483]},"properties":{"kind":"campsite","src":"osm","osm":"node/4426316891","elev_ft":892}},{"type":"Feature","geometry":{"type":"Point","coordinates":[-71.845156,41.424957]},"properties":{"kind":"campsite","src":"osm","osm":"node/4968149921","name":"Mystic KOA Holiday","elev_ft":171}},{"type":"Feature","geometry":{"type":"Point","coordinates":[-72.574461,41.788127]},"properties":{"kind":"campsite","src":"osm","osm":"node/5153893164","name":"Beech Grove 5","elev_ft":180}},{"type":"Feature","geometry":{"type":"Point","coordinates":[-71.865726,41.605831]},"properties":{"kind":"campsite","src":"osm","osm":"node/5316305634","name":"Frog Hollow Horse Camp","elev_ft":305}},{"type":"Feature","geometry":{"type":"Point","coordinates":[-73.389614,41.8154]},"properties":{"kind":"campsite","src":"osm","osm":"node/5693935052","name":"Silver Hill Campsite","fee":"no","elev_ft":889}},{"type":"Feature","geometry":{"type":"Point","coordinates":[-72.738981,41.973126]},"properties":{"kind":"campsite","src":"osm","osm":"node/5757179152","name":"Primitve Camping Area","website":"https://newenglandtrail.org/overnight-sites/windsor-locks-scouts-primitive-tentsite/","elev_ft":673}},{"type":"Feature","geometry":{"type":"Point","coordinates":[-73.26381,42.005651]},"properties":{"kind":"water","src":"osm","osm":"node/5760822890","elev_ft":807}},{"type":"Feature","geometry":{"type":"Point","coordinates":[-73.394515,41.910521]},"properties":{"kind":"campsite","src":"osm","osm":"node/5873318066","name":"Sharon Mountain Campsite","elev_ft":1060}},{"type":"Feature","geometry":{"type":"Point","coordinates":[-72.333227,41.477097]},"properties":{"kind":"campsite","src":"osm","osm":"node/6022140078","name":"Youth Site 2","elev_ft":489}},{"type":"Feature","geometry":{"type":"Point","coordinates":[-72.443826,41.439554]},"properties":{"kind":"campsite","src":"osm","osm":"node/6133822952","elev_ft":66}},{"type":"Feature","geometry":{"type":"Point","coordinates":[-73.452575,42.020255]},"properties":{"kind":"campsite","src":"osm","osm":"node/6842491961","name":"Ball Brook Group Camping Area","elev_ft":1667}},{"type":"Feature","geometry":{"type":"Point","coordinates":[-73.452372,42.015486]},"properties":{"kind":"campsite","src":"osm","osm":"node/7573515526","elev_ft":1660}},{"type":"Feature","geometry":{"type":"Point","coordinates":[-73.038131,41.939709]},"properties":{"kind":"campsite","src":"osm","osm":"node/7840493773","name":"White Pines Campsites","website":"https://www.whitepinescampsites.com/","elev_ft":932}},{"type":"Feature","geometry":{"type":"Point","coordinates":[-72.992982,41.931172]},"properties":{"kind":"campsite","src":"osm","osm":"node/7940315111","name":"James Stocking Youth Group Camping Area","elev_ft":801}},{"type":"Feature","geometry":{"type":"Point","coordinates":[-73.01022,41.93998]},"properties":{"kind":"campsite","src":"osm","osm":"node/8603057987","name":"Camp White Youth Group Camping Area","elev_ft":522}},{"type":"Feature","geometry":{"type":"Point","coordinates":[-72.741515,41.555927]},"properties":{"kind":"dump","src":"osm","osm":"node/8744193383","elev_ft":443}},{"type":"Feature","geometry":{"type":"Point","coordinates":[-72.780319,41.459822]},"properties":{"kind":"dump","src":"osm","osm":"node/8744223257","elev_ft":312}},{"type":"Feature","geometry":{"type":"Point","coordinates":[-73.379665,41.838204]},"properties":{"kind":"campsite","src":"osm","osm":"node/8952995994","name":"Housatonic Meadows State Park Campground","elev_ft":522}},{"type":"Feature","geometry":{"type":"Point","coordinates":[-72.113479,42.018358]},"properties":{"kind":"campsite","src":"osm","osm":"node/9012092507","elev_ft":741}},{"type":"Feature","geometry":{"type":"Point","coordinates":[-72.202028,41.866556]},"properties":{"kind":"campsite","src":"osm","osm":"node/9012794965","elev_ft":522}},{"type":"Feature","geometry":{"type":"Point","coordinates":[-72.163111,41.913022]},"properties":{"kind":"campsite","src":"osm","osm":"node/9012795053","elev_ft":591}},{"type":"Feature","geometry":{"type":"Point","coordinates":[-72.079932,41.827467]},"properties":{"kind":"campsite","src":"osm","osm":"node/9012892682","name":"Silvermine Horse Camp","fee":"no","drinking_water":"yes","toilets":"yes","elev_ft":745}},{"type":"Feature","geometry":{"type":"Point","coordinates":[-72.084044,41.774793]},"properties":{"kind":"campsite","src":"osm","osm":"node/9015274714","name":"Youth Group Camping Area","elev_ft":646}},{"type":"Feature","geometry":{"type":"Point","coordinates":[-73.505713,41.699374]},"properties":{"kind":"campsite","src":"osm","osm":"node/9133609404","name":"4","elev_ft":1079}},{"type":"Feature","geometry":{"type":"Point","coordinates":[-73.505773,41.699644]},"properties":{"kind":"campsite","src":"osm","osm":"node/9133609405","name":"3","elev_ft":1083}},{"type":"Feature","geometry":{"type":"Point","coordinates":[-73.505837,41.699807]},"properties":{"kind":"campsite","src":"osm","osm":"node/9133657223","name":"2","elev_ft":1083}},{"type":"Feature","geometry":{"type":"Point","coordinates":[-73.5058,41.700041]},"properties":{"kind":"campsite","src":"osm","osm":"node/9133657228","name":"1","elev_ft":1083}},{"type":"Feature","geometry":{"type":"Point","coordinates":[-73.363437,41.926816]},"properties":{"kind":"campsite","src":"osm","osm":"node/9342250905","name":"Belter's Campsites","fee":"no","elev_ft":751}},{"type":"Feature","geometry":{"type":"Point","coordinates":[-72.437344,41.792889]},"properties":{"kind":"rv_park","src":"osm","osm":"node/9567624721","elev_ft":676}},{"type":"Feature","geometry":{"type":"Point","coordinates":[-73.452863,41.49889]},"properties":{"kind":"water","src":"osm","osm":"node/11010293618","name":"Leah Island","elev_ft":413}},{"type":"Feature","geometry":{"type":"Point","coordinates":[-72.418274,41.408592]},"properties":{"kind":"campsite","src":"osm","osm":"node/11206775000","name":"Cedars Camp Area","elev_ft":13}},{"type":"Feature","geometry":{"type":"Point","coordinates":[-72.415532,41.394183]},"properties":{"kind":"campsite","src":"osm","osm":"node/11206844706","name":"Quarry Knob Camp Area","elev_ft":20}},{"type":"Feature","geometry":{"type":"Point","coordinates":[-72.41949,41.39956]},"properties":{"kind":"campsite","src":"osm","osm":"node/11206844731","name":"Springledge Camp Area","elev_ft":26}},{"type":"Feature","geometry":{"type":"Point","coordinates":[-72.420362,41.404296]},"properties":{"kind":"campsite","src":"osm","osm":"node/11206844732","name":"Hogback Camp Area","elev_ft":52}},{"type":"Feature","geometry":{"type":"Point","coordinates":[-73.347944,41.920528]},"properties":{"kind":"campsite","src":"osm","osm":"node/12245133039","name":"Dean's Ravine Campsite","elev_ft":751}},{"type":"Feature","geometry":{"type":"Point","coordinates":[-72.158618,41.557099]},"properties":{"kind":"campsite","src":"osm","osm":"node/12791039600","name":"Odetah Camping Resort","elev_ft":226}},{"type":"Feature","geometry":{"type":"Point","coordinates":[-72.672824,41.420257]},"properties":{"kind":"campsite","src":"osm","osm":"node/12832808937","name":"Group Campsite","elev_ft":568}},{"type":"Feature","geometry":{"type":"Point","coordinates":[-72.673504,41.420518]},"properties":{"kind":"campsite","src":"osm","osm":"node/12832808938","name":"Group Campsite","elev_ft":541}},{"type":"Feature","geometry":{"type":"Point","coordinates":[-73.333502,41.213447]},"properties":{"kind":"campsite","src":"osm","osm":"way/43398010","name":"Girl Scout Camp","elev_ft":262}},{"type":"Feature","geometry":{"type":"Point","coordinates":[-72.898965,41.989442]},"properties":{"kind":"campsite","src":"osm","osm":"way/43435806","name":"Camp Alice Merritt","operator":"Town of Hartland","desc":"Private, Members Or Owners Only","elev_ft":1135}},{"type":"Feature","geometry":{"type":"Point","coordinates":[-72.403696,41.910293]},"properties":{"kind":"campsite","src":"osm","osm":"way/43435969","name":"Del-Aire Compground","operator":"B & B Property LLC","desc":"Private, Open To Public With Fee","elev_ft":554}},{"type":"Feature","geometry":{"type":"Point","coordinates":[-73.267315,41.318262]},"properties":{"kind":"campsite","src":"osm","osm":"way/43436059","name":"Lakewood Ymca (Camp Tepee)","desc":"Private, Members Or Owners Only","elev_ft":407}},{"type":"Feature","geometry":{"type":"Point","coordinates":[-72.879296,41.997826]},"properties":{"kind":"campsite","src":"osm","osm":"way/43436243","name":"Camp Mary Dean Vreeland (Girl Scouts)","operator":"Connecticut Valley Girl Scouts","desc":"Private, Members Or Owners Only","elev_ft":958}},{"type":"Feature","geometry":{"type":"Point","coordinates":[-73.466057,41.513347]},"properties":{"kind":"campsite","src":"osm","osm":"way/43436497","name":"Southwestern Ct. Girl Scouts Council-Camp Topside","desc":"Private, Members Or Owners Only","elev_ft":650}},{"type":"Feature","geometry":{"type":"Point","coordinates":[-73.503043,41.792916]},"properties":{"kind":"campsite","src":"osm","osm":"way/43436682","name":"Laurel Trails Council Girl Scouts (Camp Seeley)","desc":"Private, Members Or Owners Only","elev_ft":942}},{"type":"Feature","geometry":{"type":"Point","coordinates":[-72.827141,41.328015]},"properties":{"kind":"campsite","src":"osm","osm":"way/43437899","name":"Girl Scout Camp","desc":"Private, Members Or Owners Only","elev_ft":167}},{"type":"Feature","geometry":{"type":"Point","coordinates":[-72.151442,42.01444]},"properties":{"kind":"campsite","src":"osm","osm":"way/43438499","name":"Camp Pomeraug","operator":"Boy Scouts Of America","desc":"Private, Members Or Owners Only","elev_ft":843}},{"type":"Feature","geometry":{"type":"Point","coordinates":[-72.592217,41.345015]},"properties":{"kind":"campsite","src":"osm","osm":"way/43438745","name":"Deer Lake Camp","operator":"Connecticut Yankee Council","website":"https://www.deerlakecamp.org/dcadl.php","desc":"Private, Members Or Owners Only","elev_ft":194}},{"type":"Feature","geometry":{"type":"Point","coordinates":[-72.289047,42.004231]},"properties":{"kind":"campsite","src":"osm","osm":"way/43438750","name":"Mineral Springs Campground","operator":"Mineral Springs Family Campground Inc.","desc":"Private, Open To Public With Fee","elev_ft":804}},{"type":"Feature","geometry":{"type":"Point","coordinates":[-72.428274,41.779244]},"properties":{"kind":"campsite","src":"osm","osm":"way/43438968","name":"John and Frederica Johnson Memorial Camp","operator":"Boy Scouts","website":"http://www.campjohnson.org","desc":"Private, cub scout and boy scout campground. Offers summer camp sessions and overnight camping with group approval.","elev_ft":577}},{"type":"Feature","geometry":{"type":"Point","coordinates":[-73.041922,41.627859]},"properties":{"kind":"campsite","src":"osm","osm":"way/43438991","name":"Camp Mattatuck","operator":"Boy Scouts","desc":"Private, Members Or Owners Only","elev_ft":791}},{"type":"Feature","geometry":{"type":"Point","coordinates":[-72.526857,41.469025]},"properties":{"kind":"campsite","src":"osm","osm":"way/43439223","name":"Boy Scouts of America Troop 44","operator":"Boy Scouts of America","desc":"Private, Members Or Owners Only","elev_ft":230}},{"type":"Feature","geometry":{"type":"Point","coordinates":[-73.180748,41.842024]},"properties":{"kind":"campsite","src":"osm","osm":"way/43439597","name":"Nw Ctgirl Scout Council (Camp Maria Pratt)","desc":"Private, Members Or Owners Only","elev_ft":1175}},{"type":"Feature","geometry":{"type":"Point","coordinates":[-72.568113,41.579629]},"properties":{"kind":"campsite","src":"osm","osm":"way/43439614","name":"Shepherd's Nine","operator":"Noyes School of Rhythm","website":"https://www.noyesrhythm.org","desc":"Private, Members Or Owners Only; General Recreation","elev_ft":354}},{"type":"Feature","geometry":{"type":"Point","coordinates":[-73.460714,41.943016]},"properties":{"kind":"campsite","src":"osm","osm":"way/43439641","name":"Ymca Camp Slone (Indian Mountain Road)","desc":"Private, Members Or Owners Only","elev_ft":1004}},{"type":"Feature","geometry":{"type":"Point","coordinates":[-72.241171,41.967162]},"properties":{"kind":"campsite","src":"osm","osm":"way/43439824","name":"Roaring Brook Campground","operator":"Roaring Brook Campground Association Inc.","desc":"Private, Open To Public With Fee","elev_ft":820}},{"type":"Feature","geometry":{"type":"Point","coordinates":[-72.367573,41.985655]},"properties":{"kind":"campsite","src":"osm","osm":"way/43440098","name":"Stafford Wood West Campground","operator":"Sun Valley Camping Cooperative","desc":"Private, Open To Public With Fee","elev_ft":682}},{"type":"Feature","geometry":{"type":"Point","coordinates":[-73.175728,42.006389]},"properties":{"kind":"campsite","src":"osm","osm":"way/43440247","name":"Long Rivers Council (Boy Scouts Of America)","desc":"Private, Members Or Owners Only","elev_ft":1558}},{"type":"Feature","geometry":{"type":"Point","coordinates":[-71.840023,41.424808]},"properties":{"kind":"campsite","src":"osm","osm":"way/43440566","name":"Mystic KOA Holiday","operator":"Kampgrounds of America, Inc.","desc":"Private, Open To Public With Fee","elev_ft":203}},{"type":"Feature","geometry":{"type":"Point","coordinates":[-73.178727,41.851776]},"properties":{"kind":"campsite","src":"osm","osm":"way/43440632","name":"Nw Ctgirl Scout Council (Camp Maria Pratt)","desc":"Private, Members Or Owners Only","elev_ft":1220}},{"type":"Feature","geometry":{"type":"Point","coordinates":[-72.593037,41.574667]},"properties":{"kind":"campsite","src":"osm","osm":"way/43441037","name":"YMCA Camp Ingersoll","website":"https://www.campingersoll.org/","elev_ft":144}},{"type":"Feature","geometry":{"type":"Point","coordinates":[-72.314689,41.495993]},"properties":{"kind":"rv_park","src":"osm","osm":"way/43441513","name":"Salem Farms Campground","website":"https://www.salemfarmscampground.com","elev_ft":472}},{"type":"Feature","geometry":{"type":"Point","coordinates":[-72.2973,41.495962]},"properties":{"kind":"campsite","src":"osm","osm":"way/43441524","name":"Witch Meadow Lake Campground","fee":"yes","website":"http://www.witchmeadowcampground.com/","drinking_water":"yes","toilets":"yes","elev_ft":410}},{"type":"Feature","geometry":{"type":"Point","coordinates":[-72.15232,41.557438]},"properties":{"kind":"campsite","src":"osm","osm":"way/43441634","name":"Odetah Camping Resort","operator":"NGA Capital LLC","website":"https://odetah.com","desc":"Private, Open To Public With Fee","elev_ft":420}},{"type":"Feature","geometry":{"type":"Point","coordinates":[-72.219337,41.527399]},"properties":{"kind":"campsite","src":"osm","osm":"way/43441652","name":"Acorn Acres Campground","website":"https://acornacrescampsites.com","desc":"Private, Open To Public With Fee","elev_ft":427}},{"type":"Feature","geometry":{"type":"Point","coordinates":[-72.236126,41.509251]},"properties":{"kind":"campsite","src":"osm","osm":"way/43441694","name":"Indian Field Campground","desc":"Private, Open To Public With Fee","elev_ft":443}},{"type":"Feature","geometry":{"type":"Point","coordinates":[-72.218342,41.514733]},"properties":{"kind":"campsite","src":"osm","osm":"way/43441722","name":"Laurel Lock Campground","website":"http://www.laurellock.com","desc":"Private, Members Or Owners Only","elev_ft":459}},{"type":"Feature","geometry":{"type":"Point","coordinates":[-72.234629,41.513093]},"properties":{"kind":"campsite","src":"osm","osm":"way/43441727","name":"Arrowhead Cove","desc":"Private, Open To Public With Fee","elev_ft":404}},{"type":"Feature","geometry":{"type":"Point","coordinates":[-71.974516,41.511388]},"properties":{"kind":"rv_park","src":"osm","osm":"way/43442042","name":"Amos Lake Campground","desc":"Private, Open To Public With Fee","elev_ft":154}},{"type":"Feature","geometry":{"type":"Point","coordinates":[-73.163373,41.888252]},"properties":{"kind":"campsite","src":"osm","osm":"way/43442293","name":"Camp Ouleout (Ymca)","desc":"Private, Members Or Owners Only","elev_ft":1119}},{"type":"Feature","geometry":{"type":"Point","coordinates":[-72.363992,41.979579]},"properties":{"kind":"campsite","src":"osm","osm":"way/43442385","name":"Sun Valley Beach Club","operator":"Sun Valley Camping Cooperative","desc":"Private, Open To Public With Fee","elev_ft":574}},{"type":"Feature","geometry":{"type":"Point","coordinates":[-72.836423,41.589774]},"properties":{"kind":"campsite","src":"osm","osm":"way/43442411","name":"YMCA Camp Sloper","operator":"YMCA Camp Sloper","website":"https://www.ymcacampsloper.org","desc":"Private, Members Or Owners Only","elev_ft":269}},{"type":"Feature","geometry":{"type":"Point","coordinates":[-72.354374,41.381678]},"properties":{"kind":"campsite","src":"osm","osm":"way/249095708","name":"Camp Claire","elev_ft":43}},{"type":"Feature","geometry":{"type":"Point","coordinates":[-72.626122,41.354589]},"properties":{"kind":"campsite","src":"osm","osm":"way/255488870","name":"Camp Laurelwood","elev_ft":272}},{"type":"Feature","geometry":{"type":"Point","coordinates":[-73.265288,42.005702]},"properties":{"kind":"campsite","src":"osm","osm":"way/469273274","name":"Lone Oak Campsites","fee":"yes","operator":"Lone Oak Campsites","website":"https://www.loneoakcampsites.com/","elev_ft":804}},{"type":"Feature","geometry":{"type":"Point","coordinates":[-72.240854,41.311115]},"properties":{"kind":"campsite","src":"osm","osm":"way/470090511","elev_ft":30}},{"type":"Feature","geometry":{"type":"Point","coordinates":[-72.359581,41.779318]},"properties":{"kind":"campsite","src":"osm","osm":"way/551335818","name":"Creaser Park","operator":"State of Connecticut","elev_ft":518}},{"type":"Feature","geometry":{"type":"Point","coordinates":[-72.470926,41.454271]},"properties":{"kind":"campsite","src":"osm","osm":"way/665564989","name":"Camp Bethel","elev_ft":115}},{"type":"Feature","geometry":{"type":"Point","coordinates":[-72.251171,41.316666]},"properties":{"kind":"rv_park","src":"osm","osm":"way/744210709","name":"Niantic KOA Journey","elev_ft":115}},{"type":"Feature","geometry":{"type":"Point","coordinates":[-73.125484,41.252371]},"properties":{"kind":"campsite","src":"osm","osm":"way/760859838","name":"Boy Scout camp","elev_ft":207}},{"type":"Feature","geometry":{"type":"Point","coordinates":[-72.912566,41.645309]},"properties":{"kind":"campsite","src":"osm","osm":"way/779415725","name":"Bear Creek Campground","elev_ft":246}},{"type":"Feature","geometry":{"type":"Point","coordinates":[-73.494747,41.775283]},"properties":{"kind":"campsite","src":"osm","osm":"way/782714379","elev_ft":804}},{"type":"Feature","geometry":{"type":"Point","coordinates":[-72.948119,41.452182]},"properties":{"kind":"campsite","src":"osm","osm":"way/795646952","name":"YMCA Camp Mountain Laurel","desc":"Private, Members Or Owners Only","elev_ft":528}},{"type":"Feature","geometry":{"type":"Point","coordinates":[-73.494997,41.776395]},"properties":{"kind":"campsite","src":"osm","osm":"way/808253667","elev_ft":791}},{"type":"Feature","geometry":{"type":"Point","coordinates":[-73.487303,41.783077]},"properties":{"kind":"campsite","src":"osm","osm":"way/808253731","elev_ft":978}},{"type":"Feature","geometry":{"type":"Point","coordinates":[-72.428197,41.450709]},"properties":{"kind":"campsite","src":"osm","osm":"way/869901107","name":"Wolf's Den Family Campground","website":"https://wolfsdencampground.com","elev_ft":348}},{"type":"Feature","geometry":{"type":"Point","coordinates":[-73.28305,41.698734]},"properties":{"kind":"campsite","src":"osm","osm":"way/871515488","name":"Camp Chinqueka","elev_ft":938}},{"type":"Feature","geometry":{"type":"Point","coordinates":[-72.057185,41.971553]},"properties":{"kind":"campsite","src":"osm","osm":"way/879297607","name":"Chamberlain Lake Campground","website":"http://www.chamberlainlakecampground.net","elev_ft":715}},{"type":"Feature","geometry":{"type":"Point","coordinates":[-73.039488,41.634319]},"properties":{"kind":"campsite","src":"osm","osm":"way/882186814","name":"WPW","elev_ft":810}},{"type":"Feature","geometry":{"type":"Point","coordinates":[-73.039032,41.634357]},"properties":{"kind":"campsite","src":"osm","osm":"way/882186815","name":"Tamarack","elev_ft":810}},{"type":"Feature","geometry":{"type":"Point","coordinates":[-73.038845,41.634705]},"properties":{"kind":"campsite","src":"osm","osm":"way/882186816","name":"49er's","elev_ft":810}},{"type":"Feature","geometry":{"type":"Point","coordinates":[-73.038213,41.633753]},"properties":{"kind":"campsite","src":"osm","osm":"way/882186819","name":"Hawthorne","elev_ft":804}},{"type":"Feature","geometry":{"type":"Point","coordinates":[-73.037431,41.634435]},"properties":{"kind":"campsite","src":"osm","osm":"way/882186820","name":"Cedar","elev_ft":820}},{"type":"Feature","geometry":{"type":"Point","coordinates":[-73.037298,41.633486]},"properties":{"kind":"campsite","src":"osm","osm":"way/882186821","name":"Arrow North","elev_ft":804}},{"type":"Feature","geometry":{"type":"Point","coordinates":[-73.038825,41.635455]},"properties":{"kind":"campsite","src":"osm","osm":"way/882186822","name":"Maple","elev_ft":810}},{"type":"Feature","geometry":{"type":"Point","coordinates":[-73.038727,41.633462]},"properties":{"kind":"campsite","src":"osm","osm":"way/882186823","name":"Scoutcraft Area","elev_ft":791}},{"type":"Feature","geometry":{"type":"Point","coordinates":[-73.037484,41.635042]},"properties":{"kind":"campsite","src":"osm","osm":"way/882186824","name":"Mohawk","elev_ft":814}},{"type":"Feature","geometry":{"type":"Point","coordinates":[-73.037983,41.636013]},"properties":{"kind":"campsite","src":"osm","osm":"way/882186825","name":"Cougar","elev_ft":787}},{"type":"Feature","geometry":{"type":"Point","coordinates":[-73.038139,41.636721]},"properties":{"kind":"campsite","src":"osm","osm":"way/882186826","name":"Polaris","elev_ft":787}},{"type":"Feature","geometry":{"type":"Point","coordinates":[-73.037909,41.632876]},"properties":{"kind":"campsite","src":"osm","osm":"way/882186827","name":"Arrow South","elev_ft":781}},{"type":"Feature","geometry":{"type":"Point","coordinates":[-73.042198,41.631675]},"properties":{"kind":"campsite","src":"osm","osm":"way/882567913","name":"Topside","elev_ft":764}},{"type":"Feature","geometry":{"type":"Point","coordinates":[-73.044532,41.635076]},"properties":{"kind":"campsite","src":"osm","osm":"way/882567937","name":"Hickory","elev_ft":784}},{"type":"Feature","geometry":{"type":"Point","coordinates":[-73.038945,41.636304]},"properties":{"kind":"campsite","src":"osm","osm":"way/882567947","name":"Trapper (DISUSED)","elev_ft":797}},{"type":"Feature","geometry":{"type":"Point","coordinates":[-71.886944,41.563269]},"properties":{"kind":"campsite","src":"osm","osm":"way/911886938","name":"Countryside RV Park","website":"https://www.countrysidervcamp.com","elev_ft":289}},{"type":"Feature","geometry":{"type":"Point","coordinates":[-71.900784,41.548888]},"properties":{"kind":"campsite","src":"osm","osm":"way/912115985","name":"Pachaug Marina and Campground","access":"private","website":"http://www.pachaugmarina.net","elev_ft":187}},{"type":"Feature","geometry":{"type":"Point","coordinates":[-72.215501,41.506185]},"properties":{"kind":"campsite","src":"osm","osm":"way/917175886","name":"Pequot Ledge Campground","website":"http://www.pequotledge.com","elev_ft":489}},{"type":"Feature","geometry":{"type":"Point","coordinates":[-71.984766,41.62145]},"properties":{"kind":"campsite","src":"osm","osm":"way/946183267","name":"Ross Hill Park Family Campground","website":"https://www.rosshillpark.com/","elev_ft":135}},{"type":"Feature","geometry":{"type":"Point","coordinates":[-72.501644,41.743873]},"properties":{"kind":"campsite","src":"osm","osm":"way/951327603","name":"Camp Merrie-Wood","operator":"Girl Scouts of Connecticut","website":"https://www.gsofct.org/en/camp/summer-camps/day-camp/merrie_wood.html","elev_ft":453}},{"type":"Feature","geometry":{"type":"Point","coordinates":[-72.541768,41.695713]},"properties":{"kind":"campsite","src":"osm","osm":"way/951860171","name":"Camp Neipsic","operator":"Friends of Camp Neipsic, Inc.","website":"https://friendsofcampneipsic.org","elev_ft":404}},{"type":"Feature","geometry":{"type":"Point","coordinates":[-72.030756,41.875573]},"properties":{"kind":"campsite","src":"osm","osm":"way/952493658","name":"Windham County 4H Camp","elev_ft":636}},{"type":"Feature","geometry":{"type":"Point","coordinates":[-71.80796,41.689121]},"properties":{"kind":"campsite","src":"osm","osm":"way/952825549","name":"River's Edge Campground","elev_ft":394}},{"type":"Feature","geometry":{"type":"Point","coordinates":[-71.814268,41.853313]},"properties":{"kind":"rv_park","src":"osm","osm":"way/966070560","name":"Hide-Away-Cove Family Campground","website":"https://hide-away-cove.squarespace.com","elev_ft":682}},{"type":"Feature","geometry":{"type":"Point","coordinates":[-72.27811,41.921011]},"properties":{"kind":"campsite","src":"osm","osm":"way/973204170","name":"Wilderness Lake Campground","website":"https://wildernesslakect.com/","elev_ft":696}},{"type":"Feature","geometry":{"type":"Point","coordinates":[-72.194082,41.700831]},"properties":{"kind":"campsite","src":"osm","osm":"way/975708277","name":"Willimantic Camp Meeting Association","elev_ft":381}},{"type":"Feature","geometry":{"type":"Point","coordinates":[-72.171583,41.669945]},"properties":{"kind":"campsite","src":"osm","osm":"way/980733235","name":"Horizons Inc","elev_ft":331}},{"type":"Feature","geometry":{"type":"Point","coordinates":[-71.967461,41.849866]},"properties":{"kind":"campsite","src":"osm","osm":"way/992023108","name":"Wolf Den Campground","operator":"Connecticut Department of Energy and Environmental Protection","website":"https://portal.ct.gov/DEEP/State-Parks/Parks/Mashamoquet-Brook-State-Park/Camping","drinking_water":"yes","toilets":"yes","elev_ft":308}},{"type":"Feature","geometry":{"type":"Point","coordinates":[-72.361752,41.60332]},"properties":{"kind":"campsite","src":"osm","osm":"way/1001203497","name":"Camp Connecticut","operator":"Independent Order of Odd Fellows","elev_ft":387}},{"type":"Feature","geometry":{"type":"Point","coordinates":[-71.869243,41.593015]},"properties":{"kind":"campsite","src":"osm","osm":"way/1009528134","name":"Mount Misery Campground","elev_ft":302}},{"type":"Feature","geometry":{"type":"Point","coordinates":[-73.249771,41.85266]},"properties":{"kind":"campsite","src":"osm","osm":"way/1009618671","name":"Algonquin","elev_ft":1447}},{"type":"Feature","geometry":{"type":"Point","coordinates":[-73.25196,41.851945]},"properties":{"kind":"campsite","src":"osm","osm":"way/1009618674","name":"Mohawk","elev_ft":1440}},{"type":"Feature","geometry":{"type":"Point","coordinates":[-73.252429,41.851183]},"properties":{"kind":"campsite","src":"osm","osm":"way/1009618675","name":"Pootatuck","elev_ft":1440}},{"type":"Feature","geometry":{"type":"Point","coordinates":[-73.251333,41.852833]},"properties":{"kind":"campsite","src":"osm","osm":"way/1009618676","name":"Chesapeake","elev_ft":1450}},{"type":"Feature","geometry":{"type":"Point","coordinates":[-73.251552,41.85433]},"properties":{"kind":"campsite","src":"osm","osm":"way/1009618677","name":"Paugassett","elev_ft":1375}},{"type":"Feature","geometry":{"type":"Point","coordinates":[-73.247806,41.853413]},"properties":{"kind":"campsite","src":"osm","osm":"way/1009618678","elev_ft":1444}},{"type":"Feature","geometry":{"type":"Point","coordinates":[-72.175241,41.88968]},"properties":{"kind":"campsite","src":"osm","osm":"way/1021536473","name":"Brialee Family Campground","website":"https://www.brialee.com","elev_ft":554}},{"type":"Feature","geometry":{"type":"Point","coordinates":[-71.869861,41.508983]},"properties":{"kind":"campsite","src":"osm","osm":"way/1025033388","name":"Camp Wightman","operator":"American Baptist Churches of Connecticut","website":"https://www.campwightman.org","elev_ft":404}},{"type":"Feature","geometry":{"type":"Point","coordinates":[-72.203692,41.774943]},"properties":{"kind":"campsite","src":"osm","osm":"way/1054896883","name":"Holiday Hill Day Camp and Recreation Center","website":"https://holidayrecreation.com","elev_ft":331}},{"type":"Feature","geometry":{"type":"Point","coordinates":[-72.31578,41.924619]},"properties":{"kind":"campsite","src":"osm","osm":"way/1059901684","name":"Camp Yankee Trails","operator":"Girl Scouts of Connecticut","desc":"Private, Members Or Owners Only","elev_ft":505}},{"type":"Feature","geometry":{"type":"Point","coordinates":[-72.790236,41.570588]},"properties":{"kind":"campsite","src":"osm","osm":"way/1070106944","name":"Cuno Camp","operator":"Boys & Girls Club of Meriden","website":"https://www.bgcmeriden.org/cuno-camp-information","elev_ft":246}},{"type":"Feature","geometry":{"type":"Point","coordinates":[-72.055057,42.020681]},"properties":{"kind":"campsite","src":"osm","osm":"way/1095773776","name":"Solair Recreation League","website":"https://www.solairrl.com","elev_ft":663}},{"type":"Feature","geometry":{"type":"Point","coordinates":[-71.797054,41.745153]},"properties":{"kind":"campsite","src":"osm","osm":"way/1095773777","name":"Sun Ridge Resort","website":"https://sunridgeresortct.com","elev_ft":617}},{"type":"Feature","geometry":{"type":"Point","coordinates":[-72.091384,41.864284]},"properties":{"kind":"campsite","src":"osm","osm":"way/1159196384","name":"Charlie Brown Campground","website":"https://charliebrowncampground.com/","desc":"Charlie Brown Campground is located in the peaceful, pre-revolutionary town of Eastford, Connecticut. It is nestled among rolling hills, sleepy rivers and 12,000 plus acres of state park and forests.","elev_ft":410}},{"type":"Feature","geometry":{"type":"Point","coordinates":[-72.110481,41.305855]},"properties":{"kind":"campsite","src":"osm","osm":"way/1165399417","name":"Camp Harkness","operator":"State of Connecticut","elev_ft":23}},{"type":"Feature","geometry":{"type":"Point","coordinates":[-72.108402,41.308924]},"properties":{"kind":"campsite","src":"osm","osm":"way/1165399421","name":"Green Cabins","elev_ft":72}},{"type":"Feature","geometry":{"type":"Point","coordinates":[-72.107602,41.306387]},"properties":{"kind":"campsite","src":"osm","osm":"way/1165399422","name":"Blue Cabins","elev_ft":46}},{"type":"Feature","geometry":{"type":"Point","coordinates":[-72.108154,41.305725]},"properties":{"kind":"campsite","src":"osm","osm":"way/1165399423","name":"Yellow Cabins","elev_ft":46}},{"type":"Feature","geometry":{"type":"Point","coordinates":[-72.223339,41.404649]},"properties":{"kind":"rv_park","src":"osm","osm":"way/1210572861","name":"Aces High RV Park","website":"https://aceshighrvpark.com/","elev_ft":89}},{"type":"Feature","geometry":{"type":"Point","coordinates":[-72.026575,41.592437]},"properties":{"kind":"campsite","src":"osm","osm":"way/1236153984","name":"Sunfox Campground","operator":"Sunfox Campground LLC","website":"https://sunfoxcampground.com/","elev_ft":207}},{"type":"Feature","geometry":{"type":"Point","coordinates":[-71.933021,41.605898]},"properties":{"kind":"campsite","src":"osm","osm":"way/1245729061","name":"Camper's World at Hopeville Pond","website":"https://www.campersworldcampground.com/","elev_ft":203}},{"type":"Feature","geometry":{"type":"Point","coordinates":[-72.339276,41.48472]},"properties":{"kind":"campsite","src":"osm","osm":"way/1282055610","name":"Devil's Hopyard State Park Campground","elev_ft":266}},{"type":"Feature","geometry":{"type":"Point","coordinates":[-72.716776,41.904835]},"properties":{"kind":"campsite","src":"osm","osm":"way/1312623573","name":"Camp Shalom","elev_ft":161}},{"type":"Feature","geometry":{"type":"Point","coordinates":[-73.003042,41.934931]},"properties":{"kind":"campsite","src":"osm","osm":"way/1323299502","name":"Austin F. Hawes Memorial Campground","operator":"Connecticut Department of Energy and Environmental Protection","elev_ft":499}},{"type":"Feature","geometry":{"type":"Point","coordinates":[-72.398938,41.700749]},"properties":{"kind":"campsite","src":"osm","osm":"way/1349082317","name":"Camp Hi Hoti","operator":"Hartford Neighborhood Centers Inc.","website":"https://www.hnci.org","elev_ft":571}},{"type":"Feature","geometry":{"type":"Point","coordinates":[-71.960592,41.400606]},"properties":{"kind":"campsite","src":"osm","osm":"way/1372976714","name":"Seaport Campground","elev_ft":43}},{"type":"Feature","geometry":{"type":"Point","coordinates":[-72.464256,41.555742]},"properties":{"kind":"campsite","src":"osm","osm":"way/1374694631","name":"Markham Meadows Campground","elev_ft":433}},{"type":"Feature","geometry":{"type":"Point","coordinates":[-72.46878,41.490621]},"properties":{"kind":"campsite","src":"osm","osm":"way/1378184975","name":"Camp Chomeish of New England","elev_ft":95}},{"type":"Feature","geometry":{"type":"Point","coordinates":[-72.455171,41.514742]},"properties":{"kind":"campsite","src":"osm","osm":"way/1378184980","name":"Grandview Camping & Cottages","elev_ft":351}},{"type":"Feature","geometry":{"type":"Point","coordinates":[-72.30817,41.631514]},"properties":{"kind":"campsite","src":"osm","osm":"way/1380579263","name":"Lake Williams Campground","elev_ft":472}},{"type":"Feature","geometry":{"type":"Point","coordinates":[-72.282864,41.649791]},"properties":{"kind":"campsite","src":"osm","osm":"way/1381855640","name":"Girl Scouts of Connecticut Camp Laurel","operator":"Girl Scouts of Connecticut","elev_ft":492}},{"type":"Feature","geometry":{"type":"Point","coordinates":[-72.209265,41.866066]},"properties":{"kind":"campsite","src":"osm","osm":"way/1508341271","name":"Camp CONNRI","operator":"The Salvation Army","website":"https://easternusa.salvationarmy.org/southern-new-england/camp-connri/","elev_ft":614}},{"type":"Feature","geometry":{"type":"Point","coordinates":[-73.25498,41.785458]},"properties":{"kind":"campsite","src":"osm","osm":"relation/4067819","name":"Hemlock Hill Camp Resort","website":"http://www.hemlockhillcamp.com/","elev_ft":1204}},{"type":"Feature","geometry":{"type":"Point","coordinates":[-72.092442,41.637761]},"properties":{"kind":"campsite","src":"osm","osm":"relation/12935052","name":"Salt Rock State Campground","operator":"State of Connecticut","website":"https://portal.ct.gov/DEEP/State-Parks/Campgrounds/Salt-Rock-State-Campground","elev_ft":213}},{"type":"Feature","geometry":{"type":"Point","coordinates":[-72.070599,41.96875]},"properties":{"kind":"campsite","src":"osm","osm":"relation/12953644","name":"YMCA Camp Woodstock","operator":"YMCA of Greater Hartford","website":"https://www.campwoodstock.org","elev_ft":666}},{"type":"Feature","geometry":{"type":"Point","coordinates":[-72.39265,41.620061]},"properties":{"kind":"campsite","src":"osm","osm":"relation/13066360","name":"Easter Seals Camp","operator":"Easter Seals Connecticut, Inc.","desc":"Private, Members Or Owners Only","elev_ft":522}},{"type":"Feature","geometry":{"type":"Point","coordinates":[-71.953846,41.535264]},"properties":{"kind":"rv_park","src":"osm","osm":"relation/13145088","name":"Strawberry Park","website":"https://www.strawberrypark.net","desc":"Private, Open To Public With Fee","elev_ft":315}},{"type":"Feature","geometry":{"type":"Point","coordinates":[-72.018265,41.553514]},"properties":{"kind":"rv_park","src":"osm","osm":"relation/13145089","name":"Hidden Acres Family Campground","website":"https://www.hiddenacrescamp.com/","elev_ft":89}},{"type":"Feature","geometry":{"type":"Point","coordinates":[-72.164177,41.476946]},"properties":{"kind":"campsite","src":"osm","osm":"relation/13235439","name":"Camp Oakdale Recreation Center","operator":"Town of Montville","desc":"Municipal, Open To Public Without Fee","elev_ft":397}},{"type":"Feature","geometry":{"type":"Point","coordinates":[-71.812115,41.954408]},"properties":{"kind":"campsite","src":"osm","osm":"relation/13333940","name":"Quaddick State Park","operator":"Connecticut Department of Energy and Environmental Protection","elev_ft":476}},{"type":"Feature","geometry":{"type":"Point","coordinates":[-72.493846,41.402499]},"properties":{"kind":"campsite","src":"osm","osm":"relation/13334052","operator":"Camp Hazen YMCA","website":"https://camphazenymca.org","desc":"Private, Members Or Owners Only","elev_ft":338}},{"type":"Feature","geometry":{"type":"Point","coordinates":[-73.051361,41.874928]},"properties":{"kind":"campsite","src":"osm","osm":"relation/14592734","name":"Camp Sequassen","operator":"Connecticut Yankee Council","website":"http://www.ctyankee.org/camping/camps/sequassen","elev_ft":938}},{"type":"Feature","geometry":{"type":"Point","coordinates":[-71.849096,41.469462]},"properties":{"kind":"campsite","src":"osm","osm":"relation/16543222","name":"Tefftweald at Birchenturn","operator":"Avalonia Land Conservancy","elev_ft":213}},{"type":"Feature","geometry":{"type":"Point","coordinates":[-73.204002,41.421137]},"properties":{"kind":"campsite","src":"osm","osm":"relation/16550706","elev_ft":210}},{"type":"Feature","geometry":{"type":"Point","coordinates":[-72.11595,41.882297]},"properties":{"kind":"campsite","src":"osm","osm":"relation/16691329","name":"Hole in the Wall Gang Camp","website":"https://www.holeinthewallgang.org","elev_ft":673}},{"type":"Feature","geometry":{"type":"Point","coordinates":[-73.046221,41.891923]},"properties":{"kind":"campsite","src":"osm","osm":"relation/18321899","name":"Camp Workcoeman","operator":"Boy Scouts of America","website":"https://campworkcoeman.org/","elev_ft":1135}},{"type":"Feature","geometry":{"type":"Point","coordinates":[-73.106399,42.026802]},"properties":{"kind":"campsite","src":"osm","osm":"relation/18364374","name":"Camp Jewell","operator":"YMCA of Metrpolitan Hartford","desc":"Private, Members Or Owners Only","elev_ft":1184}},{"type":"Feature","geometry":{"type":"Point","coordinates":[-73.10474,42.041964]},"properties":{"kind":"campsite","src":"osm","osm":"relation/18365874","name":"Bobriwka","operator":"Bobriwka Inc.","website":"bobriwka.com","elev_ft":1345}},{"type":"Feature","geometry":{"type":"Point","coordinates":[-72.078773,41.679697]},"properties":{"kind":"campsite","src":"osm","osm":"relation/20608350","name":"Highland Campground","website":"http://www.highlandcampground.com","elev_ft":390}},{"type":"Feature","geometry":{"type":"Point","coordinates":[-73.349874,41.47687]},"properties":{"kind":"trailhead","src":"osm","osm":"node/2060316212","elev_ft":269}},{"type":"Feature","geometry":{"type":"Point","coordinates":[-73.595019,41.081227]},"properties":{"kind":"trailhead","src":"osm","osm":"node/2912899701","elev_ft":177}},{"type":"Feature","geometry":{"type":"Point","coordinates":[-73.446319,41.379228]},"properties":{"kind":"trailhead","src":"osm","osm":"node/3207989351","name":"Ives Trail & Greenway - Terrwile Park","elev_ft":440}},{"type":"Feature","geometry":{"type":"Point","coordinates":[-73.318469,41.576868]},"properties":{"kind":"trailhead","src":"osm","osm":"node/4080796994","elev_ft":515}},{"type":"Feature","geometry":{"type":"Point","coordinates":[-73.52993,41.500669]},"properties":{"kind":"trailhead","src":"osm","osm":"node/6351476622","elev_ft":597}},{"type":"Feature","geometry":{"type":"Point","coordinates":[-73.529882,41.501691]},"properties":{"kind":"trailhead","src":"osm","osm":"node/6351476636","elev_ft":591}},{"type":"Feature","geometry":{"type":"Point","coordinates":[-73.140016,41.364762]},"properties":{"kind":"trailhead","src":"osm","osm":"node/7365641800","elev_ft":43}},{"type":"Feature","geometry":{"type":"Point","coordinates":[-73.236238,41.594005]},"properties":{"kind":"trailhead","src":"osm","osm":"node/7620905824","elev_ft":515}},{"type":"Feature","geometry":{"type":"Point","coordinates":[-71.893762,41.940152]},"properties":{"kind":"trailhead","src":"osm","osm":"node/8076096478","elev_ft":338}},{"type":"Feature","geometry":{"type":"Point","coordinates":[-73.527444,41.510039]},"properties":{"kind":"trailhead","src":"osm","osm":"node/8250476938","elev_ft":591}},{"type":"Feature","geometry":{"type":"Point","coordinates":[-73.524205,41.513767]},"properties":{"kind":"trailhead","src":"osm","osm":"node/8250476939","elev_ft":594}},{"type":"Feature","geometry":{"type":"Point","coordinates":[-73.401347,41.467706]},"properties":{"kind":"trailhead","src":"osm","osm":"node/8770672557","elev_ft":299}},{"type":"Feature","geometry":{"type":"Point","coordinates":[-73.062637,41.249756]},"properties":{"kind":"trailhead","src":"osm","osm":"node/9672128116","name":"Solomon Woods","fee":"no","access":"yes","operator":"City of Milford","website":"https://www.milfordct.us/490/Milford-Open-Space-Walks","elev_ft":102}},{"type":"Feature","geometry":{"type":"Point","coordinates":[-72.878404,41.317442]},"properties":{"kind":"trailhead","src":"osm","osm":"node/9731207649","elev_ft":7}},{"type":"Feature","geometry":{"type":"Point","coordinates":[-72.959668,41.338265]},"properties":{"kind":"trailhead","src":"osm","osm":"node/9796045124","name":"Old Oak Nature Trail Loop","elev_ft":82}},{"type":"Feature","geometry":{"type":"Point","coordinates":[-73.295378,41.262454]},"properties":{"kind":"trailhead","src":"osm","osm":"node/11051887958","elev_ft":463}},{"type":"Feature","geometry":{"type":"Point","coordinates":[-72.670359,41.901514]},"properties":{"kind":"trailhead","src":"osm","osm":"node/12186770279","elev_ft":26}},{"type":"Feature","geometry":{"type":"Point","coordinates":[-72.925261,41.793951]},"properties":{"kind":"trailhead","src":"osm","osm":"node/12186920008","elev_ft":289}},{"type":"Feature","geometry":{"type":"Point","coordinates":[-73.498039,41.870961]},"properties":{"kind":"trailhead","src":"osm","osm":"node/12437252610","name":"Benton Hill Preserve - Route 343 Spur","fee":"no","access":"yes","operator":"Sharon Land Trust","elev_ft":512}},{"type":"Feature","geometry":{"type":"Point","coordinates":[-71.809261,42.008673]},"properties":{"kind":"trailhead","src":"osm","osm":"node/12960379820","fee":"no","operator":"Town of Thompson","elev_ft":489}},{"type":"Feature","geometry":{"type":"Point","coordinates":[-73.473972,41.246531]},"properties":{"kind":"trailhead","src":"osm","osm":"node/12997497530","name":"Purple and Orange Trail","fee":"no","elev_ft":597}},{"type":"Feature","geometry":{"type":"Point","coordinates":[-73.474801,41.248335]},"properties":{"kind":"trailhead","src":"osm","osm":"node/12998139379","elev_ft":614}},{"type":"Feature","geometry":{"type":"Point","coordinates":[-73.476242,41.245466]},"properties":{"kind":"trailhead","src":"osm","osm":"node/12998139568","name":"Purple Trail Access Point","elev_ft":617}},{"type":"Feature","geometry":{"type":"Point","coordinates":[-73.474317,41.248082]},"properties":{"kind":"trailhead","src":"osm","osm":"node/12998308463","name":"Red Trail","elev_ft":614}},{"type":"Feature","geometry":{"type":"Point","coordinates":[-73.472214,41.244076]},"properties":{"kind":"trailhead","src":"osm","osm":"node/12998309116","name":"Orange Trail","elev_ft":617}},{"type":"Feature","geometry":{"type":"Point","coordinates":[-73.471915,41.243338]},"properties":{"kind":"trailhead","src":"osm","osm":"node/12998309119","name":"Orange Trail","elev_ft":630}},{"type":"Feature","geometry":{"type":"Point","coordinates":[-73.474442,41.238912]},"properties":{"kind":"trailhead","src":"osm","osm":"node/12998309201","name":"Orange Trail","elev_ft":630}},{"type":"Feature","geometry":{"type":"Point","coordinates":[-73.470037,41.240227]},"properties":{"kind":"trailhead","src":"osm","osm":"node/12998309228","name":"Orange Trail","elev_ft":620}},{"type":"Feature","geometry":{"type":"Point","coordinates":[-73.432976,41.274324]},"properties":{"kind":"trailhead","src":"osm","osm":"node/13746303679","name":"Cross Trail","elev_ft":669}},{"type":"Feature","geometry":{"type":"Point","coordinates":[-73.290434,41.262726]},"properties":{"kind":"trailhead","src":"osm","osm":"way/1190271837","elev_ft":453}},{"type":"Feature","geometry":{"type":"Point","coordinates":[-73.031929,41.297806]},"properties":{"kind":"campsite","src":"overture:meta","name":"Camp Cedarcrest","website":"http://www.campingct.org/","addr":"886 Mapledale Rd, Orange","elev_ft":164}},{"type":"Feature","geometry":{"type":"Point","coordinates":[-72.232735,41.511246]},"properties":{"kind":"campsite","src":"overture:meta","name":"Indianfield Co-Op Campground","website":"http://www.indianfieldcampground.com/","addr":"306 Old Colchester Rd, Salem","elev_ft":407}},{"type":"Feature","geometry":{"type":"Point","coordinates":[-72.238029,41.963131]},"properties":{"kind":"campsite","src":"overture:meta","name":"Roaring Brook Co-Op Camp","website":"http://roaringbrookcampground.net/","addr":"8 South Rd, Stafford","elev_ft":850}},{"type":"Feature","geometry":{"type":"Point","coordinates":[-72.210777,41.504791]},"properties":{"kind":"campsite","src":"overture:meta","name":"Pequot Ledge Campground","website":"http://www.pequotledge.com/","addr":"157 Doyle Rd, Oakdale","elev_ft":492}},{"type":"Feature","geometry":{"type":"Point","coordinates":[-73.673027,41.067867]},"properties":{"kind":"campsite","src":"overture:meta","name":"Seton Scout Reservation","website":"http://imptestrm.com","addr":"363 Riversville Rd, Greenwich","elev_ft":217}},{"type":"Feature","geometry":{"type":"Point","coordinates":[-72.363007,41.975166]},"properties":{"kind":"campsite","src":"overture:meta","name":"Sun Valley Beach Club","website":"https://www.sunvalleybeachclub.com/","addr":"51 Old Springfield Rd, Stafford Springs","elev_ft":584}},{"type":"Feature","geometry":{"type":"Point","coordinates":[-72.295326,41.49992]},"properties":{"kind":"campsite","src":"overture:meta","name":"Witch Meadow Lake Campground","website":"http://www.witchmeadowcampground.com/","addr":"139 Witch Meadow Rd, Salem","elev_ft":364}},{"type":"Feature","geometry":{"type":"Point","coordinates":[-71.898674,41.956264]},"properties":{"kind":"campsite","src":"overture:meta","name":"West Thompson Lake Campground","website":"https://www.recreation.gov/camping/west-thompson-lake-campground/r/campgroundDetails.do?contractCode=NRSO&parkId=73147","addr":"449 Reardon Rd, Thompson","elev_ft":397}},{"type":"Feature","geometry":{"type":"Point","coordinates":[-72.814224,41.329601]},"properties":{"kind":"rv_park","src":"overture:meta","name":"Totoket Valley RV Park","website":"http://www.totoketrvpark.com/","addr":"224 Foxon Rd, North Branford","elev_ft":69}},{"type":"Feature","geometry":{"type":"Point","coordinates":[-72.580078,41.291779]},"properties":{"kind":"rv_park","src":"overture:meta","name":"I-95 Madison Service Plaza","website":"http://www.ctserviceplazas.com","addr":"1 South St, Madison","elev_ft":49}},{"type":"Feature","geometry":{"type":"Point","coordinates":[-73.181061,41.851116]},"properties":{"kind":"campsite","src":"overture:meta","name":"YMCA Camp M.O.E.","website":"http://ymcacampmoe.org/","addr":"1145 Brandy Hill Rd, Torrington","elev_ft":1211}},{"type":"Feature","geometry":{"type":"Point","coordinates":[-72.292969,41.635963]},"properties":{"kind":"campsite","src":"overture:Foursquare","name":"Waters Edge family camp ground","website":"http://www.watersedgecampground.com","addr":"271 Leonard Bridge Rd, Lebanon","elev_ft":561}},{"type":"Feature","geometry":{"type":"Point","coordinates":[-73.432251,41.727051]},"properties":{"kind":"campsite","src":"overture:meta","name":"KenMont and KenWood Camp","website":"http://www.kenmontkenwood.com/","addr":"65 Kent Rd, Kent","elev_ft":1240}},{"type":"Feature","geometry":{"type":"Point","coordinates":[-72.235413,41.514912]},"properties":{"kind":"campsite","src":"overture:meta","name":"Sna-Z Spot Recreation Area","website":"http://www.snazspot.com/","addr":"310 Old Colchester Rd, Salem","elev_ft":407}},{"type":"Feature","geometry":{"type":"Point","coordinates":[-72.316177,41.500038]},"properties":{"kind":"campsite","src":"overture:meta","name":"Salem Farms Campground","website":"https://witchmeadowcampground.com/","addr":"29 Alexander Rd, Salem","elev_ft":499}},{"type":"Feature","geometry":{"type":"Point","coordinates":[-73.591797,41.10321]},"properties":{"kind":"campsite","src":"overture:meta","name":"Camp Rocky Craig","website":"https://camp-rocky-craig.hub.biz/","addr":"69 Guinea Rd, Stamford","elev_ft":269}},{"type":"Feature","geometry":{"type":"Point","coordinates":[-73.297066,41.812557]},"properties":{"kind":"campsite","src":"overture:meta","name":"YMCA Camp Mohawk","website":"http://www.campmohawk.org","addr":"246 Great Hill Rd, Cornwall","elev_ft":1217}},{"type":"Feature","geometry":{"type":"Point","coordinates":[-72.432693,41.281685]},"properties":{"kind":"rv_park","src":"overture:meta","name":"New England Village","website":"https://www.suncommunities.com/community/new-england-village/?utm_source=facebook&utm_medium=social&utm_campaign=yext","addr":"5 Old Forge Rd, Westbrook","elev_ft":30}},{"type":"Feature","geometry":{"type":"Point","coordinates":[-73.261086,41.491764]},"properties":{"kind":"campsite","src":"overture:meta","name":"YMCA Camp Oakasha","website":"http://www.campoakasha.org/","addr":"1461 S Britain Rd, Southbury","elev_ft":210}},{"type":"Feature","geometry":{"type":"Point","coordinates":[-72.880066,41.278011]},"properties":{"kind":"campsite","src":"overture:meta","name":"\u304f\u308a\u306e\u6728\u30ad\u30e3\u30f3\u30d7\u5834","website":"http://c-kurinoki.com/","addr":"\u4e2d\u90f72694-197, East Haven","elev_ft":23}},{"type":"Feature","geometry":{"type":"Point","coordinates":[-73.110786,41.330948]},"properties":{"kind":"campsite","src":"overture:meta","name":"Recreation Camp","website":"http://www.TheRecreationCamp.com/","addr":"550 Roosevelt Dr, Derby","elev_ft":46}},{"type":"Feature","geometry":{"type":"Point","coordinates":[-73.434166,41.324879]},"properties":{"kind":"campsite","src":"overture:meta","name":"John Sherman Hoyt Scout Reservation","website":"http://www.ctyankee.org/camping/camps/hoyt","addr":"288 Simpaug Turnpike, Redding","elev_ft":427}},{"type":"Feature","geometry":{"type":"Point","coordinates":[-73.223701,41.710327]},"properties":{"kind":"campsite","src":"overture:meta","name":"Point Folly","website":"https://whitememorialcc.org","addr":"123 N Shore Rd, Morris","elev_ft":906}},{"type":"Feature","geometry":{"type":"Point","coordinates":[-73.04818,41.628464]},"properties":{"kind":"campsite","src":"overture:meta","name":"Gentile's Campground","website":"http://www.gentilescampground.com","addr":"223 Mt Tobe Rd, Plymouth","elev_ft":853}},{"type":"Feature","geometry":{"type":"Point","coordinates":[-73.053322,41.869846]},"properties":{"kind":"campsite","src":"overture:meta","name":"Camp Sequassen","website":"http://Sequassen.org/","addr":"791 W Hill Rd, New Hartford","elev_ft":778}},{"type":"Feature","geometry":{"type":"Point","coordinates":[-72.46891,41.346935]},"properties":{"kind":"campsite","src":"overture:meta","name":"Incarnation Camp and Conference Center","website":"http://www.incarnationcamp.org/","addr":"253 Bushy Hill Rd, Ivoryton","elev_ft":328}},{"type":"Feature","geometry":{"type":"Point","coordinates":[-72.495758,41.398697]},"properties":{"kind":"campsite","src":"overture:meta","name":"Camp Hazen YMCA","website":"http://www.camphazenymca.org/","addr":"204 W Main St, Chester","elev_ft":256}},{"type":"Feature","geometry":{"type":"Point","coordinates":[-72.077301,41.969437]},"properties":{"kind":"campsite","src":"overture:meta","name":"YMCA Camp Woodstock","website":"http://www.campwoodstock.org/","addr":"42 Camp Rd, Woodstock","elev_ft":709}},{"type":"Feature","geometry":{"type":"Point","coordinates":[-72.14193,41.871994]},"properties":{"kind":"campsite","src":"overture:meta","name":"June Norcross Webster Scout Reservation","website":"http://www.GoToWebster.org/","addr":"231 Ashford Center Rd, Ashford","elev_ft":646}},{"type":"Feature","geometry":{"type":"Point","coordinates":[-73.094162,41.6534]},"properties":{"kind":"campsite","src":"overture:meta","name":"Branch Brook Campground","website":"http://www.branchbrookct.com/","addr":"435 Watertown Rd, Thomaston","elev_ft":374}},{"type":"Feature","geometry":{"type":"Point","coordinates":[-73.123528,41.635113]},"properties":{"kind":"campsite","src":"overture:meta","name":"YMCA Camp Mataucha","website":"http://www.campmataucha.org/","addr":"270 Smith Pond Rd, Watertown","elev_ft":709}},{"type":"Feature","geometry":{"type":"Point","coordinates":[-73.445015,41.314659]},"properties":{"kind":"campsite","src":"overture:meta","name":"Hoyt Scout Reservation","website":"http://www.ctyankee.org/camping/camps/hoyt","addr":"3 Marchant Rd, Redding","elev_ft":486}},{"type":"Feature","geometry":{"type":"Point","coordinates":[-72.88974,41.686104]},"properties":{"kind":"campsite","src":"overture:meta","name":"Plainville Campground","website":"http://plainvillecampgrounds.org/","addr":"19 Circle Ave, Plainville","elev_ft":318}},{"type":"Feature","geometry":{"type":"Point","coordinates":[-72.177582,41.887756]},"properties":{"kind":"campsite","src":"overture:Foursquare","name":"Brialee RV & Tent Park","website":"http://www.brialee.com","addr":"174 Laurel Ln, Ashford","elev_ft":600}},{"type":"Feature","geometry":{"type":"Point","coordinates":[-73.173187,41.818317]},"properties":{"kind":"campsite","src":"overture:meta","name":"Skyridge Trails Campground","website":"http://www.skyridgerv.com/","addr":"232 Klug Hill Rd, Torrington","elev_ft":1168}},{"type":"Feature","geometry":{"type":"Point","coordinates":[-71.984428,41.622955]},"properties":{"kind":"rv_park","src":"overture:meta","name":"Ross Hill Campground","website":"http://www.rosshillpark.com/","addr":"170 Ross Hill Rd, Jewett City","elev_ft":131}},{"type":"Feature","geometry":{"type":"Point","coordinates":[-72.016533,41.553288]},"properties":{"kind":"campsite","src":"overture:meta","name":"Hidden Acres Family Campground (H.A.F.C)","addr":"43 River Rd, Preston City","elev_ft":102}},{"type":"Feature","geometry":{"type":"Point","coordinates":[-72.465851,41.749569]},"properties":{"kind":"campsite","src":"overture:meta","name":"Cross Mountain Campground ","website":"https://www.campspot.com/book/ioadventures","addr":"698 Mountain Springs Rd, Manchester","elev_ft":732}},{"type":"Feature","geometry":{"type":"Point","coordinates":[-73.107582,42.019676]},"properties":{"kind":"campsite","src":"overture:meta","name":"Camp Jewell YMCA","website":"http://campjewell.org/","addr":"6 Prock Hill Rd, Colebrook","elev_ft":1171}},{"type":"Feature","geometry":{"type":"Point","coordinates":[-71.853867,41.58194]},"properties":{"kind":"campsite","src":"overture:meta","name":"Nature's Campsites","website":"http://www.naturescampsites.net/","addr":"96 Ekonk Hill Rd, Voluntown","elev_ft":325}},{"type":"Feature","geometry":{"type":"Point","coordinates":[-71.975922,41.602856]},"properties":{"kind":"campsite","src":"overture:meta","name":"Pachaug Cottages","website":"http://pachaugcottages.com/","addr":"Backlund's Cottages, 21 Cross Rd, Jewett City","elev_ft":167}},{"type":"Feature","geometry":{"type":"Point","coordinates":[-72.513748,41.611076]},"properties":{"kind":"campsite","src":"overture:meta","name":"Nelson's Family Campground","website":"https://www.nelsonscampground.com/","addr":"71 Mott Hill Rd, East Hampton","elev_ft":597}},{"type":"Feature","geometry":{"type":"Point","coordinates":[-72.405327,41.909039]},"properties":{"kind":"campsite","src":"overture:meta","name":"The Quarry Campground","website":"http://www.thequarrycampground.com/","addr":"704 Shenipsit Lake Rd, Tolland","elev_ft":574}},{"type":"Feature","geometry":{"type":"Point","coordinates":[-73.390587,42.04023]},"properties":{"kind":"campsite","src":"overture:meta","name":"Camp Isola Bella","website":"http://www.campisolabella.com/","addr":"410 Twin Lakes Rd, Salisbury","elev_ft":781}},{"type":"Feature","geometry":{"type":"Point","coordinates":[-72.091682,41.857265]},"properties":{"kind":"campsite","src":"overture:meta","name":"Peppertree Campground","website":"http://www.peppertreecamping.com/","addr":"146 Chaplin Rd, Eastford","elev_ft":433}},{"type":"Feature","geometry":{"type":"Point","coordinates":[-72.049759,41.556122]},"properties":{"kind":"rv_park","src":"overture:meta","name":"Hidden Acres Family Campground","website":"http://www.hiddenacrescamp.com","addr":"135 Norwich Ave, Norwich","elev_ft":72}},{"type":"Feature","geometry":{"type":"Point","coordinates":[-72.094139,41.831966]},"properties":{"kind":"campsite","src":"overture:meta","name":"Nickerson Park Family Campground","website":"http://www.nickersonpark.com","addr":"1036 Phoenixville Rd, Chaplin","elev_ft":417}},{"type":"Feature","geometry":{"type":"Point","coordinates":[-72.428902,41.450638]},"properties":{"kind":"rv_park","src":"overture:meta","name":"Wolf's Den Family Campground","website":"https://www.wolfsdencampground.com/","addr":"256 Town St, East Haddam","elev_ft":348}},{"type":"Feature","geometry":{"type":"Point","coordinates":[-73.600479,41.140678]},"properties":{"kind":"campsite","src":"overture:meta","name":"Long Ridge Camp","website":"http://www.longridgecamp.com/","addr":"478 Erskine Rd, Stamford","elev_ft":466}},{"type":"Feature","geometry":{"type":"Point","coordinates":[-73.530563,41.139797]},"properties":{"kind":"campsite","src":"overture:meta","name":"Camp Playland of New Canaan","website":"http://www.campplaylandofnewcanaan.com/","addr":"802 Ponus Rdg, New Canaan","elev_ft":341}},{"type":"Feature","geometry":{"type":"Point","coordinates":[-73.460655,41.325775]},"properties":{"kind":"campsite","src":"overture:Foursquare","name":"Camp Playland of Redding","website":"http://www.campplaylandofredding.com","addr":"27 Starrs Ridge Rd, Redding","elev_ft":548}},{"type":"Feature","geometry":{"type":"Point","coordinates":[-73.463585,41.90514]},"properties":{"kind":"campsite","src":"overture:meta","name":"Silver Lake Camp & Retreat Center","website":"http://www.silverlakect.org/","addr":"223 Low Rd, Sharon","elev_ft":725}},{"type":"Feature","geometry":{"type":"Point","coordinates":[-73.391563,41.117592]},"properties":{"kind":"campsite","src":"overture:Foursquare","name":"Peak Performance Sports Camps","website":"http://www.peakperformancesports.net","addr":"10 Maurice St, Norwalk","elev_ft":105}},{"type":"Feature","geometry":{"type":"Point","coordinates":[-73.371696,41.122028]},"properties":{"kind":"campsite","src":"overture:Foursquare","name":"Chabad Lubavitch of Westport","website":"http://www.chabadofwestport.com","addr":"20 Ketchum St, Westport","elev_ft":23}},{"type":"Feature","geometry":{"type":"Point","coordinates":[-73.058044,41.548393]},"properties":{"kind":"campsite","src":"overture:meta","name":"Desi Camping Adventures","website":"https://www.airbnb.com/rooms/1269287630387402581?viralityEntryPoint=1&s=76","addr":"330 Chase Pkwy, Waterbury","elev_ft":499}},{"type":"Feature","geometry":{"type":"Point","coordinates":[-73.051376,41.51009]},"properties":{"kind":"rv_park","src":"overture:meta","name":"Riverview Mobile Home Estates","addr":"45 Patricia Ln, Naugatuck","elev_ft":312}},{"type":"Feature","geometry":{"type":"Point","coordinates":[-72.728668,41.507153]},"properties":{"kind":"campsite","src":"overture:meta","name":"John J Nerden RTC Camp","website":"http://www.campnerden.com","addr":"89 Powder Hill Rd, Middlefield","elev_ft":410}},{"type":"Feature","geometry":{"type":"Point","coordinates":[-72.660385,41.481548]},"properties":{"kind":"campsite","src":"overture:meta","name":"Camp Farnam","website":"http://farnamhouse.org","addr":"285 Maiden Ln, Durham","elev_ft":279}},{"type":"Feature","geometry":{"type":"Point","coordinates":[-72.606735,41.456757]},"properties":{"kind":"campsite","src":"overture:meta","name":"Little City Campground","website":"http://www.campconn.com","addr":"733 Little City Rd, Higganum","elev_ft":476}},{"type":"Feature","geometry":{"type":"Point","coordinates":[-73.318489,41.640827]},"properties":{"kind":"campsite","src":"overture:Foursquare","name":"Steep Rock Association","website":"http://www.steeprockassoc.org","addr":"2 Green Hill Rd, Washington","elev_ft":509}},{"type":"Feature","geometry":{"type":"Point","coordinates":[-73.377205,41.720871]},"properties":{"kind":"campsite","src":"overture:Foursquare","name":"Mountain Lake Bible Camp","website":"http://www.rencorporation.com","addr":"64 Mountain Lake Rd, New Preston Marble Dale","elev_ft":1171}},{"type":"Feature","geometry":{"type":"Point","coordinates":[-73.225098,41.682358]},"properties":{"kind":"campsite","src":"overture:meta","name":"Camp Awosting","website":"https://linktr.ee/campawosting","addr":"296 West St, Morris","elev_ft":1017}},{"type":"Feature","geometry":{"type":"Point","coordinates":[-73.251617,41.670944]},"properties":{"kind":"campsite","src":"overture:meta","name":"Camp Washington","website":"http://www.campwashington.org/","addr":"190 Kenyon Rd, Morris","elev_ft":1027}},{"type":"Feature","geometry":{"type":"Point","coordinates":[-72.866768,41.640236]},"properties":{"kind":"campsite","src":"overture:meta","name":"Advent Christian Campground","website":"http://www.campfaithful.com","addr":"891 Queen St, Southington","elev_ft":213}},{"type":"Feature","geometry":{"type":"Point","coordinates":[-72.945686,41.650116]},"properties":{"kind":"campsite","src":"overture:meta","name":"Camp Carlson","website":"http://www.gsofct.org/pages/CampCarlsonOS.php","addr":"700 Willis St, Bristol","elev_ft":1027}},{"type":"Feature","geometry":{"type":"Point","coordinates":[-72.878868,41.600758]},"properties":{"kind":"rv_park","src":"overture:meta","name":"Friendship Lodge No. 33","website":"http://www.friendship33.org/","addr":"76 Main St, Southington","elev_ft":177}},{"type":"Feature","geometry":{"type":"Point","coordinates":[-73.254044,41.8521]},"properties":{"kind":"campsite","src":"overture:meta","name":"Ed Strang Scout Reservation","website":"http://www.housatonicbsa.org/","addr":"278 Westside Rd, Goshen","elev_ft":1407}},{"type":"Feature","geometry":{"type":"Point","coordinates":[-73.146996,41.888802]},"properties":{"kind":"campsite","src":"overture:meta","name":"Camp Wah-Nee","website":"http://www.wahnee.com/","addr":"128 Wahnee Rd, Torrington","elev_ft":1224}},{"type":"Feature","geometry":{"type":"Point","coordinates":[-73.181908,41.848862]},"properties":{"kind":"campsite","src":"overture:meta","name":"Camp Maria Pratt","addr":"1145 Brandy Hill Rd, Torrington","elev_ft":1198}},{"type":"Feature","geometry":{"type":"Point","coordinates":[-72.974548,41.89888]},"properties":{"kind":"campsite","src":"overture:meta","name":"Boulder Ridge Day Camp","website":"http://www.BoulderDay.com/","addr":"104 Goose Green Rd, Barkhamsted","elev_ft":682}},{"type":"Feature","geometry":{"type":"Point","coordinates":[-73.04644,41.88559]},"properties":{"kind":"campsite","src":"overture:meta","name":"Camp Workcoeman","website":"https://campworkcoeman.org/","addr":"169 Camp Workcoeman Rd, New Hartford","elev_ft":1007}},{"type":"Feature","geometry":{"type":"Point","coordinates":[-72.961494,41.768349]},"properties":{"kind":"campsite","src":"overture:Foursquare","name":"Burlington Academy Of Learning","website":"http://burlingtonacademy.com","addr":"10 Covey Rd, Burlington","elev_ft":781}},{"type":"Feature","geometry":{"type":"Point","coordinates":[-72.908798,41.775345]},"properties":{"kind":"campsite","src":"overture:meta","name":"YMCA Camp Chase","website":"https://www.ghymca.org/camps/ymca-camp-chase","addr":"15 Canton Rd, Burlington","elev_ft":305}},{"type":"Feature","geometry":{"type":"Point","coordinates":[-72.716255,41.793663]},"properties":{"kind":"campsite","src":"overture:Foursquare","name":"Summer Place Programs","website":"http://www.summerplaceprograms.com","addr":"200 Bloomfield Ave, West Hartford","elev_ft":125}},{"type":"Feature","geometry":{"type":"Point","coordinates":[-72.249481,41.315296]},"properties":{"kind":"rv_park","src":"overture:meta","name":"Niantic / I-95 Exit 72 KOA Holiday","website":"https://koa.com/campgrounds/niantic/","addr":"271 W Main St, Niantic","elev_ft":112}},{"type":"Feature","geometry":{"type":"Point","coordinates":[-72.229057,41.368999]},"properties":{"kind":"rv_park","src":"overture:meta","name":"The Island RV Park","website":"http://www.theislandrvpark.com/","addr":"20 Islanda Ct, East Lyme","elev_ft":79}},{"type":"Feature","geometry":{"type":"Point","coordinates":[-72.229279,41.369141]},"properties":{"kind":"campsite","src":"overture:Foursquare","name":"The Island Campground and Cottages","website":"http://www.theislandcampground.com","addr":"22 Islanda Ct, East Lyme","elev_ft":79}},{"type":"Feature","geometry":{"type":"Point","coordinates":[-71.973694,41.509571]},"properties":{"kind":"campsite","src":"overture:meta","name":"Amos Lake Beach Club & Campground","website":"https://www.roverpass.com/c/amos-lake-campground-preston-ct","addr":"53 Hollowell Rd, Preston City","elev_ft":148}},{"type":"Feature","geometry":{"type":"Point","coordinates":[-71.867294,41.512512]},"properties":{"kind":"campsite","src":"overture:meta","name":"Camp Wightman","website":"http://www.campwightman.org/","addr":"207 Coal Pit Hill Rd, Jewett City","elev_ft":446}},{"type":"Feature","geometry":{"type":"Point","coordinates":[-71.852303,41.342541]},"properties":{"kind":"campsite","src":"overture:meta","name":"Camp Kitchtau","addr":"16 Brucker Pentway, Stonington","elev_ft":66}},{"type":"Feature","geometry":{"type":"Point","coordinates":[-72.427956,41.594105]},"properties":{"kind":"campsite","src":"overture:Foursquare","name":"Hartford County 4-H Camp","website":"http://www.hartfordcounty4hcamp.org","addr":"247 South Rd, Marlborough","elev_ft":285}},{"type":"Feature","geometry":{"type":"Point","coordinates":[-72.425591,41.781868]},"properties":{"kind":"campsite","src":"overture:meta","name":"Camp Johnson","website":"http://www.campjohnson.org","addr":"77 Johnson Rd, Bolton","elev_ft":499}},{"type":"Feature","geometry":{"type":"Point","coordinates":[-72.357544,41.778809]},"properties":{"kind":"campsite","src":"overture:meta","name":"Camp Creaser","website":"http://www.cga.ct.gov/2002/olrdata/env/rpt/2002-R-0303.htm","addr":"150 Case Rd, Coventry","elev_ft":472}},{"type":"Feature","geometry":{"type":"Point","coordinates":[-72.335915,41.714706]},"properties":{"kind":"campsite","src":"overture:meta","name":"Camp Asto Wamah","website":"http://www.campastowamah.org/","addr":"42 CT-87, Columbia","elev_ft":607}},{"type":"Feature","geometry":{"type":"Point","coordinates":[-72.117767,41.789631]},"properties":{"kind":"campsite","src":"overture:Foursquare","name":"Eden Camp & Retreat Center","website":"http://edenservices.org","addr":"108 England Rd, Chaplin","elev_ft":505}},{"type":"Feature","geometry":{"type":"Point","coordinates":[-71.932381,41.606209]},"properties":{"kind":"rv_park","src":"overture:meta","name":"Hopeville Hideaway RV Park and Campground","website":"http://www.hopevillehideaway.com/","addr":"28 Nowakowski Rd, Griswold","elev_ft":161}},{"type":"Feature","geometry":{"type":"Point","coordinates":[-71.794548,41.639156]},"properties":{"kind":"campsite","src":"overture:meta","name":"Circle C Campground","website":"http://www.campcirclec.com/","addr":"21 Bailey Pond Rd, Voluntown","elev_ft":367}},{"type":"Feature","geometry":{"type":"Point","coordinates":[-71.888535,41.769554]},"properties":{"kind":"campsite","src":"overture:meta","name":"Camp Quinebaug","website":"https://www.paypal.com/donate/?hosted_button_id=ZWT7B7ZNYHLMU","addr":"54 Taos Dr, Danielson","elev_ft":236}},{"type":"Feature","geometry":{"type":"Point","coordinates":[-71.796417,41.709454]},"properties":{"kind":"rv_park","src":"overture:meta","name":"Gibson Hill RV Park","website":"https://gibsonhillrvparkct.com/","addr":"177 Gibson Hill Rd, Sterling","elev_ft":518}},{"type":"Feature","geometry":{"type":"Point","coordinates":[-72.29258,42.002567]},"properties":{"kind":"campsite","src":"overture:meta","name":"Mineral Springs Family Campground","website":"http://www.mineralspringscampground.com","addr":"135 Leonard Rd, Stafford","elev_ft":823}},{"type":"Feature","geometry":{"type":"Point","coordinates":[-72.075188,41.969666]},"properties":{"kind":"campsite","src":"overture:Foursquare","name":"campanime.com","website":"http://www.campanime.com","addr":"42 Camp Rd, Woodstock","elev_ft":679}},{"type":"Feature","geometry":{"type":"Point","coordinates":[-72.053123,42.018955]},"properties":{"kind":"campsite","src":"overture:Foursquare","name":"Solair Nudist Resort","website":"http://www.solairrl.com","addr":"65 Ide Perrin Rd, Woodstock","elev_ft":673}},{"type":"Feature","geometry":{"type":"Point","coordinates":[-72.085365,42.005669]},"properties":{"kind":"campsite","src":"overture:meta","name":"Beaver Pines Campground","website":"http://www.beaverpinescampground.com/","addr":"1728 Route 198, Woodstock","elev_ft":817}},{"type":"Feature","geometry":{"type":"Point","coordinates":[-72.23439,41.888699]},"properties":{"kind":"campsite","src":"overture:meta","name":"Moosemeadow Camping Resort","website":"http://www.moosemeadow.com/","addr":"28 Kechkes Rd, Willington","elev_ft":522}},{"type":"Feature","geometry":{"type":"Point","coordinates":[-72.025818,41.878357]},"properties":{"kind":"campsite","src":"overture:meta","name":"Windham-Tolland 4-H Camp","website":"http://www.4hcampct.org/","addr":"326 Taft Pond Rd, Pomfret Center","elev_ft":541}},{"type":"Feature","geometry":{"type":"Point","coordinates":[-71.81414,41.853012]},"properties":{"kind":"campsite","src":"overture:meta","name":"Hideaway Cove Family Campground","website":"http://www.hide-away-covefamilycampground.com/","addr":"1060 North Rd, Killingly","elev_ft":682}},{"type":"Feature","geometry":{"type":"Point","coordinates":[-71.962975,42.021111]},"properties":{"kind":"campsite","src":"overture:Foursquare","name":"Meadowside Woodstock","website":"http://www.meadowside-of-woodstock.com","addr":"25 Route 197, Woodstock","elev_ft":502}},{"type":"Feature","geometry":{"type":"Point","coordinates":[-71.926598,41.602184]},"properties":{"kind":"campsite","src":"overture:meta","name":"Hopeville campground","website":"www.reserveamerica.com/camping/hopeville-pond-state-park/r/...","elev_ft":174}},{"type":"Feature","geometry":{"type":"Point","coordinates":[-73.172264,42.006886]},"properties":{"kind":"campsite","src":"overture:meta","name":"Camp Barbour, BSA","website":"https://campreservation.com/066/Camps/127","addr":"333 Loon Meadow Dr, Norfolk","elev_ft":1473}},{"type":"Feature","geometry":{"type":"Point","coordinates":[-72.057678,41.537785]},"properties":{"kind":"campsite","src":"overture:meta","name":"Salem Farms Campground, LLC","website":"http://www.SalemFarmsCampground.com/","elev_ft":151}},{"type":"Feature","geometry":{"type":"Point","coordinates":[-72.55941,41.273819]},"properties":{"kind":"rv_park","src":"overture:meta","name":"Hammonasset Beach Campground","website":"http://eventseeker.com","addr":"1288 Boston Post Rd, Madison","elev_ft":16}},{"type":"Feature","geometry":{"type":"Point","coordinates":[-72.583145,41.307682]},"properties":{"kind":"campsite","src":"overture:meta","name":"Riverdale Farm Campsite","website":"http://www.riverdalefarmcampsite.com","addr":"111 River Rd, Clinton","elev_ft":23}},{"type":"Feature","geometry":{"type":"Point","coordinates":[-72.832275,41.258095]},"properties":{"kind":"campsite","src":"overture:meta","name":"Sunrise Cove Camp","website":"https://www.arivify.com/property/search/US0knGJmZ","addr":"Sunrise Cove Rd, Branford","elev_ft":-3}},{"type":"Feature","geometry":{"type":"Point","coordinates":[-73.010223,41.24675]},"properties":{"kind":"rv_park","src":"overture:meta","name":"I-95 Milford SB Service Plaza","addr":"I-95 Connecticut Tpke, Milford","elev_ft":82}},{"type":"Feature","geometry":{"type":"Point","coordinates":[-72.250847,41.316307]},"properties":{"kind":"campsite","src":"overture:meta","name":"Camp Niantic by the Atlantic","website":"http://www.CampNiantic.net/","addr":"271 W Main St, Niantic","elev_ft":115}},{"type":"Feature","geometry":{"type":"Point","coordinates":[-72.490295,41.781033]},"properties":{"kind":"campsite","src":"overture:meta","name":"Cross Mtn Campground","website":"http://Ioadventures.com/","addr":"760 miracle mtn rd, Manchester","elev_ft":499}},{"type":"Feature","geometry":{"type":"Point","coordinates":[-73.50988,41.665276]},"properties":{"kind":"campsite","src":"overture:meta","name":"Ten Mile River Shelter","website":"http://tnlandforms.us/at/m.php?wpt=TenMileR","elev_ft":371}},{"type":"Feature","geometry":{"type":"Point","coordinates":[-71.962234,41.391285]},"properties":{"kind":"campsite","src":"overture:Microsoft","name":"Sun Outdoors Mystic","website":"https://www.sunoutdoors.com/connecticut/sun-outdoors-mystic?utm_source=bing&utm_medium=organic&utm_campaign=bing_listing","addr":"45 Camp Ground Rd, Old Mystic","elev_ft":56}},{"type":"Feature","geometry":{"type":"Point","coordinates":[-71.869179,41.955013]},"properties":{"kind":"campsite","src":"overture:meta","name":"Camp Stonewall","website":"https://linktr.ee/campstonewall","addr":"26 Chase Rd, Thompson","elev_ft":541}},{"type":"Feature","geometry":{"type":"Point","coordinates":[-72.178497,41.889252]},"properties":{"kind":"campsite","src":"overture:meta","name":"Bourque Day Site 174 Brialee","addr":"174 Laurel Ln, Ashford","elev_ft":561}},{"type":"Feature","geometry":{"type":"Point","coordinates":[-72.301689,41.629452]},"properties":{"kind":"campsite","src":"overture:meta","name":"Friends of Lake Williams - FLW","website":"http://friendsoflakewilliams.org/","addr":"1690 Exeter Rd, Lebanon","elev_ft":453}},{"type":"Feature","geometry":{"type":"Point","coordinates":[-72.09417,41.918705]},"properties":{"kind":"campsite","src":"overture:meta","name":"Camp Nahaco","website":"http://nahacopark.placeweb.site/","elev_ft":676}},{"type":"Feature","geometry":{"type":"Point","coordinates":[-72.634438,41.290588]},"properties":{"kind":"campsite","src":"overture:meta","name":"Hammonasset Camp Ground","website":"https://hammonasset.org/camping.html","addr":"41 Allison Dr, Madison","elev_ft":46}},{"type":"Feature","geometry":{"type":"Point","coordinates":[-71.926476,41.60508]},"properties":{"kind":"campsite","src":"overture:meta","name":"Hopeville Pond Canoe Campground","addr":"Hopeville Pond State Park, 929 Hopeville Rd, Griswold","elev_ft":171}},{"type":"Feature","geometry":{"type":"Point","coordinates":[-71.830635,41.941822]},"properties":{"kind":"campsite","src":"overture:meta","name":"Quaddick Camping Area","addr":"440 Quaddick Rd, Thompson","elev_ft":427}},{"type":"Feature","geometry":{"type":"Point","coordinates":[-72.583267,41.310432]},"properties":{"kind":"campsite","src":"overture:Foursquare","name":"riverdale campgrounds","website":"http://riverdalefarmcampsites.com","addr":"111 River Rd, Clinton","elev_ft":49}},{"type":"Feature","geometry":{"type":"Point","coordinates":[-73.283493,41.696129]},"properties":{"kind":"campsite","src":"overture:Foursquare","name":"Eagle Rock Day Camp","website":"http://www.eaglerockday.com","addr":"27 Mount Tom Rd, New Preston Marble Dale","elev_ft":915}},{"type":"Feature","geometry":{"type":"Point","coordinates":[-72.880325,41.76123]},"properties":{"kind":"campsite","src":"overture:Foursquare","name":"Lions Club Camp Happy Hill","website":"https://farmington-ct.connecticut-places.com/lions-club-camp-happy-hill.html","addr":"87 W Avon Rd, Unionville","elev_ft":305}},{"type":"Feature","geometry":{"type":"Point","coordinates":[-73.261726,41.795242]},"properties":{"kind":"campsite","src":"overture:Foursquare","name":"Valley In The Pines Campground","website":"http://www.valleyinthepinescampground.com","addr":"36 Lucas Rd, Goshen","elev_ft":1263}},{"type":"Feature","geometry":{"type":"Point","coordinates":[-73.252075,41.787029]},"properties":{"kind":"campsite","src":"overture:Foursquare","name":"Helmlock Hill Cooperative Camp Resort","website":"http://www.hemlockhillcampcoop.com","addr":"118 Hemlock Hill Rd, Litchfield","elev_ft":1161}},{"type":"Feature","geometry":{"type":"Point","coordinates":[-73.255501,41.782295]},"properties":{"kind":"campsite","src":"overture:Foursquare","name":"Hemlock Hill Camp Co-Operative","website":"http://hemlockhillcampcoop.com","addr":"118 Hemlock Hill Rd, Litchfield","elev_ft":1211}},{"type":"Feature","geometry":{"type":"Point","coordinates":[-73.23362,41.825176]},"properties":{"kind":"campsite","src":"overture:Foursquare","name":"Camp cochipianee","website":"http://goshenct.gov","addr":"291 Beach St, Goshen","elev_ft":1339}},{"type":"Feature","geometry":{"type":"Point","coordinates":[-73.139511,41.885704]},"properties":{"kind":"campsite","src":"overture:Foursquare","name":"Camp Wah-Nee","website":"http://www.wahnee.com","addr":"125 Wahnee Rd., Torrington","elev_ft":1178}},{"type":"Feature","geometry":{"type":"Point","coordinates":[-72.766273,41.999683]},"properties":{"kind":"campsite","src":"overture:Foursquare","name":"The Quarry Campground","website":"https://www.thequarrycampground.com","addr":"704 Shenipsit Lake Rd, Tolland","elev_ft":240}},{"type":"Feature","geometry":{"type":"Point","coordinates":[-72.467293,41.349609]},"properties":{"kind":"campsite","src":"overture:Foursquare","name":"Bushy Hill Nature Centre","website":"http://www.bushyhill.org","addr":"253 Bushy Hill Rd, Deep River","elev_ft":341}},{"type":"Feature","geometry":{"type":"Point","coordinates":[-72.393661,41.766037]},"properties":{"kind":"campsite","src":"overture:Foursquare","name":"Nature's Classroom","website":"http://www.naturesclassroom.org","addr":"73 Times Farm Rd, Coventry","elev_ft":404}},{"type":"Feature","geometry":{"type":"Point","coordinates":[-72.262337,41.717613]},"properties":{"kind":"campsite","src":"overture:Foursquare","name":"Camp Care","website":"http://www.campcarekids.org","addr":"106 Route 66 E, Columbia","elev_ft":364}},{"type":"Feature","geometry":{"type":"Point","coordinates":[-72.158661,41.559143]},"properties":{"kind":"campsite","src":"overture:Foursquare","name":"Odetah Campground","website":"http://www.odetah.com","addr":"38 Bozrah St, Bozrah","elev_ft":190}},{"type":"Feature","geometry":{"type":"Point","coordinates":[-71.795494,41.848167]},"properties":{"kind":"campsite","src":"overture:Foursquare","name":"State Line Camping Club","website":"http://www.statelinecampresort.com","addr":"1639 Hartford Pike, East Killingly","elev_ft":643}},{"type":"Feature","geometry":{"type":"Point","coordinates":[-71.796219,41.746765]},"properties":{"kind":"campsite","src":"overture:Foursquare","name":"Sun Ridge Nudist Resort","website":"http://www.sunridge1.com","addr":"131 Calvin French Rd, Sterling","elev_ft":643}},{"type":"Feature","geometry":{"type":"Point","coordinates":[-72.149048,41.877296]},"properties":{"kind":"campsite","src":"overture:Foursquare","name":"June Norcross Webster Scout Reservation","website":"http://www.gotowebster.org","addr":"231 Ashford Center Rd, Ashford","elev_ft":535}},{"type":"Feature","geometry":{"type":"Point","coordinates":[-72.524239,41.409302]},"properties":{"kind":"campsite","src":"overture:meta","name":"Pattaconk Recreation Area","addr":"State Forest Rd, Chester","elev_ft":358}},{"type":"Feature","geometry":{"type":"Point","coordinates":[-72.708557,41.683533]},"properties":{"kind":"campsite","src":"overture:meta","name":"Camp An Se-Ox","website":"https://camp-an-se-ox-ct-2.hub.biz/","addr":"47 Condon Rd, Newington","elev_ft":177}},{"type":"Feature","geometry":{"type":"Point","coordinates":[-72.093826,41.353947]},"properties":{"kind":"campsite","src":"overture:meta","name":"Bryant Creek Event Park","addr":"28310 State Hwy 14, New London","elev_ft":39}},{"type":"Feature","geometry":{"type":"Point","coordinates":[-72.141937,41.871967]},"properties":{"kind":"rv_park","src":"overture:meta","name":"Boy Scouts of America","website":"http://www.scouting.org/","addr":"231 Ashford Center Rd, Ashford","elev_ft":646}},{"type":"Feature","geometry":{"type":"Point","coordinates":[-73.115135,41.829239]},"properties":{"kind":"campsite","src":"overture:meta","name":"Rising Star Camp","website":"https://www.nwcty.org/programs/137/camps-summer-programs/#division_695","addr":"180 Guerdat Rd, Torrington","elev_ft":932}},{"type":"Feature","geometry":{"type":"Point","coordinates":[-73.190758,41.342781]},"properties":{"kind":"campsite","src":"overture:meta","name":"Webb Mountain","elev_ft":630}},{"type":"Feature","geometry":{"type":"Point","coordinates":[-72.425827,41.779152]},"properties":{"kind":"campsite","src":"overture:meta","name":"John & Fredrica Johnson Memorial Camp","website":"http://www.campjohnson.org","addr":"65 Johnson Rd, Bolton","elev_ft":541}},{"type":"Feature","geometry":{"type":"Point","coordinates":[-73.162476,41.644928]},"properties":{"kind":"campsite","src":"overture:meta","name":"Judd Farm Day Camp & Nature Center","website":"http://www.juddfarmsummercamp.com","addr":"1680 Guernseytown Rd, Watertown","elev_ft":928}},{"type":"Feature","geometry":{"type":"Point","coordinates":[-72.421227,41.406967]},"properties":{"kind":"campsite","src":"overture:meta","name":"Seldon's Island","elev_ft":23}},{"type":"Feature","geometry":{"type":"Point","coordinates":[-71.811058,41.577187]},"properties":{"kind":"campsite","src":"overture:meta","name":"Circle C Campground","addr":"93 Ten Rod Rd, Voluntown","elev_ft":472}},{"type":"Feature","geometry":{"type":"Point","coordinates":[-72.15686,41.559544]},"properties":{"kind":"campsite","src":"overture:meta","name":"Cravens camp","addr":"38 Bozrah St Ext, Bozrah","elev_ft":243}},{"type":"Feature","geometry":{"type":"Point","coordinates":[-71.840103,41.424778]},"properties":{"kind":"rv_park","src":"overture:meta","name":"Highland Orchards Resort Park & Trailer Sales","website":"http://www.highlandorchards.com","addr":"118 Pendleton Hill Rd, North Stonington","elev_ft":203}},{"type":"Feature","geometry":{"type":"Point","coordinates":[-71.875656,41.497063]},"properties":{"kind":"campsite","src":"overture:meta","name":"Legend Woods Adirondack Shelter","elev_ft":436}},{"type":"Feature","geometry":{"type":"Point","coordinates":[-71.950516,41.567478]},"properties":{"kind":"campsite","src":"overture:meta","name":"Pachaug Marina & Campground Assoclation Inc","addr":"79 Crary Rd, Jewett City","elev_ft":299}},{"type":"Feature","geometry":{"type":"Point","coordinates":[-71.817657,41.691833]},"properties":{"kind":"rv_park","src":"overture:meta","name":"Froggy\u2019s RV world","addr":"1061 Plainfield Pike, Sterling","elev_ft":413}},{"type":"Feature","geometry":{"type":"Point","coordinates":[-72.566185,41.270718]},"properties":{"kind":"campsite","src":"overture:meta","name":"Hammonasset Beach Campground","website":"http://eventseeker.com","addr":"1288 Boston Post Rd, Madison","elev_ft":10}},{"type":"Feature","geometry":{"type":"Point","coordinates":[-72.098816,41.925251]},"properties":{"kind":"campsite","src":"overture:meta","name":"Camp Wabbaquassett","website":"https://fccwillimantic.wordpress.com","elev_ft":696}},{"type":"Feature","geometry":{"type":"Point","coordinates":[-72.40715,42.017235]},"properties":{"kind":"rv_park","src":"overture:meta","name":"YWCA Camp Aya-PO","website":"http://www.ywcahartford.org","addr":"1 Camp Rd, Somers","elev_ft":758}},{"type":"Feature","geometry":{"type":"Point","coordinates":[-73.368362,41.666737]},"properties":{"kind":"campsite","src":"overture:meta","name":"Mountain Lake Camps","website":"http://www.mountainlakebiblecamp.com","addr":"64 Mountain Lake Rd, Warren","elev_ft":679}},{"type":"Feature","geometry":{"type":"Point","coordinates":[-72.886871,41.529339]},"properties":{"kind":"campsite","src":"overture:meta","name":"Holiday Hill Day Camp","website":"http://www.holidayhilldaycamp.com","addr":"161 Braemar Dr, Cheshire","elev_ft":200}},{"type":"Feature","geometry":{"type":"Point","coordinates":[-73.066667,41.513333]},"properties":{"kind":"campsite","src":"ridb","name":"Hop Brook Lake Recreation Area","reservation":"yes","addr":"Middlebury","elev_ft":430}},{"type":"Feature","geometry":{"type":"Point","coordinates":[-73.091667,41.6875]},"properties":{"kind":"campsite","src":"ridb","name":"Northfield Brook Lake Group Shelters","reservation":"yes","addr":"Thomaston","elev_ft":594}}]}