{"type":"FeatureCollection","attribution":"OSM (ODbL) via Overpass; Overture Maps Foundation (CDLA-P-2.0/Apache-2.0/CC0); Recreation.gov RIDB (CC-BY 4.0). See data/ATTRIBUTION.md. Generated 2026-07-23.","features":[{"type":"Feature","geometry":{"type":"Point","coordinates":[-156.237662,20.768512]},"properties":{"kind":"campsite","src":"osm","osm":"node/571276260","name":"Hosmer Grove","access":"permit","operator":"Haleakal\u0101 National Park","elev_ft":6795}},{"type":"Feature","geometry":{"type":"Point","coordinates":[-155.15026,19.373938]},"properties":{"kind":"campsite","src":"osm","osm":"node/1314859809","name":"N\u0101pau Crater Camp Site","drinking_water":"no","elev_ft":2785}},{"type":"Feature","geometry":{"type":"Point","coordinates":[-156.615759,20.809767]},"properties":{"kind":"campsite","src":"osm","osm":"node/1457211763","name":"Camp Olowalu","website":"https://www.campolowalu.com/","elev_ft":10}},{"type":"Feature","geometry":{"type":"Point","coordinates":[-156.554469,20.592406]},"properties":{"kind":"campsite","src":"osm","osm":"node/2128329480","elev_ft":46}},{"type":"Feature","geometry":{"type":"Point","coordinates":[-159.654243,22.131733]},"properties":{"kind":"campsite","src":"osm","osm":"node/2143980092","name":"Kokee campground","elev_ft":3757}},{"type":"Feature","geometry":{"type":"Point","coordinates":[-159.496669,22.213619]},"properties":{"kind":"campsite","src":"osm","osm":"node/2143994109","name":"Hanalai Black Pot Beach County Park","elev_ft":33}},{"type":"Feature","geometry":{"type":"Point","coordinates":[-159.620494,22.190581]},"properties":{"kind":"campsite","src":"osm","osm":"node/2145424745","name":"Hanakoa Camping","elev_ft":489}},{"type":"Feature","geometry":{"type":"Point","coordinates":[-159.607318,21.900318]},"properties":{"kind":"campsite","src":"osm","osm":"node/2378611821","name":"Salt Pond Beach Park","operator":"Kauai County","elev_ft":13}},{"type":"Feature","geometry":{"type":"Point","coordinates":[-159.642194,22.062999]},"properties":{"kind":"campsite","src":"osm","osm":"node/2610385423","name":"Wiliwili Camp","elev_ft":771}},{"type":"Feature","geometry":{"type":"Point","coordinates":[-159.56566,22.22004]},"properties":{"kind":"campsite","src":"osm","osm":"node/3840268772","elev_ft":220}},{"type":"Feature","geometry":{"type":"Point","coordinates":[-155.934999,19.850023]},"properties":{"kind":"campsite","src":"osm","osm":"node/3954397557","name":"Malama Kiholo","website":"https://camping.ehawaii.gov/camping/all,details,57781.html","elev_ft":16}},{"type":"Feature","geometry":{"type":"Point","coordinates":[-159.656911,22.173267]},"properties":{"kind":"campsite","src":"osm","osm":"node/4198386057","name":"Kalalau Camping","elev_ft":243}},{"type":"Feature","geometry":{"type":"Point","coordinates":[-158.182511,21.580562]},"properties":{"kind":"campsite","src":"osm","osm":"node/4234911890","name":"Camp Mokuleia","website":"www.campmokuleia.com","elev_ft":13}},{"type":"Feature","geometry":{"type":"Point","coordinates":[-158.229698,21.485625]},"properties":{"kind":"campsite","src":"osm","osm":"node/4686101189","name":"Kea'au Beach Park","elev_ft":20}},{"type":"Feature","geometry":{"type":"Point","coordinates":[-157.938348,21.669982]},"properties":{"kind":"campsite","src":"osm","osm":"node/4879595721","name":"Malaekahana Beach Campground","website":"https://malaekahana.net/","elev_ft":39}},{"type":"Feature","geometry":{"type":"Point","coordinates":[-159.449712,22.224655]},"properties":{"kind":"campsite","src":"osm","osm":"node/5281231922","name":"Anini Beach Camping","website":"https://www.kauai.gov/camping","elev_ft":10}},{"type":"Feature","geometry":{"type":"Point","coordinates":[-159.300612,22.145615]},"properties":{"kind":"campsite","src":"osm","osm":"node/5281231923","name":"Anahola Beach Park Camping","website":"https://www.kauai.gov/camping","elev_ft":26}},{"type":"Feature","geometry":{"type":"Point","coordinates":[-159.665501,21.953403]},"properties":{"kind":"campsite","src":"osm","osm":"node/5281238521","website":"https://www.kauai.gov/camping","elev_ft":16}},{"type":"Feature","geometry":{"type":"Point","coordinates":[-159.335152,22.041317]},"properties":{"kind":"campsite","src":"osm","osm":"node/5281238522","name":"Lydgate Beach Park Camping","website":"https://www.kauai.gov/camping","elev_ft":26}},{"type":"Feature","geometry":{"type":"Point","coordinates":[-155.521091,20.067308]},"properties":{"kind":"campsite","src":"osm","osm":"node/5460612833","name":"Boy Scout Camp Honokaia","access":"private","operator":"Boy Scouts of America Aloha Council","website":"https://www.scoutinghawaii.org/camp-hawaii","elev_ft":2316}},{"type":"Feature","geometry":{"type":"Point","coordinates":[-159.305378,22.146587]},"properties":{"kind":"campsite","src":"osm","osm":"node/5538916160","name":"Kumu camp","drinking_water":"yes","toilets":"yes","elev_ft":39}},{"type":"Feature","geometry":{"type":"Point","coordinates":[-159.553352,22.223864]},"properties":{"kind":"campsite","src":"osm","osm":"node/5541678427","name":"Camp Naue","elev_ft":39}},{"type":"Feature","geometry":{"type":"Point","coordinates":[-157.875622,21.55656]},"properties":{"kind":"campsite","src":"osm","osm":"node/5570858904","name":"Kahana campground","operator":"state of Hawaii","desc":"State Park","elev_ft":39}},{"type":"Feature","geometry":{"type":"Point","coordinates":[-156.329909,20.677402]},"properties":{"kind":"campsite","src":"osm","osm":"node/5570858905","name":"Polipoli Springs State Recreation Area","operator":"State of Hawaii","elev_ft":6404}},{"type":"Feature","geometry":{"type":"Point","coordinates":[-155.897942,19.379725]},"properties":{"kind":"campsite","src":"osm","osm":"node/5570858907","name":"Ho'okena beach park","elev_ft":23}},{"type":"Feature","geometry":{"type":"Point","coordinates":[-156.522856,20.778108]},"properties":{"kind":"campsite","src":"osm","osm":"node/5585735222","name":"maybe camping","elev_ft":33}},{"type":"Feature","geometry":{"type":"Point","coordinates":[-156.585201,21.016114]},"properties":{"kind":"campsite","src":"osm","osm":"node/5589068122","name":"camping","elev_ft":279}},{"type":"Feature","geometry":{"type":"Point","coordinates":[-158.131687,21.359876]},"properties":{"kind":"water","src":"osm","osm":"node/5604980824","name":"Electric Beach","elev_ft":30}},{"type":"Feature","geometry":{"type":"Point","coordinates":[-159.650574,22.123765]},"properties":{"kind":"campsite","src":"osm","osm":"node/5648654631","name":"YWCA Camp Sloggett","fee":"yes","elev_ft":3543}},{"type":"Feature","geometry":{"type":"Point","coordinates":[-159.621691,22.131293]},"properties":{"kind":"campsite","src":"osm","osm":"node/5648684022","name":"Sugi Grove","fee":"yes","operator":"Hawaii Department of Land and Natural Resources","website":"https://camping.ehawaii.gov/camping/","toilets":"yes","elev_ft":3543}},{"type":"Feature","geometry":{"type":"Point","coordinates":[-159.622885,22.124936]},"properties":{"kind":"campsite","src":"osm","osm":"node/5648685323","name":"Waiakoali","elev_ft":3458}},{"type":"Feature","geometry":{"type":"Point","coordinates":[-158.058009,21.301255]},"properties":{"kind":"campsite","src":"osm","osm":"node/5648959222","name":"Kalaeloa Beach Park","elev_ft":33}},{"type":"Feature","geometry":{"type":"Point","coordinates":[-157.694473,21.331411]},"properties":{"kind":"campsite","src":"osm","osm":"node/5648977521","name":"Waimanalo beach park","website":"https://web1.hnl.info/camping/campsites/64b8436845102ee1dbbee674","elev_ft":43}},{"type":"Feature","geometry":{"type":"Point","coordinates":[-159.621437,22.092672]},"properties":{"kind":"campsite","src":"osm","osm":"node/5653297237","name":"End trail","elev_ft":1621}},{"type":"Feature","geometry":{"type":"Point","coordinates":[-159.645265,22.070821]},"properties":{"kind":"campsite","src":"osm","osm":"node/5653297238","name":"Kaluahaulu","elev_ft":932}},{"type":"Feature","geometry":{"type":"Point","coordinates":[-159.640106,22.080572]},"properties":{"kind":"campsite","src":"osm","osm":"node/5653297239","name":"Hipalau","elev_ft":1010}},{"type":"Feature","geometry":{"type":"Point","coordinates":[-159.585779,22.082792]},"properties":{"kind":"campsite","src":"osm","osm":"node/5653321242","name":"Waialae","elev_ft":3678}},{"type":"Feature","geometry":{"type":"Point","coordinates":[-159.623363,22.089619]},"properties":{"kind":"campsite","src":"osm","osm":"node/5653321526","name":"Lonomea","elev_ft":1460}},{"type":"Feature","geometry":{"type":"Point","coordinates":[-157.003026,21.173249]},"properties":{"kind":"campsite","src":"osm","osm":"node/5709023324","name":"Camping","elev_ft":1670}},{"type":"Feature","geometry":{"type":"Point","coordinates":[-157.681985,21.3254]},"properties":{"kind":"water","src":"osm","osm":"node/5981284338","elev_ft":10}},{"type":"Feature","geometry":{"type":"Point","coordinates":[-159.681655,22.101068]},"properties":{"kind":"campsite","src":"osm","osm":"node/6160091493","name":"Camp Hale Koa","fee":"yes","website":"http://camphalekoa.com/","elev_ft":3278}},{"type":"Feature","geometry":{"type":"Point","coordinates":[-155.068286,19.724852]},"properties":{"kind":"water","src":"osm","osm":"node/6326279086","name":"Block Ice Seller","elev_ft":30}},{"type":"Feature","geometry":{"type":"Point","coordinates":[-159.679488,22.106381]},"properties":{"kind":"campsite","src":"osm","osm":"node/6328371291","name":"Camp Alan Faye","fee":"yes","access":"private","website":"https://www.scoutinghawaii.org/camp-alan-faye-summer-camp","elev_ft":3317}},{"type":"Feature","geometry":{"type":"Point","coordinates":[-155.824955,19.109148]},"properties":{"kind":"campsite","src":"osm","osm":"node/7107922561","elev_ft":1808}},{"type":"Feature","geometry":{"type":"Point","coordinates":[-155.505379,19.133879]},"properties":{"kind":"campsite","src":"osm","osm":"node/7134393485","name":"Black Sand Beach Park Camp","access":"permit","operator":"County of Hawai'i","website":"https://hawaiicounty.ehawaii.gov/camping/all,details,57790.html","reservation":"required","elev_ft":16}},{"type":"Feature","geometry":{"type":"Point","coordinates":[-155.550893,19.085199]},"properties":{"kind":"campsite","src":"osm","osm":"node/7134393585","name":"Whittington Beach Park","website":"https://www.parks.hawaiicounty.gov/Home/Components/FacilityDirectory/FacilityDirectory/653/1912","elev_ft":26}},{"type":"Feature","geometry":{"type":"Point","coordinates":[-159.62222,22.131711]},"properties":{"kind":"campsite","src":"osm","osm":"node/7831200295","name":"Kawaikoi","fee":"yes","operator":"Hawaii Department of Land and Natural Resources","website":"https://camping.ehawaii.gov/camping/","toilets":"yes","elev_ft":3474}},{"type":"Feature","geometry":{"type":"Point","coordinates":[-155.613547,18.971143]},"properties":{"kind":"campsite","src":"osm","osm":"node/8702271653","elev_ft":7}},{"type":"Feature","geometry":{"type":"Point","coordinates":[-156.31165,20.683877]},"properties":{"kind":"campsite","src":"osm","osm":"node/9253849081","elev_ft":7369}},{"type":"Feature","geometry":{"type":"Point","coordinates":[-155.30072,19.260926]},"properties":{"kind":"campsite","src":"osm","osm":"node/10566510082","name":"Ka'aha","elev_ft":-79}},{"type":"Feature","geometry":{"type":"Point","coordinates":[-155.194976,19.258728]},"properties":{"kind":"campsite","src":"osm","osm":"node/10566510241","name":"\u2019Apua Point","elev_ft":0}},{"type":"Feature","geometry":{"type":"Point","coordinates":[-155.254319,19.270522]},"properties":{"kind":"campsite","src":"osm","osm":"node/10566531605","name":"Halap\u0113","elev_ft":16}},{"type":"Feature","geometry":{"type":"Point","coordinates":[-155.375241,19.849408]},"properties":{"kind":"campsite","src":"osm","osm":"node/10596845704","elev_ft":8406}},{"type":"Feature","geometry":{"type":"Point","coordinates":[-155.612147,18.971805]},"properties":{"kind":"campsite","src":"osm","osm":"node/10605348265","elev_ft":10}},{"type":"Feature","geometry":{"type":"Point","coordinates":[-155.612251,18.970903]},"properties":{"kind":"campsite","src":"osm","osm":"node/10605348267","elev_ft":7}},{"type":"Feature","geometry":{"type":"Point","coordinates":[-155.611593,18.969089]},"properties":{"kind":"campsite","src":"osm","osm":"node/10605348271","elev_ft":7}},{"type":"Feature","geometry":{"type":"Point","coordinates":[-155.611597,18.970084]},"properties":{"kind":"campsite","src":"osm","osm":"node/10605348272","elev_ft":13}},{"type":"Feature","geometry":{"type":"Point","coordinates":[-155.610735,18.967701]},"properties":{"kind":"campsite","src":"osm","osm":"node/10605348283","elev_ft":-3}},{"type":"Feature","geometry":{"type":"Point","coordinates":[-155.600117,18.970494]},"properties":{"kind":"campsite","src":"osm","osm":"node/10605351207","elev_ft":13}},{"type":"Feature","geometry":{"type":"Point","coordinates":[-155.599043,18.975265]},"properties":{"kind":"campsite","src":"osm","osm":"node/10605351235","elev_ft":10}},{"type":"Feature","geometry":{"type":"Point","coordinates":[-155.617102,18.970611]},"properties":{"kind":"campsite","src":"osm","osm":"node/10605351243","elev_ft":13}},{"type":"Feature","geometry":{"type":"Point","coordinates":[-155.260158,19.271381]},"properties":{"kind":"campsite","src":"osm","osm":"node/12452291578","elev_ft":72}},{"type":"Feature","geometry":{"type":"Point","coordinates":[-155.259936,19.2714]},"properties":{"kind":"campsite","src":"osm","osm":"node/12452291579","elev_ft":72}},{"type":"Feature","geometry":{"type":"Point","coordinates":[-156.044178,20.659777]},"properties":{"kind":"campsite","src":"osm","osm":"way/44996414","name":"K\u012bpahulu Campground","elev_ft":52}},{"type":"Feature","geometry":{"type":"Point","coordinates":[-155.295115,19.425872]},"properties":{"kind":"campsite","src":"osm","osm":"way/45757871","name":"Namakani Paio","elev_ft":3957}},{"type":"Feature","geometry":{"type":"Point","coordinates":[-156.001047,20.786552]},"properties":{"kind":"campsite","src":"osm","osm":"way/232208128","name":"Wai\u02bb\u0101napanapa State Park","fee":"no","website":"https://dlnr.hawaii.gov/dsp/parks/maui/waianapanapa-state-park/","elev_ft":52}},{"type":"Feature","geometry":{"type":"Point","coordinates":[-157.894044,21.331767]},"properties":{"kind":"campsite","src":"osm","osm":"way/468253439","name":"Ke'ehi Lagoon Memorial","website":"https://klmemorial.org/","elev_ft":23}},{"type":"Feature","geometry":{"type":"Point","coordinates":[-158.225171,21.57797]},"properties":{"kind":"campsite","src":"osm","osm":"way/508712156","name":"YMCA Camp Erdman - Summer Camp","elev_ft":49}},{"type":"Feature","geometry":{"type":"Point","coordinates":[-155.274135,19.34383]},"properties":{"kind":"campsite","src":"osm","osm":"way/599121113","name":"Kulanaokuaiki Campground","operator":"NPS","drinking_water":"no","elev_ft":3176}},{"type":"Feature","geometry":{"type":"Point","coordinates":[-155.354125,19.584424]},"properties":{"kind":"campsite","src":"osm","osm":"way/807317307","name":"Waiakea Camp Site","elev_ft":6152}},{"type":"Feature","geometry":{"type":"Point","coordinates":[-155.051223,19.730684]},"properties":{"kind":"rv_park","src":"osm","osm":"way/868612394","name":"Trailer Parking","elev_ft":69}},{"type":"Feature","geometry":{"type":"Point","coordinates":[-155.234195,19.266931]},"properties":{"kind":"campsite","src":"osm","osm":"way/1346283600","name":"Keauhou Campsite","fee":"yes","access":"permit","operator":"National Park Service","drinking_water":"yes","elev_ft":13}},{"type":"Feature","geometry":{"type":"Point","coordinates":[-155.254057,19.270285]},"properties":{"kind":"campsite","src":"osm","osm":"way/1346284944","name":"Halap\u0113 Campsite","fee":"yes","access":"permit","operator":"National Park Service","drinking_water":"yes","elev_ft":16}},{"type":"Feature","geometry":{"type":"Point","coordinates":[-156.003599,20.787457]},"properties":{"kind":"campsite","src":"osm","osm":"way/1346347784","name":"Wai\u02bb\u0101napanapa State Park Campground","access":"permit","operator":"Department of Land and Natural Resources","elev_ft":82}},{"type":"Feature","geometry":{"type":"Point","coordinates":[-156.568126,20.792956]},"properties":{"kind":"campsite","src":"osm","osm":"way/1346360490","name":"Papalaua Wayside Park","fee":"yes","access":"permit","operator":"Maui County","elev_ft":20}},{"type":"Feature","geometry":{"type":"Point","coordinates":[-156.142547,20.717976]},"properties":{"kind":"campsite","src":"osm","osm":"way/1346402551","name":"Palik\u016b Campground","fee":"yes","access":"permit","operator":"National Park Service","elev_ft":6404}},{"type":"Feature","geometry":{"type":"Point","coordinates":[-156.218652,20.739714]},"properties":{"kind":"campsite","src":"osm","osm":"way/1346407996","name":"H\u014dlua Campground","fee":"yes","access":"permit","operator":"National Park Service","elev_ft":7008}},{"type":"Feature","geometry":{"type":"Point","coordinates":[-157.806066,21.263524]},"properties":{"kind":"trailhead","src":"osm","osm":"node/456322066","name":"Diamond Head Summit Trail","elev_ft":230}},{"type":"Feature","geometry":{"type":"Point","coordinates":[-155.367466,19.368876]},"properties":{"kind":"trailhead","src":"osm","osm":"node/581878067","name":"Kau Desert Trailhead","operator":"National Park Service","elev_ft":3048}},{"type":"Feature","geometry":{"type":"Point","coordinates":[-156.025734,19.795275]},"properties":{"kind":"trailhead","src":"osm","osm":"node/582114935","elev_ft":20}},{"type":"Feature","geometry":{"type":"Point","coordinates":[-159.472592,22.201737]},"properties":{"kind":"trailhead","src":"osm","osm":"node/583189995","elev_ft":46}},{"type":"Feature","geometry":{"type":"Point","coordinates":[-159.582714,22.220421]},"properties":{"kind":"trailhead","src":"osm","osm":"node/583196385","name":"Kalalau Trail Head","elev_ft":344}},{"type":"Feature","geometry":{"type":"Point","coordinates":[-156.620518,20.979684]},"properties":{"kind":"trailhead","src":"osm","osm":"node/983447654","name":"Maunalei Aboretum Trailhead","elev_ft":1266}},{"type":"Feature","geometry":{"type":"Point","coordinates":[-157.691935,21.280847]},"properties":{"kind":"trailhead","src":"osm","osm":"node/1710671881","elev_ft":322}},{"type":"Feature","geometry":{"type":"Point","coordinates":[-156.650721,21.004043]},"properties":{"kind":"trailhead","src":"osm","osm":"node/1843335189","name":"Mahana Ridge Trail Trailhead","elev_ft":36}},{"type":"Feature","geometry":{"type":"Point","coordinates":[-159.648744,22.1414]},"properties":{"kind":"trailhead","src":"osm","osm":"node/2124183889","name":"Awa'awapuhi Trail","elev_ft":4091}},{"type":"Feature","geometry":{"type":"Point","coordinates":[-155.303253,19.437562]},"properties":{"kind":"trailhead","src":"osm","osm":"node/2215666378","name":"Pukapuaulu Trailhead","operator":"National Park Service","elev_ft":3944}},{"type":"Feature","geometry":{"type":"Point","coordinates":[-157.821384,21.330582]},"properties":{"kind":"trailhead","src":"osm","osm":"node/2355687260","name":"Kalawahine Trailhead","fee":"no","access":"yes","elev_ft":1257}},{"type":"Feature","geometry":{"type":"Point","coordinates":[-156.65557,21.003548]},"properties":{"kind":"trailhead","src":"osm","osm":"node/2962085960","elev_ft":112}},{"type":"Feature","geometry":{"type":"Point","coordinates":[-159.630881,22.147614]},"properties":{"kind":"trailhead","src":"osm","osm":"node/3227099609","name":"Pihea Trail","elev_ft":4094}},{"type":"Feature","geometry":{"type":"Point","coordinates":[-159.625931,22.133556]},"properties":{"kind":"trailhead","src":"osm","osm":"node/4699912691","name":"Alaka'i Swamp Trail","elev_ft":3681}},{"type":"Feature","geometry":{"type":"Point","coordinates":[-159.343259,22.103072]},"properties":{"kind":"trailhead","src":"osm","osm":"node/4841617711","name":"Ho'opi'i Falls Trailhead","elev_ft":285}},{"type":"Feature","geometry":{"type":"Point","coordinates":[-156.419613,20.599129]},"properties":{"kind":"trailhead","src":"osm","osm":"node/5764871153","name":"Hoapili Trailhead","elev_ft":3}},{"type":"Feature","geometry":{"type":"Point","coordinates":[-158.002308,21.412223]},"properties":{"kind":"trailhead","src":"osm","osm":"node/6501507377","name":"Walkling Club Start","access":"yes","elev_ft":338}},{"type":"Feature","geometry":{"type":"Point","coordinates":[-158.049471,21.664477]},"properties":{"kind":"trailhead","src":"osm","osm":"node/6816805355","name":"Kammieland Trail","fee":"no","access":"yes","elev_ft":52}},{"type":"Feature","geometry":{"type":"Point","coordinates":[-157.719473,21.390203]},"properties":{"kind":"trailhead","src":"osm","osm":"node/8692160692","name":"PillBox Trail","elev_ft":115}},{"type":"Feature","geometry":{"type":"Point","coordinates":[-156.228344,20.752227]},"properties":{"kind":"trailhead","src":"osm","osm":"node/9123124355","name":"Halemau'u Trailhead","operator":"National Park Service","elev_ft":8071}},{"type":"Feature","geometry":{"type":"Point","coordinates":[-157.78554,21.297428]},"properties":{"kind":"trailhead","src":"osm","osm":"node/10030756505","name":"Lanipo Ridge Trailhead","elev_ft":1083}},{"type":"Feature","geometry":{"type":"Point","coordinates":[-157.820116,21.31622]},"properties":{"kind":"trailhead","src":"osm","osm":"node/11081943891","name":"'Ulaka'a Trail","elev_ft":1040}},{"type":"Feature","geometry":{"type":"Point","coordinates":[-157.813199,21.325913]},"properties":{"kind":"trailhead","src":"osm","osm":"node/11098237095","name":"Manoa Cliff Trailhead","elev_ft":1404}},{"type":"Feature","geometry":{"type":"Point","coordinates":[-159.646216,22.142495]},"properties":{"kind":"trailhead","src":"osm","osm":"node/11221969627","name":"Kaluapuhi Trail","elev_ft":4098}},{"type":"Feature","geometry":{"type":"Point","coordinates":[-159.648124,22.144179]},"properties":{"kind":"trailhead","src":"osm","osm":"node/11221969628","name":"Honopu Trail","elev_ft":4052}},{"type":"Feature","geometry":{"type":"Point","coordinates":[-159.646087,22.151112]},"properties":{"kind":"trailhead","src":"osm","osm":"node/11222002532","name":"Kalepa Ridge Trail","elev_ft":4042}},{"type":"Feature","geometry":{"type":"Point","coordinates":[-159.642704,22.150825]},"properties":{"kind":"trailhead","src":"osm","osm":"node/11222002533","name":"Kaluapuhi Trail","elev_ft":4032}},{"type":"Feature","geometry":{"type":"Point","coordinates":[-155.987938,20.753872]},"properties":{"kind":"trailhead","src":"osm","osm":"node/11283970032","name":"Fagan's Cross","elev_ft":108}},{"type":"Feature","geometry":{"type":"Point","coordinates":[-156.250951,20.714218]},"properties":{"kind":"trailhead","src":"osm","osm":"node/11294457044","name":"Sliding Sands","elev_ft":9767}},{"type":"Feature","geometry":{"type":"Point","coordinates":[-155.467999,19.810143]},"properties":{"kind":"trailhead","src":"osm","osm":"node/12423071833","name":"Lower Lake Waiau Trailhead","elev_ft":12818}},{"type":"Feature","geometry":{"type":"Point","coordinates":[-156.330276,20.843676]},"properties":{"kind":"campsite","src":"overture:meta","name":"Haleakala National Park","website":"http://nps.gov/hale","elev_ft":1496}},{"type":"Feature","geometry":{"type":"Point","coordinates":[-157.84668,21.451248]},"properties":{"kind":"rv_park","src":"overture:meta","name":"21 Degrees Estate Cacao Farm","website":"http://21degreesestate.com/","addr":"47-546 Mapele Pl, Kaneohe","elev_ft":92}},{"type":"Feature","geometry":{"type":"Point","coordinates":[-159.661865,22.071707]},"properties":{"kind":"rv_park","src":"overture:meta","name":"Southern Waimea Canyon Lookout","addr":"Waimea Canyon Dr, Waimea","elev_ft":3241}},{"type":"Feature","geometry":{"type":"Point","coordinates":[-156.5336,20.953766]},"properties":{"kind":"campsite","src":"overture:meta","name":"Camp Maluhia","website":"https://www.scoutinghawaii.org/camp-maui","addr":"3450 Kahekili Hwy, Wailuku","elev_ft":1109}},{"type":"Feature","geometry":{"type":"Point","coordinates":[-155.907394,19.182144]},"properties":{"kind":"campsite","src":"overture:meta","name":"Milolii Beach Park","website":"http://liveinhawaiinow.com/milolii-beach-park","addr":"89-1200 Milolii Rd, Captain Cook","elev_ft":13}},{"type":"Feature","geometry":{"type":"Point","coordinates":[-155.241165,19.992744]},"properties":{"kind":"campsite","src":"overture:meta","name":"Laup\u0101hoehoe Beach Park","website":"http://liveinhawaiinow.com/laupahoehoe-beach-park/","addr":"HI-19, Laupahoehoe","elev_ft":1276}},{"type":"Feature","geometry":{"type":"Point","coordinates":[-158.185394,21.547628]},"properties":{"kind":"campsite","src":"overture:meta","name":"Peacock Flats","elev_ft":1529}},{"type":"Feature","geometry":{"type":"Point","coordinates":[-158.111633,21.375647]},"properties":{"kind":"campsite","src":"overture:meta","name":"Camp Palehua","website":"http://camppalehua.org/","addr":"1 Palehua Rd, Kapolei","elev_ft":1634}},{"type":"Feature","geometry":{"type":"Point","coordinates":[-158.17952,21.428062]},"properties":{"kind":"campsite","src":"overture:Foursquare","name":"Maili Beach Park","website":"http://www.lookintohawaii.com/hawaii/4153/maili-beach-park-beaches-oahu-waianae-hi","addr":"87-021 Farrington Highway, Wai'anae","elev_ft":-13}},{"type":"Feature","geometry":{"type":"Point","coordinates":[-157.709564,21.369959]},"properties":{"kind":"campsite","src":"overture:meta","name":"Bellows Camp Site","website":"bellowsafs.com","addr":"448 Tinker Rd, Waimanalo","elev_ft":43}},{"type":"Feature","geometry":{"type":"Point","coordinates":[-159.662811,22.071871]},"properties":{"kind":"campsite","src":"overture:meta","name":"Koke'e Museum, Campground & Lodge","elev_ft":3241}},{"type":"Feature","geometry":{"type":"Point","coordinates":[-158.02562,21.644077]},"properties":{"kind":"campsite","src":"overture:meta","name":"Camp Pupukea","website":"http://www.alohacouncilbsa.org/camping/camp-pupukea-oahu/51129","addr":"59-777 Pupukea Rd, Haleiwa","elev_ft":1004}},{"type":"Feature","geometry":{"type":"Point","coordinates":[-155.652252,19.061468]},"properties":{"kind":"campsite","src":"overture:meta","name":"Keola Retreat","website":"http://www.keolaretreat.com/","addr":"94 Mamalahoa Hwy, Naalehu","elev_ft":1965}},{"type":"Feature","geometry":{"type":"Point","coordinates":[-157.692368,21.330414]},"properties":{"kind":"campsite","src":"overture:meta","name":"Waimanalo Beach Campsite","website":"https://camping.honolulu.gov/campsites/search?park_id=13","addr":"Huli St +, Kalaniana\u02bbole Hwy, Waimanalo","elev_ft":36}},{"type":"Feature","geometry":{"type":"Point","coordinates":[-156.046616,19.698671]},"properties":{"kind":"campsite","src":"overture:meta","name":"Kohanaiki Beach Park","website":"https://kohanaiki.com","elev_ft":7}},{"type":"Feature","geometry":{"type":"Point","coordinates":[-158.156372,21.466862]},"properties":{"kind":"campsite","src":"overture:meta","name":"Camp Waianae","website":"http://campwaianae.org/","addr":"85-1560 Haleahi Rd, Waianae","elev_ft":367}},{"type":"Feature","geometry":{"type":"Point","coordinates":[-158.152527,21.579069]},"properties":{"kind":"campsite","src":"overture:meta","name":"Camp Homelani","website":"http://camphomelani.org/","addr":"68-243 Olohio St, Waialua","elev_ft":26}},{"type":"Feature","geometry":{"type":"Point","coordinates":[-157.902496,21.372423]},"properties":{"kind":"campsite","src":"overture:Foursquare","name":"KOA Campgrounds","website":"http://koa.com","addr":"99-1405 Koaha Pl, Aiea","elev_ft":177}},{"type":"Feature","geometry":{"type":"Point","coordinates":[-159.356125,21.965509]},"properties":{"kind":"campsite","src":"overture:Microsoft","name":"Koa Trading Company Inc","website":"http://www.koatradingcoinc.com/","addr":"2975 Aukele St, Lihue","elev_ft":144}},{"type":"Feature","geometry":{"type":"Point","coordinates":[-158.078629,21.502451]},"properties":{"kind":"campsite","src":"overture:meta","name":"RCSB Area X, Schofield Barracks, HI","website":"http://www.schofieldbarrackshousing.com/","addr":"Hut 26 Hawaii Street, Wahiawa","elev_ft":968}},{"type":"Feature","geometry":{"type":"Point","coordinates":[-158.111984,21.586481]},"properties":{"kind":"rv_park","src":"overture:meta","name":"Holomua Farms","website":"http://www.holomuafarms.com/","addr":"Haleiwa Beach Park, 66-167 Haleiwa Rd, Haleiwa","elev_ft":23}},{"type":"Feature","geometry":{"type":"Point","coordinates":[-159.675476,22.105518]},"properties":{"kind":"campsite","src":"overture:meta","name":"Camp Hale Koa","website":"http://www.camphalekoa.com/","addr":"Kokee State Park, Kekaha","elev_ft":3484}},{"type":"Feature","geometry":{"type":"Point","coordinates":[-155.901291,20.182348]},"properties":{"kind":"campsite","src":"overture:meta","name":"Mahukona Beach Park","elev_ft":26}},{"type":"Feature","geometry":{"type":"Point","coordinates":[-158.191055,21.447046]},"properties":{"kind":"campsite","src":"overture:meta","name":"Waianae Rest Camp....","addr":"85-10 Army St, Waianae","elev_ft":23}},{"type":"Feature","geometry":{"type":"Point","coordinates":[-158.224884,21.502316]},"properties":{"kind":"campsite","src":"overture:Foursquare","name":"Our Lady Of Ke'au CENTER","website":"http://www.stfrancishawaii.org","elev_ft":141}},{"type":"Feature","geometry":{"type":"Point","coordinates":[-156.525284,20.955219]},"properties":{"kind":"campsite","src":"overture:Foursquare","name":"Camp Maluhia","website":"http://www.mauibsa.org/camp-maluhia","elev_ft":696}},{"type":"Feature","geometry":{"type":"Point","coordinates":[-156.217407,20.740572]},"properties":{"kind":"campsite","src":"overture:meta","name":"Holua Cabin & Campground","website":"https://www.nps.gov/hale/learn/news/holua-campground-closure.htm","elev_ft":7008}},{"type":"Feature","geometry":{"type":"Point","coordinates":[-155.882553,19.429876]},"properties":{"kind":"campsite","src":"overture:meta","name":"Hale Koa Farms","elev_ft":958}},{"type":"Feature","geometry":{"type":"Point","coordinates":[-156.452042,20.77433]},"properties":{"kind":"campsite","src":"overture:meta","name":"Maui Camping King","website":"http://www.mauicampingking.com/contact.html","addr":"357 Huku Lii Pl, Kihei","elev_ft":89}},{"type":"Feature","geometry":{"type":"Point","coordinates":[-157.709671,21.362572]},"properties":{"kind":"campsite","src":"overture:meta","name":"Bellows AFB Campgrounds","website":"http://www.bellowsafs.com","addr":"220 Tinker Rd, Waimanalo","elev_ft":26}},{"type":"Feature","geometry":{"type":"Point","coordinates":[-156.322403,20.913349]},"properties":{"kind":"campsite","src":"overture:meta","name":"Camp Haleakala","website":"http://camphaleakalamaui.com/","addr":"810 Haiku Rd, Haiku","elev_ft":531}},{"type":"Feature","geometry":{"type":"Point","coordinates":[-157.707031,21.377132]},"properties":{"kind":"campsite","src":"overture:meta","name":"Bellows Air Force Station","website":"http://www.bellowsafs.com/","elev_ft":26}},{"type":"Feature","geometry":{"type":"Point","coordinates":[-155.962585,19.565065]},"properties":{"kind":"rv_park","src":"overture:meta","name":"Hale Koa Vacation Rentals","website":"https://www.vrbo.com/231534ha?adultsCount=2&arrival=2022-08-11&departure=2022-08-17","addr":"78-296 Manukai St, Kailua Kona","elev_ft":66}},{"type":"Feature","geometry":{"type":"Point","coordinates":[-155.950485,19.706289]},"properties":{"kind":"campsite","src":"overture:meta","name":"Kona Camping ","addr":"73 2280 Kaloko Dr , Kailua Kona","elev_ft":2940}},{"type":"Feature","geometry":{"type":"Point","coordinates":[-155.993607,20.785238]},"properties":{"kind":"campsite","src":"overture:meta","name":"Wainapanapa Cabins","elev_ft":-7}},{"type":"Feature","geometry":{"type":"Point","coordinates":[-156.510529,20.943811]},"properties":{"kind":"campsite","src":"overture:meta","name":"Kapuna Point","elev_ft":105}},{"type":"Feature","geometry":{"type":"Point","coordinates":[-155.891724,19.206669]},"properties":{"kind":"rv_park","src":"overture:meta","name":"Puhala Hale South Kona Hawaii","website":"http://www.southkonarental.com/","addr":"Puhala Ave, Captain Cook","elev_ft":541}},{"type":"Feature","geometry":{"type":"Point","coordinates":[-158.0401,21.674232]},"properties":{"kind":"campsite","src":"overture:meta","name":"WB Surfing","website":"http://northshoresurfinglessons.com/","addr":"59-104 Kamehameha Hwy, Haleiwa","elev_ft":16}},{"type":"Feature","geometry":{"type":"Point","coordinates":[-155.967194,19.571753]},"properties":{"kind":"rv_park","src":"overture:meta","name":"Kona 101 Vacation Rentals, LLC.","website":"http://kona101.com/","addr":"78-6800 Alii Dr, Kailua Kona","elev_ft":30}},{"type":"Feature","geometry":{"type":"Point","coordinates":[-156.164444,20.709722]},"properties":{"kind":"campsite","src":"ridb","name":"Haleakal\u0101 National Park (Cabin Permits)","reservation":"yes","addr":"Makawao","elev_ft":6686}}]}